{
"type": "FeatureCollection",
"name": "corridor_candidates",
"crs": { "type": "name", "properties": { "name": "urn:ogc:def:crs:EPSG::6372" } },
"features": [
{ "type": "Feature", "properties": { "candidate_id": "W6_G00", "corridor_group": 0, "route_km": 65.543355819533105, "n_stops": 132, "straight_line_km": 4.4472332166152047, "connects_to_existing": true, "n_served_agebs": 90, "total_demand": 519762.58244937845, "f1_demand_gain": 0.17257573317497199, "f2_route_km": 65.543355819533105, "f3_equity": 0.57594075728395289, "composite_score": 0.31656092249596024, "total_score": 0.31656092249596024, "pareto_rank": 1, "feasible": false, "mode_assignment": "BRT" }, "geometry": { "type": "LineString", "coordinates": [ [ 2362965.848246803041548, 951882.656753106974065 ], [ 2362923.978912588208914, 951855.543262647697702 ], [ 2362874.638431206811219, 951827.91429882904049 ], [ 2362839.94105385011062, 951808.342933319509029 ], [ 2362824.736466709524393, 951813.753411134472117 ], [ 2362770.407053743023425, 951831.873514732345939 ], [ 2362738.749449071940035, 951842.430484093376435 ], [ 2362677.432352425996214, 951862.875664233113639 ], [ 2362694.584264704957604, 951900.867457514046691 ], [ 2362632.208262336906046, 951946.07593647215981 ], [ 2362588.420618092641234, 951975.577511541196145 ], [ 2362546.324086528271437, 952003.773560756584629 ], [ 2362554.366274044383317, 952068.432893247227184 ], [ 2362566.660696249920875, 952106.656761273625307 ], [ 2362609.896316831931472, 952203.076898135361262 ], [ 2362640.137711460702121, 952272.107160600600764 ], [ 2362674.852028318215162, 952362.288094350835308 ], [ 2362714.183662965428084, 952475.790469109779224 ], [ 2362718.621655903756618, 952488.627863883390091 ], [ 2362720.488359354902059, 952494.002343912725337 ], [ 2362733.022791238036007, 952530.184214248904027 ], [ 2362789.848127643112093, 952510.508431966183707 ], [ 2362954.839553854428232, 952477.124082156340592 ], [ 2363003.131857634522021, 952470.07517487090081 ], [ 2363108.65448894770816, 952454.572548131109215 ], [ 2363276.234677804168314, 952439.493090060073882 ], [ 2363655.428374313283712, 952383.808459804742597 ], [ 2363795.059213407803327, 952357.667126497719437 ], [ 2363725.592066610231996, 952320.296220730058849 ], [ 2363677.883471003267914, 952438.831850700895302 ], [ 2363549.224747496191412, 952723.983204093528911 ], [ 2363523.677116864360869, 952782.456253727781586 ], [ 2363501.273645194247365, 952833.888020429527387 ], [ 2363450.462585031054914, 952950.015700047602877 ], [ 2363459.303177187684923, 952953.881907863775268 ], [ 2363455.324493639171124, 952981.99034976575058 ], [ 2363415.065575007814914, 953070.015498345368542 ], [ 2363666.121790940873325, 953488.208797543076798 ], [ 2363726.370462323538959, 953478.682226799661294 ], [ 2363907.243628668598831, 953450.334359012893401 ], [ 2363450.762578116264194, 954267.779298825887963 ], [ 2363434.730643644928932, 954177.073661745758727 ], [ 2363423.268738450016826, 954113.736249457346275 ], [ 2363497.558251188136637, 954082.237833039253019 ], [ 2363632.141848659142852, 954057.72911039146129 ], [ 2363621.32200836064294, 953997.527980371960439 ], [ 2363615.611156205181032, 953965.748726098099723 ], [ 2363609.922458401881158, 953934.123625403270125 ], [ 2363608.358070044312626, 953925.427548729698174 ], [ 2363600.754445633850992, 953883.113898178213276 ], [ 2363656.35167885851115, 953872.63733969477471 ], [ 2363643.713770034257323, 953786.244338890654035 ], [ 2363675.694472450297326, 953779.61164376756642 ], [ 2363772.264911255799234, 953760.281565565848723 ], [ 2363765.439000995829701, 953715.546010167570785 ], [ 2363759.327412123326212, 953672.854715602356009 ], [ 2363747.242651118896902, 953602.609328372753225 ], [ 2363729.879298596642911, 953496.765609722351655 ], [ 2363840.625842663925141, 953478.717537132557482 ], [ 2363909.601343282964081, 953467.458030730951577 ], [ 2363907.243628668598831, 953450.334359012893401 ], [ 2363356.76611071638763, 954395.217843102873303 ], [ 2363401.804867105558515, 954460.838056780514307 ], [ 2363500.830594819970429, 954553.560874526039697 ], [ 2363563.076319889165461, 954570.973400944145396 ], [ 2363600.58482710737735, 954588.811247823876329 ], [ 2363639.031496115494519, 954600.267693517147563 ], [ 2363728.942022272385657, 954605.949725726270117 ], [ 2363772.795296493452042, 954612.604920994257554 ], [ 2363792.411609747447073, 954616.471913532470353 ], [ 2363826.352007083594799, 954621.101005138247274 ], [ 2363867.283285792451352, 954627.264990404713899 ], [ 2363917.95397378411144, 954632.391851310734637 ], [ 2363921.336272798478603, 954720.743521387223154 ], [ 2363921.312778220511973, 954768.154530551168136 ], [ 2363921.146780606824905, 954811.332934307982214 ], [ 2363921.043912220280617, 954839.835463862866163 ], [ 2363915.589023706037551, 954898.432088671135716 ], [ 2363914.693801515735686, 954910.667832216364332 ], [ 2363911.44421079242602, 954965.186797648784705 ], [ 2363961.008432465139776, 955005.010895424056798 ], [ 2364226.553095908369869, 955062.456717971013859 ], [ 2364355.286487681791186, 955087.237895058933645 ], [ 2364399.627135493326932, 955086.040132620022632 ], [ 2364446.3655711770989, 955107.599840081995353 ], [ 2364984.658803578466177, 955097.526522878557444 ], [ 2365512.798717956990004, 955054.101295538013801 ], [ 2365577.734583740122616, 955049.159710653009824 ], [ 2365605.198714911006391, 955046.144315149518661 ], [ 2365719.194120742380619, 955039.43749281251803 ], [ 2365885.400287807453424, 955063.838827678118832 ], [ 2365933.68211542069912, 955088.70802674908191 ], [ 2366057.284308144357055, 955135.502300284570083 ], [ 2366145.361899397801608, 955171.061969405971467 ], [ 2366210.65565059101209, 955199.053740457980894 ], [ 2366257.33951605996117, 955218.34827944682911 ], [ 2366302.458507932722569, 955237.965733443736099 ], [ 2366305.374504117295146, 955094.461904658237472 ], [ 2366300.799465687945485, 955041.656694613862783 ], [ 2366296.056669657118618, 955016.417294522165321 ], [ 2366284.532466121017933, 954965.526790311327204 ], [ 2366368.983132231514901, 954961.306492723990232 ], [ 2366345.02074413606897, 954773.863510887138546 ], [ 2363356.76611071638763, 954395.217843102873303 ], [ 2363401.804867105558515, 954460.838056780514307 ], [ 2363500.830594819970429, 954553.560874526039697 ], [ 2363442.727081474848092, 954575.748307426692918 ], [ 2363440.556795381940901, 954607.401179942185991 ], [ 2363433.834734722506255, 954705.360705462633632 ], [ 2363433.359928931575269, 954712.454632309731096 ], [ 2363427.435575573239475, 954779.655911707435735 ], [ 2363413.605743428692222, 954847.469946235301904 ], [ 2363408.436531408224255, 954886.063427566550672 ], [ 2363406.888151177205145, 954899.484955239691772 ], [ 2363398.639028280973434, 954984.855877086170949 ], [ 2363383.375849791336805, 955109.134807763504796 ], [ 2363374.33704590331763, 955203.454738419735804 ], [ 2363359.563921498600394, 955313.208130227983929 ], [ 2363307.241319882683456, 955309.983781265676953 ], [ 2363273.474985965993255, 955308.331257397308946 ], [ 2363178.862884221132845, 955310.269926073146053 ], [ 2363169.947553267236799, 955391.887097142520361 ], [ 2363069.089737750124186, 955400.984435669961385 ], [ 2363066.652814630419016, 955436.278129706741311 ], [ 2363046.973488552961498, 955497.695976464427076 ], [ 2363013.453064942732453, 955558.833220822969452 ], [ 2363000.822278577834368, 955586.304228972527198 ], [ 2362972.640730934217572, 955663.489930685376748 ], [ 2362952.908494428731501, 955712.316950869979337 ], [ 2362954.229701213072985, 955743.066485965973698 ], [ 2362933.698578496929258, 955781.779273611376993 ], [ 2362949.095029352698475, 955788.627821733243763 ], [ 2362963.951082918327302, 955864.215510922833346 ], [ 2363018.757104967255145, 955977.330800857394934 ], [ 2363010.676291262730956, 955979.136186470277607 ], [ 2362958.316084631253034, 955994.138893589610234 ], [ 2362911.337072504684329, 956006.148376136203296 ], [ 2362865.362698845565319, 956017.895161994267255 ], [ 2362822.001209879294038, 956029.287243201746605 ], [ 2362779.571786011103541, 956040.428294596844353 ], [ 2362729.021980736404657, 956054.698450757423416 ], [ 2362633.225505142938346, 956080.775721235899255 ], [ 2362609.638601341750473, 956067.20025827572681 ], [ 2362566.948238276876509, 956143.384759489330463 ], [ 2362540.075923493131995, 956141.637209274224006 ], [ 2362500.175045635551214, 956134.254633584758267 ], [ 2362489.928930310998112, 956130.898235150496475 ], [ 2362439.977317740209401, 956126.706871916889213 ], [ 2362386.656870475038886, 956124.189640731783584 ], [ 2362334.057215968612581, 956121.037471663206816 ], [ 2362323.315994371194392, 956251.614550540223718 ], [ 2362319.869076191913337, 956283.003408708842471 ], [ 2362268.219320363365114, 956288.211172791314311 ], [ 2362261.642185463104397, 956367.237780343857594 ], [ 2362208.472092242911458, 956386.484449722454883 ], [ 2362199.909388691186905, 956378.812671849271283 ], [ 2362185.544693230651319, 956375.737177357892506 ], [ 2362142.957066955044866, 956352.823247744003311 ], [ 2362088.864027665928006, 956337.425255704321899 ], [ 2362010.985106070525944, 956334.056389438686892 ], [ 2361956.758493956178427, 956334.503984161885455 ], [ 2361908.789089131169021, 956339.149638777947985 ], [ 2361857.949238401371986, 956336.512071287841536 ], [ 2361813.912075275555253, 956334.208455490646884 ], [ 2361778.807182974182069, 956332.395369286532514 ], [ 2361767.546661203261465, 956387.495906857657246 ], [ 2361756.349833386484534, 956437.149168966570869 ], [ 2361746.622628282755613, 956484.076465324149467 ], [ 2361731.772228816524148, 956556.123651944217272 ], [ 2361725.073142897803336, 956625.052028205711395 ], [ 2361727.912618933711201, 956634.584882700582966 ], [ 2361746.398210699204355, 956725.948011713684537 ], [ 2361750.731875555124134, 956752.181841078097932 ], [ 2361754.966271384619176, 956777.788127921405248 ], [ 2361661.118767636828125, 956833.071392663288862 ], [ 2361667.69641790073365, 956839.372053888393566 ], [ 2361682.865613798610866, 956965.937502379878424 ], [ 2361692.069761683698744, 957042.656383853522129 ], [ 2361727.112838924862444, 957318.499977568746544 ], [ 2361724.102951807901263, 957319.663570952950977 ], [ 2361784.18851072806865, 957353.615644092205912 ], [ 2361825.222103129141033, 957391.63680844719056 ], [ 2361837.251328752376139, 957410.478126259637065 ], [ 2361841.75022040028125, 957418.760682309279218 ], [ 2361742.948210299015045, 957504.596966968732886 ], [ 2361624.743111954070628, 957596.744434888008982 ], [ 2361495.48992152698338, 957513.192942829919048 ], [ 2361323.16812170855701, 957566.782848633825779 ], [ 2368116.328966711182147, 954876.682839256944135 ], [ 2368056.677666193339974, 954873.59491110232193 ], [ 2368001.111195569392294, 954873.381797839072533 ], [ 2367943.270454993005842, 954873.10085782466922 ], [ 2367925.918862273450941, 954872.736560580553487 ], [ 2367901.059601622633636, 954872.207352735567838 ], [ 2367872.874830232001841, 954871.310771513613872 ], [ 2367845.847359886858612, 954870.966283286688849 ], [ 2367821.01198672503233, 954870.789820277947001 ], [ 2367749.79327709460631, 954869.845578161301091 ], [ 2367693.111764546018094, 954865.663230492267758 ], [ 2367590.236136090476066, 954878.496593698393553 ], [ 2367577.210190855432302, 954880.056813793838955 ], [ 2367485.131512328516692, 954899.829292051843368 ], [ 2367474.031442646402866, 954908.969187856419012 ], [ 2367419.231009761337191, 954921.320757775916718 ], [ 2367391.782750288490206, 954760.655656146118417 ], [ 2367327.504255798645318, 954767.325530426460318 ], [ 2368116.328966711182147, 954876.682839256944135 ], [ 2368178.793810043483973, 954877.430693131755106 ], [ 2368242.639189026784152, 954876.975813665194437 ], [ 2368331.395216210745275, 954874.647030280553736 ], [ 2368357.9236348583363, 954885.482274819049053 ], [ 2368356.69492678437382, 954949.651804886059836 ], [ 2368356.470931304618716, 954957.195376184419729 ], [ 2368363.020174224395305, 955036.842357005458325 ], [ 2368377.085898616351187, 955128.242398680886254 ], [ 2368379.27480172039941, 955165.633256009314209 ], [ 2368380.088384102098644, 955205.991149294306524 ], [ 2368378.654933950863779, 955272.841586984111927 ], [ 2368378.159400722943246, 955316.606935838819481 ], [ 2368379.898879379034042, 955358.3568632673705 ], [ 2368381.67855868069455, 955398.783341312780976 ], [ 2368383.63338154181838, 955447.279057295294479 ], [ 2368367.402441829908639, 955484.347549487138167 ], [ 2368372.309773170389235, 955503.951916589867324 ], [ 2368457.213219160679728, 955601.804086997872218 ], [ 2368465.884996737353504, 955610.393643800984137 ], [ 2368485.559820080175996, 955636.460913873626851 ], [ 2368514.653458080254495, 955675.786067749257199 ], [ 2368547.342096581589431, 955723.701587637071498 ], [ 2368573.677231039851904, 955785.741980084916577 ], [ 2368587.226103341206908, 955824.686259011388756 ], [ 2368741.635600118897855, 955770.213543576304801 ], [ 2368755.426484985277057, 955821.350209132884629 ], [ 2368763.671954012941569, 955885.248317718855105 ], [ 2368815.729564868845046, 955858.802073273225687 ], [ 2369008.232279651332647, 956021.830081575433724 ], [ 2369041.102568911388516, 956051.718048011302017 ], [ 2369047.653760264161974, 956078.937823212821968 ], [ 2369019.712522691581398, 956085.391052073566243 ], [ 2369018.865746303461492, 956120.118193811387755 ], [ 2369078.460057559423149, 956116.142976319999434 ], [ 2369160.144471869803965, 956109.691535997437313 ], [ 2369295.017764852847904, 956102.762449599569663 ], [ 2369481.255175081081688, 956093.245215970207937 ], [ 2369535.879441680386662, 956089.535916630993597 ], [ 2369757.938387798145413, 956112.774106315569952 ], [ 2369764.260422598570585, 956244.485905591165647 ], [ 2369784.83520195633173, 956243.247471070964821 ], [ 2369827.903123432770371, 956241.713141347630881 ], [ 2369836.547849987167865, 956358.949978070682846 ], [ 2369880.846318119205534, 956355.71812390035484 ], [ 2369882.340777557808906, 956368.737319352221675 ], [ 2369945.761523929890245, 956360.818042066995986 ], [ 2369959.719102541450411, 956405.426959980861284 ], [ 2370024.685779207386076, 956396.237598258419894 ], [ 2370077.833539262413979, 956455.411104600527324 ], [ 2370120.592424992471933, 956450.649817330995575 ], [ 2370360.512116952799261, 956524.150036587379873 ], [ 2370370.054367582779378, 956599.514986208057962 ], [ 2370374.487389995250851, 956618.638837147271261 ], [ 2370395.854978334158659, 956610.745920408866368 ], [ 2370430.722239897120744, 956597.421205102466047 ], [ 2370466.962295342236757, 956585.573078884393908 ], [ 2370504.252082353457808, 956571.477716891327873 ], [ 2370609.340024715289474, 956544.356170927640051 ], [ 2370638.619167112745345, 956533.009986458462663 ], [ 2370692.517932675778866, 956515.253618362359703 ], [ 2370784.929213145747781, 956481.881660632556304 ], [ 2370799.248744819313288, 956515.870527861523442 ], [ 2370828.059119784273207, 956559.347961872234009 ], [ 2370859.832505729515105, 956603.362037555198185 ], [ 2370889.485367924906313, 956588.418772779870778 ], [ 2370906.058155895210803, 956608.15415930445306 ], [ 2370927.34014969272539, 956773.540549619705416 ], [ 2370974.245691936928779, 956795.75838500703685 ], [ 2371037.328240138012916, 956825.642307514557615 ], [ 2371047.974575403612107, 956831.151064616860822 ], [ 2370961.49615534208715, 956876.950821356615052 ], [ 2370947.687181109562516, 956979.608118408126757 ], [ 2371183.211589906364679, 957004.900527595193125 ], [ 2371188.13081412576139, 957004.769756886176765 ], [ 2371199.404362293425947, 957013.205980008584447 ], [ 2371199.924414754379541, 957014.524545173975639 ], [ 2371200.334574589505792, 957022.338103617308661 ], [ 2371212.014876004774123, 957104.189854872296564 ], [ 2371224.660156934522092, 957156.010709421825595 ], [ 2371231.928226955235004, 957175.418920213356614 ], [ 2371210.970504544209689, 957191.046983040287159 ], [ 2371190.360198921058327, 957206.032587503199466 ], [ 2371156.86815743194893, 957217.447181836585514 ], [ 2371117.497514150105417, 957359.157197077409364 ], [ 2371146.965070084203035, 957474.052517307456583 ], [ 2371168.383205740246922, 957552.45691375725437 ], [ 2371181.865019985008985, 957605.009037556941621 ], [ 2371206.98123904177919, 957702.973704834003001 ], [ 2371246.047585474327207, 957846.518281049910001 ], [ 2371281.98280552495271, 957978.557249215431511 ], [ 2371311.249252359382808, 958086.078088201116771 ], [ 2371354.368984439410269, 958240.072706508799456 ], [ 2371388.047953279223293, 958368.27215207030531 ], [ 2371403.270125202834606, 958424.204961927956901 ], [ 2371424.759320069104433, 958501.52808220568113 ], [ 2371444.81281165452674, 958573.681642875308171 ], [ 2371459.810149584896863, 958627.664870845153928 ], [ 2371489.051032806746662, 958746.938858009991236 ], [ 2371525.118827974423766, 958869.571746145724319 ], [ 2371556.224725129082799, 958992.192302748211659 ], [ 2371634.29451335594058, 959064.187118627713062 ], [ 2371655.263078459072858, 959101.834372994722798 ], [ 2371670.107628379948437, 959145.466096103889868 ], [ 2371709.517806609626859, 959291.300696078804322 ], [ 2371729.391453848686069, 959336.840560760116205 ], [ 2371747.426545240916312, 959387.037953422870487 ], [ 2371756.970689930953085, 959413.030680090887472 ], [ 2371764.268924511503428, 959436.143090246478096 ], [ 2371770.280390525702387, 959453.257770153111778 ], [ 2371799.683437262196094, 959533.985658328398131 ], [ 2371813.057750464882702, 959574.509878818993457 ], [ 2371824.72621552972123, 959630.27477974514477 ], [ 2371838.212799618486315, 959641.669094583834521 ], [ 2371877.475463694892824, 959770.702290200744756 ], [ 2371920.839450303930789, 959762.534162580734119 ], [ 2371994.56511636916548, 959719.871369512286037 ], [ 2372013.038598911836743, 959760.85902277356945 ], [ 2372073.730211446527392, 959749.730891466024332 ], [ 2372081.01110457116738, 959778.146727040526457 ], [ 2372097.92906357254833, 959825.355090578668751 ], [ 2372156.350079802796245, 959825.393409730982967 ], [ 2372171.583219564054161, 959828.724522778647952 ], [ 2372203.78856502706185, 959850.575775963487104 ], [ 2372224.235781824681908, 959862.84780594764743 ], [ 2372245.044733910355717, 959888.247907151584513 ], [ 2372267.714285768568516, 959953.896497751586139 ], [ 2372271.136011469643563, 959954.738131998572499 ], [ 2372304.366679009515792, 959970.34045703522861 ], [ 2372310.61732055619359, 959974.300041943206452 ], [ 2372338.365015854127705, 960004.061871101846918 ], [ 2372323.984469735994935, 960063.79903512285091 ], [ 2372328.464604870881885, 960102.128642815398052 ], [ 2372329.165839607827365, 960106.444544010679238 ], [ 2372330.496277277823538, 960112.728575883433223 ], [ 2372334.308644629549235, 960142.177513521513902 ], [ 2372338.642014277167618, 960273.506663913838565 ], [ 2372312.826209713704884, 960276.528543636202812 ], [ 2372328.741870037745684, 960347.3837946386775 ], [ 2372332.681292260531336, 960355.35435406723991 ], [ 2372340.899032958783209, 960373.29916812828742 ], [ 2372349.122334596235305, 960411.254809854901396 ], [ 2372354.694134910125285, 960436.521048482623883 ], [ 2372365.890539808664471, 960483.536005024332553 ], [ 2372370.777675946243107, 960504.001092079561204 ], [ 2372371.797145132441074, 960511.544657104066573 ], [ 2372391.53652303526178, 960573.315327613032423 ], [ 2372402.515172349754721, 960620.376233803457581 ], [ 2372414.204542979132384, 960670.451959085650742 ], [ 2372426.466150515712798, 960718.284644788713194 ], [ 2372439.007124274969101, 960767.239504900062457 ], [ 2372455.70731425145641, 960821.991066752350889 ], [ 2372462.23775666905567, 960827.161067233071662 ], [ 2372475.580174100585282, 960873.992206131573766 ], [ 2372477.569948186166584, 960884.570409932057373 ], [ 2372483.047595459036529, 960926.750127894454636 ], [ 2372488.836831893306226, 960971.385792246786878 ], [ 2372495.610684849321842, 961013.455156590323895 ], [ 2372500.725142545998096, 961055.648979872697964 ], [ 2372509.559057688806206, 961111.669631404336542 ], [ 2372512.113484032917768, 961123.962919226964004 ], [ 2372526.094574227463454, 961177.558015607879497 ], [ 2372529.3282371442765, 961207.36454652028624 ], [ 2372539.058603511191905, 961299.010946366353892 ], [ 2372555.349656768143177, 961461.206464854651131 ], [ 2372569.112469311803579, 961575.408795930212364 ], [ 2372614.237661899533123, 961577.172378813964315 ], [ 2372626.859188570640981, 961695.099921228713356 ], [ 2372665.421564373653382, 961706.092771893716417 ], [ 2372759.408200153615326, 961701.275721044745296 ], [ 2372751.995116821955889, 961852.538262845249847 ], [ 2372747.398385033942759, 961939.951956479577348 ], [ 2372745.59151508891955, 961989.558550899382681 ], [ 2372741.725738355889916, 962095.697636748082004 ], [ 2372740.298230916261673, 962160.53767930297181 ], [ 2372738.250089607667178, 962260.795729706762359 ], [ 2372793.806046106852591, 962259.405644336598925 ], [ 2372804.584507333580405, 962259.048910133773461 ], [ 2372873.84018340613693, 962256.7151489892276 ], [ 2372875.504357657395303, 962356.776016962830909 ], [ 2365821.358213218860328, 949356.337600891245529 ], [ 2365848.556854903697968, 949492.177526299608871 ], [ 2365867.752546448260546, 949566.2878588688327 ], [ 2365748.918459063861519, 949565.098167246673256 ], [ 2365657.005308913066983, 949564.03043683047872 ], [ 2365610.159562804736197, 949562.21474706986919 ], [ 2365438.44377542193979, 949555.572709476575255 ], [ 2365444.695838817860931, 949584.294494185014628 ], [ 2365242.991908441763371, 949579.436245617922395 ], [ 2365100.400115607772022, 949824.173399704042822 ], [ 2365055.987013643141836, 949925.707450996967964 ], [ 2365032.630507923662663, 949978.480651234509423 ], [ 2365014.754416973330081, 950028.602032866794616 ], [ 2364995.911096057854593, 950079.702485469868407 ], [ 2364980.169705008622259, 950122.406000770977698 ], [ 2364952.771897175814956, 950154.34346344624646 ], [ 2364819.51289521669969, 950302.585568363429047 ], [ 2364814.162160182371736, 950298.896286708884872 ], [ 2364770.612024997826666, 950342.977073243586347 ], [ 2364750.716606984846294, 950368.429557197610848 ], [ 2364697.463785303290933, 950443.008625911548734 ], [ 2364678.740255387499928, 950424.820291778072715 ], [ 2364607.464069504290819, 950469.065264755045064 ], [ 2364556.103451360017061, 950501.507936282199807 ], [ 2364541.653793017845601, 950489.653994110878557 ], [ 2364495.028169061988592, 950606.469520333805121 ], [ 2364487.094086083117872, 950623.599060148000717 ], [ 2364454.431347575969994, 950694.143446194007993 ], [ 2364445.036664599087089, 950712.807890582480468 ], [ 2364423.901663564611226, 950733.16696602141019 ], [ 2364338.838150143623352, 950925.79513288079761 ], [ 2364297.463687570299953, 951012.263524652807973 ], [ 2364264.659596253652126, 951092.170552252791822 ], [ 2364189.563218910712749, 951262.47980026062578 ], [ 2363956.537918435875326, 951792.730750134564005 ], [ 2363947.657478115987033, 951812.978421819396317 ], [ 2363916.601836864836514, 951883.81749191635754 ], [ 2363820.388619273900986, 952103.672972965287045 ], [ 2363725.592066610231996, 952320.296220730058849 ], [ 2363677.883471003267914, 952438.831850700895302 ], [ 2363549.224747496191412, 952723.983204093528911 ], [ 2363523.677116864360869, 952782.456253727781586 ], [ 2363501.273645194247365, 952833.888020429527387 ], [ 2363450.462585031054914, 952950.015700047602877 ], [ 2363459.303177187684923, 952953.881907863775268 ], [ 2363455.324493639171124, 952981.99034976575058 ], [ 2363415.065575007814914, 953070.015498345368542 ], [ 2363666.121790940873325, 953488.208797543076798 ], [ 2363726.370462323538959, 953478.682226799661294 ], [ 2363907.243628668598831, 953450.334359012893401 ], [ 2367347.581354215741158, 954930.250305035151541 ], [ 2367293.807873263955116, 954936.661346048116684 ], [ 2367239.120560633484274, 954941.878925803350285 ], [ 2367166.995735443662852, 954951.056145838228986 ], [ 2367130.588096637278795, 954954.765909752226435 ], [ 2367128.74227832024917, 954944.539482298423536 ], [ 2367015.89153570169583, 954960.972022801171988 ], [ 2367018.25337031390518, 954983.630845084204338 ], [ 2366910.181374443229288, 955005.005131658865139 ], [ 2366912.025985927321017, 955024.371864173910581 ], [ 2366769.191923822741956, 955046.476927671348676 ], [ 2366771.628897294402122, 955062.409339087549597 ], [ 2366692.252720523159951, 955070.959129129420035 ], [ 2366577.521618808619678, 955076.672776382416487 ], [ 2366472.740005882456899, 955085.098606179933995 ], [ 2366469.310562220402062, 955049.990386096644215 ], [ 2366417.907103698700666, 955052.017150481580757 ], [ 2366363.031358880456537, 955008.406701579573564 ], [ 2366368.983132231514901, 954961.306492723990232 ], [ 2366345.02074413606897, 954773.863510887138546 ] ] } },
{ "type": "Feature", "properties": { "candidate_id": "W6_G01", "corridor_group": 1, "route_km": 51.74143155041029, "n_stops": 104, "straight_line_km": 13.303791099448421, "connects_to_existing": true, "n_served_agebs": 26, "total_demand": 110473.65220121987, "f1_demand_gain": 0.37631576398591238, "f2_route_km": 51.74143155041029, "f3_equity": 0.44140080784041774, "composite_score": 0.4866659659460168, "total_score": 0.4866659659460168, "pareto_rank": 2, "feasible": false, "mode_assignment": "BRT" }, "geometry": { "type": "LineString", "coordinates": [ [ 2366044.725734684150666, 944673.154826670652255 ], [ 2366030.045080814976245, 944700.798039106302895 ], [ 2366000.659410283900797, 944732.565115556237288 ], [ 2365936.62387769902125, 944680.941560006700456 ], [ 2365915.330440911464393, 944626.011497968458571 ], [ 2365840.304475923068821, 944613.85199414100498 ], [ 2365796.165984028950334, 944607.51229171815794 ], [ 2365597.720363460481167, 944622.334511772962287 ], [ 2365503.446125830058008, 944710.658820336102508 ], [ 2365447.326025042682886, 944793.710195657098666 ], [ 2364812.394483215175569, 945140.342878173687495 ], [ 2364706.431950913742185, 945186.513444737996906 ], [ 2364607.766840281896293, 945230.821116832084954 ], [ 2364499.998784826137125, 945277.08672803780064 ], [ 2364397.041178684215993, 945321.048892397084273 ], [ 2364185.158427274785936, 945418.545596361043863 ], [ 2364082.16888190060854, 945464.494970393250696 ], [ 2363892.635519061237574, 945547.159747702185996 ], [ 2361685.081545461900532, 946313.68576654617209 ], [ 2361632.993178908247501, 946287.683962220442481 ], [ 2361573.307684590574354, 946221.087385048624128 ], [ 2361601.556745709385723, 945795.44591321493499 ], [ 2361517.592562701087445, 944723.091564875328913 ], [ 2361453.324673094786704, 944734.219437253428623 ], [ 2361405.406120724976063, 944734.940781418350525 ], [ 2361357.086789369117469, 944738.367518614977598 ], [ 2361311.67890756437555, 944739.826634458848275 ], [ 2361288.323198013473302, 944745.31476364529226 ], [ 2361288.416530471295118, 944787.700018667150289 ], [ 2361331.083000844810158, 944786.398664879612625 ], [ 2361335.908800043631345, 944925.37661380157806 ], [ 2361376.285281205549836, 944923.644611507537775 ], [ 2361417.816700866445899, 944922.100453764898703 ], [ 2361445.974655714351684, 944921.375449042301625 ], [ 2361447.569075562991202, 944964.353147047106177 ], [ 2361446.69683926878497, 944976.68894112855196 ], [ 2361252.2343969354406, 944983.273162338417023 ], [ 2361217.656908716075122, 944985.194066360360011 ], [ 2361218.613247296307236, 944976.330837838235311 ], [ 2361124.762330274563283, 944981.152867430006154 ], [ 2360919.001414765138179, 944990.46005415415857 ], [ 2360917.719894195906818, 944947.777201104094274 ], [ 2360891.905407970771194, 944949.131890413933434 ], [ 2360848.749862484168261, 944951.40941027586814 ], [ 2360857.758496501017362, 944842.537232261500321 ], [ 2360860.163186984602362, 944800.779222255805507 ], [ 2360991.964620883576572, 944795.733716037590057 ], [ 2366030.045080814976245, 944700.798039106302895 ], [ 2366108.475541797466576, 944896.486499458784238 ], [ 2366335.394176105968654, 944567.843069864902645 ], [ 2366352.843985575251281, 944541.906466411193833 ], [ 2366490.557578493840992, 944337.154672045493498 ], [ 2367159.30184909561649, 943352.500527863856405 ], [ 2367230.89165229909122, 943245.477428802987561 ], [ 2367261.652464461047202, 943199.497919645742513 ], [ 2367513.949228262994438, 942825.85250395629555 ], [ 2367580.515046583954245, 942690.757348531740718 ], [ 2367587.939082084689289, 942660.941373092471622 ], [ 2367621.219878286123276, 942514.729428693302907 ], [ 2367662.843237570486963, 942329.695447859703563 ], [ 2367729.566444369964302, 942067.935061349882744 ], [ 2367726.038337477948517, 942043.895013744826429 ], [ 2367834.691917640622705, 941989.462286677211523 ], [ 2368082.119972149375826, 941943.394444827339612 ], [ 2368133.640490293968469, 941933.025402201456018 ], [ 2368187.307858885731548, 941922.18545095261652 ], [ 2368232.552367595024407, 941912.996993833454326 ], [ 2368298.708690620027483, 941899.665238808607683 ], [ 2368546.199584198649973, 941830.955606296891347 ], [ 2368558.563268919941038, 941809.553894501412287 ], [ 2368560.669603946618736, 941803.316228643408976 ], [ 2368564.182785390876234, 941795.180579758365639 ], [ 2368581.381386429071426, 941802.394764649448916 ], [ 2368586.122609894257039, 941796.828550597419962 ], [ 2368643.978092487901449, 941710.508256771252491 ], [ 2368660.433026511687785, 941689.930637474986725 ], [ 2368684.353957667015493, 941649.880142139503732 ], [ 2368974.482963541056961, 941163.614621690008789 ], [ 2369045.099928332492709, 941009.41257400601171 ], [ 2369153.515175849664956, 940913.420169787015766 ], [ 2369024.219491027295589, 941115.42033634823747 ], [ 2368981.76661840826273, 941187.158957775332965 ], [ 2368864.977368461899459, 941384.529216925264336 ], [ 2368844.099792526103556, 941419.811190790147521 ], [ 2368775.959222782403231, 941534.979253071476705 ], [ 2368832.787934027146548, 941605.65672096516937 ], [ 2368842.953288061078638, 941607.144076053984463 ], [ 2369159.472959039267153, 941635.765855695819482 ], [ 2369201.813450891058892, 941643.620123555068858 ], [ 2369447.951516221743077, 941954.488950674887747 ], [ 2369588.034916608594358, 941836.004041286301799 ], [ 2369697.957009323406965, 941760.534767522243783 ], [ 2369808.66516494564712, 941684.519095447612926 ], [ 2369863.358626311644912, 941646.969422066933475 ], [ 2369869.414281648118049, 941655.02120345691219 ], [ 2369850.666309917811304, 941667.854670081869699 ], [ 2370082.729126750025898, 941675.74274669541046 ], [ 2370093.620167690329254, 941691.360917701851577 ], [ 2370104.580591257661581, 941735.206958995084278 ], [ 2370204.509542369283736, 941773.062157677020878 ], [ 2370151.838559314142913, 941809.027120585204102 ], [ 2370131.778373431414366, 941822.72071166022215 ], [ 2370128.533398322761059, 941843.84313891059719 ], [ 2366030.045080814976245, 944700.798039106302895 ], [ 2366000.659410283900797, 944732.565115556237288 ], [ 2365936.62387769902125, 944680.941560006700456 ], [ 2365915.330440911464393, 944626.011497968458571 ], [ 2365840.304475923068821, 944613.85199414100498 ], [ 2365796.165984028950334, 944607.51229171815794 ], [ 2365597.720363460481167, 944622.334511772962287 ], [ 2365503.446125830058008, 944710.658820336102508 ], [ 2365447.326025042682886, 944793.710195657098666 ], [ 2365423.671817150898278, 944778.949804983683862 ], [ 2365395.773149997461587, 944756.663591920165345 ], [ 2365397.156118693295866, 944368.108467715326697 ], [ 2365402.786550313234329, 944350.78999564202968 ], [ 2365416.847735378425568, 944258.105922631919384 ], [ 2365408.628747163806111, 944107.336514932569116 ], [ 2365394.675720545928925, 944060.202595949056558 ], [ 2365381.38990926835686, 944012.180516983848065 ], [ 2365357.043692759703845, 943931.332944658119231 ], [ 2365356.099682333879173, 943880.90578347700648 ], [ 2365341.626039959955961, 943807.24650904641021 ], [ 2365327.254687836393714, 943769.058912591310218 ], [ 2365321.265704821795225, 943700.748007353045978 ], [ 2365256.455545556265861, 943501.024197746883146 ], [ 2365220.449796897824854, 943399.452642934513278 ], [ 2365010.276874016039073, 942863.540464966208674 ], [ 2364924.184384280815721, 942651.781003922456875 ], [ 2364927.642750594299287, 942648.154947336413898 ], [ 2364774.692052400670946, 942580.459830143488944 ], [ 2364687.406928241252899, 942081.134569709538482 ], [ 2364637.490098230075091, 941990.925899045774713 ], [ 2364096.351250160019845, 941764.873416255228221 ], [ 2363969.581276905722916, 941711.679048035759479 ], [ 2363938.99260311294347, 941700.64481735532172 ], [ 2363736.901366985403001, 941577.690066935494542 ], [ 2363625.196790361776948, 941535.938926012371667 ], [ 2363533.741824218071997, 941566.526477482984774 ], [ 2363703.888340619392693, 940894.868723398190923 ], [ 2363733.924219680484384, 940680.452282559126616 ], [ 2363803.22967328177765, 940309.899636143352836 ], [ 2363840.796516741160303, 939256.40563620487228 ], [ 2363852.658969438634813, 939203.378731922945008 ], [ 2363865.987461382523179, 939141.307313979952596 ], [ 2363879.873240530025214, 939083.343863853253424 ], [ 2363896.205316652543843, 939011.000897288671695 ], [ 2363922.176679498981684, 938851.511583522078581 ], [ 2363924.652983332984149, 938827.902171065565199 ], [ 2363947.952540343161672, 938535.042944688117132 ], [ 2364065.395638220477849, 938329.573881931253709 ], [ 2364083.305991095956415, 938303.596191468881443 ], [ 2364118.021521736867726, 938370.95275921782013 ], [ 2364157.146732032764703, 938357.683440129039809 ], [ 2364225.292275581974536, 938341.139454526710324 ], [ 2364227.741687530186027, 938359.014063429902308 ], [ 2370131.778373431414366, 941822.72071166022215 ], [ 2370151.838559314142913, 941809.027120585204102 ], [ 2370204.509542369283736, 941773.062157677020878 ], [ 2370256.653846707660705, 941737.443788531818427 ], [ 2370306.860973340459168, 941624.875746765523218 ], [ 2370285.26052300632, 941587.010426487890072 ], [ 2370258.847052319906652, 941548.944440076011233 ], [ 2370233.054457931779325, 941511.788303210632876 ], [ 2370207.256262219510972, 941474.003722849301994 ], [ 2370189.444655403960496, 941447.661548483534716 ], [ 2370179.448516534641385, 941442.92992971627973 ], [ 2370178.502933476585895, 941432.198095172294416 ], [ 2370192.721272110939026, 941426.571879764436744 ], [ 2370214.013671674299985, 941369.355964679387398 ], [ 2372568.807994090486318, 940783.613417409476824 ], [ 2373347.134146162774414, 939592.805324431625195 ], [ 2374159.859815569128841, 938349.900290160207078 ], [ 2374165.966226768679917, 938340.696334841079079 ], [ 2374178.18530817469582, 938323.027185682556592 ], [ 2374422.427498193457723, 937941.263503311434761 ], [ 2374433.865902569144964, 937925.850607259897515 ], [ 2374554.382647607009858, 937743.198625865741633 ], [ 2374444.79929357720539, 937613.561084417393431 ], [ 2374385.750728264451027, 937545.679832922178321 ], [ 2374311.81898615276441, 937458.274041507858783 ], [ 2374274.635786442086101, 937414.721957484260201 ], [ 2374232.131651270668954, 937365.138928180909716 ], [ 2374210.913389513269067, 937340.05494847567752 ], [ 2374099.108579128049314, 937162.238862061058171 ], [ 2374081.334804157260805, 937127.841122612240724 ], [ 2374109.473988962825388, 937107.126142017892562 ], [ 2374524.24072755407542, 936798.608395252260379 ], [ 2375294.903230739757419, 936224.641014807508327 ], [ 2375854.933028083760291, 935754.377457208349369 ], [ 2375875.878080934286118, 935739.228126153466292 ], [ 2375960.343439133837819, 935864.620967812137678 ], [ 2375996.210549637209624, 935915.058625864447095 ], [ 2376021.83679171744734, 935952.823074568645097 ], [ 2376077.303365635219961, 935913.843973549082875 ], [ 2376102.419841666705906, 935950.33364474971313 ], [ 2376126.36821854673326, 935985.123842146364041 ], [ 2376152.463039660826325, 936023.038978235679679 ] ] } },
{ "type": "Feature", "properties": { "candidate_id": "W6_G02", "corridor_group": 2, "route_km": 13.161948417738758, "n_stops": 27, "straight_line_km": 10.53687765027847, "connects_to_existing": true, "n_served_agebs": 3, "total_demand": 40259.847961196501, "f1_demand_gain": 0.42374891778012103, "f2_route_km": 13.161948417738758, "f3_equity": 0.42156982669544973, "composite_score": 0.66945847097282707, "total_score": 0.66945847097282707, "pareto_rank": 1, "feasible": true, "mode_assignment": "BRT" }, "geometry": { "type": "LineString", "coordinates": [ [ 2343082.432668034452945, 942197.246082711964846 ], [ 2342531.106692259665579, 941850.122732684016228 ], [ 2342510.097475124057382, 941823.791848607477732 ], [ 2340151.55275203846395, 941279.327461261185817 ], [ 2339948.623001197353005, 940743.540210771956481 ], [ 2339142.724561524111778, 941163.382897759089246 ], [ 2338200.838221449870616, 941371.217047818703577 ], [ 2338080.756313028745353, 941361.27373862452805 ], [ 2338027.280102358199656, 941363.211203501210548 ], [ 2337934.050055303610861, 941284.42215615871828 ], [ 2337771.489944654051214, 941280.655350839952007 ], [ 2336975.331639879848808, 940724.735665635904297 ], [ 2335629.051055953837931, 938279.575049900799058 ], [ 2335863.372253601904958, 937477.047969334758818 ], [ 2335891.671723445411772, 937449.212069104309194 ], [ 2335676.535145957022905, 937058.907940609031357 ], [ 2335044.984343898948282, 937133.249714279430918 ], [ 2335040.84989579115063, 937123.161283377092332 ], [ 2335011.174055164214224, 937059.431511376285926 ], [ 2334965.984061169438064, 936927.679968880023807 ], [ 2335030.684116572141647, 936816.049970495281741 ], [ 2335046.977137546055019, 936777.891198981553316 ], [ 2335015.714125807397068, 936744.570423083379865 ], [ 2334979.696968224365264, 936673.378967110882513 ], [ 2334940.0555355893448, 936595.037790611269884 ], [ 2334866.001161706168205, 936454.386746834730729 ], [ 2334852.304559876676649, 936418.191964871482924 ], [ 2334655.994721450842917, 936399.085054894909263 ], [ 2334643.415190500207245, 936401.793986829812638 ], [ 2334630.843551762402058, 936253.404416733072139 ], [ 2334541.76642943546176, 936251.680070399306715 ], [ 2334449.170876318588853, 936256.082498032017611 ], [ 2334441.388179779052734, 936167.474879015353508 ] ] } },
{ "type": "Feature", "properties": { "candidate_id": "W6_G03", "corridor_group": 3, "route_km": 32.31118954627825, "n_stops": 66, "straight_line_km": 19.830536788133145, "connects_to_existing": true, "n_served_agebs": 27, "total_demand": 188842.1677724038, "f1_demand_gain": 0.20988267423768442, "f2_route_km": 32.31118954627825, "f3_equity": 0.47582107778218591, "composite_score": 0.32883794368323088, "total_score": 0.32883794368323088, "pareto_rank": 1, "feasible": false, "mode_assignment": "BRT" }, "geometry": { "type": "LineString", "coordinates": [ [ 2348261.534111615736037, 963813.916763051296584 ], [ 2348318.716347079724073, 963806.773752246750519 ], [ 2348297.574101152364165, 963580.222727233776823 ], [ 2348306.658260646741837, 963556.282562758075073 ], [ 2348313.590084248688072, 963544.117229135008529 ], [ 2348330.921546868979931, 963553.587632440961897 ], [ 2348325.310653035528958, 963565.044903595698997 ], [ 2348560.530162706971169, 965686.488111564191058 ], [ 2348385.129563360475004, 966026.004899923107587 ], [ 2348386.059674062300473, 966059.246932969195768 ], [ 2348323.512874846812338, 966488.75776300765574 ], [ 2348504.153914830181748, 966833.653116355417296 ], [ 2348520.09534126939252, 966862.872349072364159 ], [ 2348522.719837453216314, 966874.069050261401571 ], [ 2348530.553119282238185, 966891.485925836837851 ], [ 2348534.827207778580487, 966907.792443397338502 ], [ 2348556.51788543490693, 966981.053036817116663 ], [ 2348569.493797414004803, 967026.740700746886432 ], [ 2348728.686395537573844, 967563.987193195498548 ], [ 2348736.92502149194479, 967578.478364621172659 ], [ 2348727.350217375904322, 967580.505088176229037 ], [ 2347685.118814602959901, 968209.350562887382694 ], [ 2347280.94880551006645, 968744.154450189671479 ], [ 2347288.922220178414136, 968745.869639760698192 ], [ 2347291.505748872645199, 968760.08721868286375 ], [ 2347285.346358387265354, 968764.317845793906599 ], [ 2347198.263098294846714, 968928.401851591537707 ], [ 2347177.962801191024482, 968962.599965982954018 ], [ 2347172.970218759030104, 968967.314764923416078 ], [ 2347133.317340123467147, 969040.089210166363046 ], [ 2346785.252169343177229, 969488.411366438609548 ], [ 2346769.474735416471958, 969508.407504662522115 ], [ 2346761.11905842134729, 969519.893225052393973 ], [ 2346603.004904514178634, 969712.80312857858371 ], [ 2346292.76595903467387, 970105.930019755032845 ], [ 2345669.486027500592172, 970682.352339482284151 ], [ 2345486.548614664468914, 970822.303241127054207 ], [ 2345474.825453598517925, 970829.932866566814482 ], [ 2345226.842143637593836, 971021.519001281820238 ], [ 2345248.786563567817211, 971065.301241851178929 ], [ 2345241.347339002415538, 971071.971418349537998 ], [ 2344620.510241257492453, 971628.278507316019386 ], [ 2344462.46129730110988, 971751.223896514624357 ], [ 2344426.01493609091267, 971779.574659912846982 ], [ 2344690.947646517772228, 973205.086262981407344 ], [ 2344935.115708576049656, 973967.39704824925866 ], [ 2344916.947658453602344, 973964.268150344258174 ], [ 2345005.957162397913635, 974366.317706886213273 ], [ 2345004.574342326726764, 974379.881182176875882 ], [ 2345225.043431516271085, 975374.820785055635497 ], [ 2345320.010330834425986, 975815.887679010513239 ], [ 2345336.928348946385086, 975878.47331199166365 ], [ 2345341.601267353165895, 975900.120620090863667 ], [ 2345320.912462079897523, 975929.506268559140153 ], [ 2345228.305182565934956, 976015.820488488185219 ], [ 2345224.430980279576033, 976060.950366069911979 ], [ 2345217.426447242032737, 976065.31175446358975 ], [ 2345225.190666903741658, 976089.109636944020167 ], [ 2345227.971767772454768, 976100.314482415211387 ], [ 2345233.728047717362642, 976125.434137917589396 ], [ 2345243.551030162256211, 976173.717674754443578 ], [ 2345250.960509509779513, 976223.205926316324621 ], [ 2345260.198855022899806, 976285.055443271994591 ], [ 2345269.021070195827633, 976344.781578187947161 ], [ 2345275.448230436071754, 976397.521157103707083 ], [ 2345281.69506843527779, 976439.910770205315202 ], [ 2345287.712750266771764, 976491.166301141027361 ], [ 2345293.139866287820041, 976534.490464490605518 ], [ 2345301.121079260017723, 976582.164687457145192 ], [ 2345340.682004686444998, 976816.327952887979336 ], [ 2345346.620022374670953, 976837.035927861114033 ], [ 2345350.864189093001187, 976861.344413138343953 ], [ 2345354.732993201352656, 976885.447338959900662 ], [ 2345360.916160221211612, 976918.764531312393956 ], [ 2345361.756936070974916, 976923.849000912276097 ], [ 2345370.730952995829284, 976975.316183702554554 ], [ 2345390.355137770995498, 977071.971298503805883 ], [ 2345355.097465983126312, 977102.864201362710446 ], [ 2345337.478375484235585, 977119.242131168837659 ], [ 2345322.959941347595304, 977132.721511891577393 ], [ 2345289.458013141062111, 977166.936644407687709 ], [ 2345250.461228185333312, 977200.095593814156018 ], [ 2345201.669284750707448, 977254.280664557009004 ], [ 2345183.85734985396266, 977308.848776402650401 ], [ 2345155.444983430672437, 977369.822145187412389 ], [ 2345112.81752572581172, 977395.710165760247037 ], [ 2345100.782258397433907, 977395.747369457967579 ], [ 2345050.929415381513536, 977435.557300281827338 ], [ 2344987.980110488366336, 977518.75202908157371 ], [ 2344977.09869077662006, 977532.00638534524478 ], [ 2344969.455434259492904, 977598.308658140595071 ], [ 2344940.248248202726245, 977625.677760021178983 ], [ 2344867.521377664990723, 977685.691740878508426 ], [ 2344836.808563497383147, 977704.841651585302316 ], [ 2344825.900646441616118, 977711.559017806896009 ], [ 2344817.844207321293652, 977871.273794741253369 ], [ 2344820.517094010487199, 977978.368129151873291 ], [ 2344787.775365327950567, 977995.742347299936228 ], [ 2344766.6817841171287, 978006.82144243363291 ], [ 2344721.804057525470853, 978030.407898985198699 ], [ 2344709.598383232019842, 978036.907387436833233 ], [ 2344709.439784587360919, 978045.540993958245963 ], [ 2344732.360926325432956, 978126.07586863974575 ], [ 2345328.870065086055547, 977543.335230219527148 ], [ 2345239.344622457865626, 977564.231836703838781 ], [ 2345018.932136875577271, 977619.940446362830698 ], [ 2345017.939485113602132, 977645.041937315836549 ], [ 2345024.088515270967036, 977745.640015147742815 ], [ 2345025.333357664756477, 977776.549970806227066 ], [ 2345031.554624879267067, 977887.069001644500531 ], [ 2345003.064529063180089, 977890.706362027674913 ], [ 2344977.780327115207911, 977891.620437839650549 ], [ 2344854.180013005621731, 977960.8520774806384 ], [ 2344820.517094010487199, 977978.368129151873291 ], [ 2344787.775365327950567, 977995.742347299936228 ], [ 2344766.6817841171287, 978006.82144243363291 ], [ 2344721.804057525470853, 978030.407898985198699 ], [ 2344709.598383232019842, 978036.907387436833233 ], [ 2344709.439784587360919, 978045.540993958245963 ], [ 2344732.360926325432956, 978126.07586863974575 ], [ 2344709.439784587360919, 978045.540993958245963 ], [ 2344701.805354433134198, 978041.100825428729877 ], [ 2344709.598383232019842, 978036.907387436833233 ], [ 2344721.804057525470853, 978030.407898985198699 ], [ 2344766.6817841171287, 978006.82144243363291 ], [ 2344787.775365327950567, 977995.742347299936228 ], [ 2344820.517094010487199, 977978.368129151873291 ], [ 2344854.180013005621731, 977960.8520774806384 ], [ 2344977.780327115207911, 977891.620437839650549 ], [ 2344979.483303850051016, 977880.964316184050404 ], [ 2345003.064529063180089, 977890.706362027674913 ], [ 2345031.554624879267067, 977887.069001644500531 ], [ 2345148.316586849745363, 977869.778967674821615 ], [ 2345221.245036066044122, 977858.97641620086506 ], [ 2345300.963858916424215, 977847.210596746066585 ], [ 2345310.703048080671579, 977845.720199191011488 ], [ 2345401.258434969000518, 977832.30979402048979 ], [ 2345668.820903566200286, 977747.189804408000782 ], [ 2345867.732856168877333, 977677.393329670536332 ], [ 2345893.920382030308247, 977669.581270675873384 ], [ 2345905.733230462297797, 977667.110659979749471 ], [ 2346093.41407914320007, 977646.766996415914036 ], [ 2346229.605583969969302, 977632.470321167260408 ], [ 2346291.823539828881621, 977625.311567658907734 ], [ 2346355.197573029901832, 977617.667084996704943 ], [ 2346366.295444575604051, 977704.489342840621248 ], [ 2346449.570869616232812, 977698.679081006092019 ], [ 2346502.155732132028788, 977694.288571794866584 ], [ 2346629.2857008962892, 977687.916318873758428 ], [ 2346801.721968993078917, 977680.019862736226059 ], [ 2346891.908657538704574, 977675.893708804156631 ], [ 2347024.974523980170488, 977671.117339111515321 ], [ 2347106.196403575129807, 977668.198184732464142 ], [ 2347206.307426118291914, 977665.427067497512326 ], [ 2347213.166058008559048, 977753.803762252326123 ], [ 2347217.819094271399081, 977754.670948930433951 ], [ 2347256.668900012504309, 977759.397976619773544 ], [ 2347415.145625164266676, 977772.146056210389361 ], [ 2347588.907293149270117, 977774.288166853017174 ], [ 2347600.332580089103431, 977773.432412580004893 ], [ 2347816.97222295589745, 977773.836822525248863 ], [ 2348173.764563733711839, 977822.972392250550911 ], [ 2348184.520814826712012, 977824.615386547753587 ], [ 2348254.517789680045098, 977835.145381250302307 ], [ 2348295.633823527023196, 977841.571755370590836 ], [ 2348356.915876045357436, 977852.42267539864406 ], [ 2348401.442253996618092, 977855.79392600513529 ], [ 2348512.628381483256817, 977845.389141305582598 ], [ 2348573.469368712510914, 977837.383069589617662 ], [ 2348687.027091910131276, 977819.602302806219086 ], [ 2348901.066098671872169, 977868.169519690331072 ], [ 2348913.784551653079689, 977871.138045380124822 ], [ 2349058.464404833968729, 978438.580959204002284 ], [ 2349138.045092715881765, 978750.30706046463456 ], [ 2349141.117276970297098, 978762.953612466691993 ], [ 2349252.570585678331554, 979197.561392872128636 ], [ 2349367.065261251758784, 979649.588982184417546 ], [ 2349367.936265947297215, 979653.71417379041668 ], [ 2349426.569177304394543, 979873.512724837986752 ], [ 2349447.539146271999925, 979956.586855426430702 ], [ 2349452.936448363121599, 979981.89847197313793 ], [ 2349475.25671106018126, 980069.379536267137155 ], [ 2349480.825733341276646, 980099.374612065614201 ], [ 2349518.937245732173324, 980244.803314372897148 ], [ 2349541.565760917961597, 980332.093794674728997 ], [ 2349577.718331987503916, 980476.605211058980785 ], [ 2349657.639963661786169, 980790.299649973632768 ], [ 2349699.481193223036826, 980952.325561866164207 ], [ 2349780.297112056519836, 981263.728660887340084 ], [ 2349867.713203071150929, 981605.060932446736842 ], [ 2349950.939018842764199, 981930.009656111244112 ], [ 2350017.607449016999453, 982186.799317105440423 ], [ 2350028.650783688761294, 982229.548659684369341 ], [ 2350065.69683356769383, 982369.012509325169958 ], [ 2350068.565786714665592, 982380.150728448294103 ], [ 2350174.000095024239272, 982791.334846816025674 ], [ 2350203.432854845654219, 982904.66064470121637 ], [ 2350242.159201740752906, 983076.473258523386903 ], [ 2350277.113425588235259, 983118.761110531049781 ], [ 2350935.030589861795306, 983019.414788494003005 ], [ 2351249.724356945138425, 982939.866500754607841 ], [ 2351601.423106628935784, 982885.90533705346752 ], [ 2351817.999346151016653, 982863.647789486334659 ], [ 2351834.931650159414858, 982860.491508938022889 ], [ 2352030.325642274226993, 982817.271535396575928 ], [ 2352048.524806153029203, 982814.367455520899966 ], [ 2352086.255648509599268, 982808.127195023116656 ], [ 2352408.641348489560187, 982757.045492861303501 ], [ 2352428.403202657122165, 982753.916906391154043 ], [ 2352445.39858208457008, 982750.826838416280225 ], [ 2352442.142706700600684, 982779.85177974042017 ], [ 2352437.754789870698005, 982808.623386075720191 ], [ 2352415.057026368100196, 982947.065184652805328 ], [ 2352413.205122010782361, 982958.845965258777142 ], [ 2352484.290132586844265, 982969.009620248805732 ], [ 2352596.975113970693201, 982985.89331514283549 ], [ 2352606.81343991914764, 982987.361109601566568 ], [ 2352692.65294216806069, 983001.546414805110544 ], [ 2352700.136543917004019, 983002.773041485925205 ], [ 2352694.551543890498579, 983046.725122623844072 ], [ 2352688.011950355954468, 983087.412593456334434 ], [ 2352832.125069182831794, 983110.545681183808483 ] ] } },
{ "type": "Feature", "properties": { "candidate_id": "W6_G04", "corridor_group": 4, "route_km": 49.994895127864211, "n_stops": 101, "straight_line_km": 6.5752916283240666, "connects_to_existing": true, "n_served_agebs": 63, "total_demand": 305191.44364354957, "f1_demand_gain": 0.17791727670409158, "f2_route_km": 49.994895127864211, "f3_equity": 0.54687783744565277, "composite_score": 0.3146367360655048, "total_score": 0.3146367360655048, "pareto_rank": 1, "feasible": false, "mode_assignment": "BRT" }, "geometry": { "type": "LineString", "coordinates": [ [ 2351762.378990650642663, 956059.356784166535363 ], [ 2351781.187346476595849, 956046.56707342597656 ], [ 2351939.782967646140605, 955938.921104785753414 ], [ 2351982.198602818418294, 955909.369252519449219 ], [ 2351940.724350361153483, 955791.397918253787793 ], [ 2351936.277057697996497, 955777.428381301579066 ], [ 2351991.835145866498351, 955752.983074834104627 ], [ 2352114.397175517864525, 955672.169985980610363 ], [ 2352090.416837887372822, 955660.809080397244543 ], [ 2352062.518816823605448, 955615.637964188121259 ], [ 2352060.718691150657833, 955606.868295414722525 ], [ 2352061.302673570811749, 955530.861685569398105 ], [ 2352051.777683172374964, 955465.595389143447392 ], [ 2352062.797756574582309, 955467.139753296039999 ], [ 2352061.302673570811749, 955530.861685569398105 ], [ 2352060.718691150657833, 955606.868295414722525 ], [ 2352062.518816823605448, 955615.637964188121259 ], [ 2352090.416837887372822, 955660.809080397244543 ], [ 2352114.397175517864525, 955672.169985980610363 ], [ 2352177.44248188752681, 955758.69166211783886 ], [ 2352182.314719119109213, 955778.886616130825132 ], [ 2352203.956408788915724, 955768.031879705959 ], [ 2352275.349703728687018, 955846.400166091392748 ], [ 2352343.855153577402234, 955922.570180690265261 ], [ 2352413.306078815367073, 956009.359921317314729 ], [ 2352474.141928568016738, 956033.520804190891795 ], [ 2352526.643164709676057, 956069.396658609271981 ], [ 2352587.464106265921146, 956110.967796901008114 ], [ 2352684.577008677646518, 956159.79879349085968 ], [ 2352997.86606624443084, 956141.023389676585793 ], [ 2353035.234442916233093, 956130.058711622841656 ], [ 2353065.470842176582664, 956121.193252967554145 ], [ 2353397.923950331751257, 956024.296142539125867 ], [ 2353403.875421725213528, 956022.484443567111157 ], [ 2353548.263813617639244, 955979.595518198679201 ], [ 2353593.053838475141674, 955965.273556268890388 ], [ 2353639.861959291622043, 955950.30342059105169 ], [ 2353724.060843092389405, 955923.366914058569819 ], [ 2353797.177125710062683, 955896.892537647392601 ], [ 2353808.259220563806593, 955892.119816219434142 ], [ 2353850.517215058673173, 955875.739621401298791 ], [ 2353895.883500650525093, 955857.664151838747784 ], [ 2353936.885102451778948, 955841.241401496692561 ], [ 2353975.036578519269824, 955826.357247245265171 ], [ 2354025.172600331250578, 955806.603573307627812 ], [ 2354146.257459772750735, 955757.28937286499422 ], [ 2354261.992412071675062, 955709.67135774390772 ], [ 2354276.574164451099932, 955703.916507883928716 ], [ 2354277.882644759956747, 955715.624090345925651 ], [ 2354753.01034993911162, 956555.463865408441052 ], [ 2354800.473823169711977, 956590.735139246680774 ], [ 2354845.150876862928271, 956643.6858537979424 ], [ 2354938.00473190844059, 956446.203611788689159 ], [ 2354963.271200674585998, 956413.056726491311565 ], [ 2355059.393054663203657, 956361.126675519393757 ], [ 2355064.650538990274072, 956353.070823944057338 ], [ 2355035.641017863061279, 956261.983178014983423 ], [ 2355026.727942814584821, 956225.122784484643489 ], [ 2354954.096257490571588, 956044.589324217871763 ], [ 2354999.647540242411196, 956008.124515673262067 ], [ 2355009.306806209497154, 956005.395288973813877 ], [ 2355108.403299531899393, 955975.079996254178695 ], [ 2355158.634874483104795, 955959.717485013534315 ], [ 2355170.434146218001842, 956010.486477323109284 ], [ 2355200.96260769944638, 955998.414033668115735 ], [ 2355228.7712497767061, 955987.415545327705331 ], [ 2355271.174516558647156, 956086.234866271028295 ], [ 2355290.989560422021896, 956078.456544833839871 ], [ 2355313.708866099826992, 956069.34898754034657 ], [ 2355320.124340408947319, 956067.19175028835889 ], [ 2355370.402254024520516, 956051.267199684516527 ], [ 2355420.142430467531085, 956037.685495748766698 ], [ 2355403.229169208090752, 955989.3806299532298 ], [ 2355393.566632951144129, 955961.855009268736467 ], [ 2355386.743870222009718, 955942.394697693060152 ], [ 2355346.757148126605898, 955828.335939841577783 ], [ 2355382.610984515398741, 955794.800109661999159 ], [ 2355550.180366061627865, 955649.375405006343499 ], [ 2355540.388158600777388, 955602.059636184247211 ], [ 2355688.482094216160476, 955562.363993809791282 ], [ 2355735.669960187748075, 955550.891928525757976 ], [ 2355784.075861790217459, 955539.761038406053558 ], [ 2355832.83569010021165, 955530.865109253791161 ], [ 2355823.629634972661734, 955481.812401819624938 ], [ 2355817.870419556740671, 955426.342377577442676 ], [ 2355816.111852940637618, 955418.420849272515625 ], [ 2355869.797145837452263, 955412.090447481605224 ], [ 2355898.600993941072375, 955410.433406853349879 ], [ 2355920.723143990617245, 955408.135432595037855 ], [ 2355948.961105866823345, 955405.932676998898387 ], [ 2355971.6361203501001, 955403.905073624686338 ], [ 2356008.005674586631358, 955399.826565510011278 ], [ 2356026.589588167145848, 955397.728356127860025 ], [ 2356060.407253914047033, 955394.931592517532408 ], [ 2356096.381483301986009, 955391.838416649377905 ], [ 2356132.560147715266794, 955388.412578994524665 ], [ 2356185.327207971829921, 955382.654503832920454 ], [ 2356238.662912288215011, 955376.648557909415103 ], [ 2356291.740248454269022, 955371.83608101028949 ], [ 2356342.182624479755759, 955368.306156838661991 ], [ 2356339.40673762653023, 955341.000039576087147 ], [ 2356336.722186556551605, 955314.553047080058604 ], [ 2352051.777683172374964, 955465.595389143447392 ], [ 2352041.120676340535283, 955347.01949899084866 ], [ 2352029.788454776164144, 955229.464603016967885 ], [ 2352022.989592267200351, 955150.212393449270166 ], [ 2352003.283392095938325, 954937.036288188071921 ], [ 2351984.417547220829874, 954708.183782524429262 ], [ 2351981.600310954265296, 954657.691281156614423 ], [ 2351975.060899054631591, 954598.315838471055031 ], [ 2351967.467044246383011, 954543.581724637537263 ], [ 2351961.51569340378046, 954484.883997251512483 ], [ 2351921.243909509386867, 954476.728381660534069 ], [ 2351820.227654557209462, 954462.683049347135238 ], [ 2351827.512711921241134, 954246.370783196529374 ], [ 2351839.632257169112563, 954113.112389434012584 ], [ 2351846.638932649046183, 954060.768825647188351 ], [ 2351695.124412758741528, 954042.176952938549221 ], [ 2351453.698424378409982, 954012.564332203706726 ], [ 2351455.256749035790563, 953989.758207253646106 ], [ 2351459.886098797433078, 953930.293319406220689 ], [ 2351464.641416582278907, 953878.2476032639388 ], [ 2351469.128931303042918, 953816.005551991635002 ], [ 2351480.03378102183342, 953692.406251567765139 ], [ 2351484.361540114041418, 953631.83063702378422 ], [ 2351493.516330870334059, 953502.426939128199592 ], [ 2351512.564496085979044, 953286.392639671685174 ], [ 2351356.992239512968808, 953147.154070816584863 ], [ 2351351.45166521333158, 953141.332528932252899 ], [ 2350921.278656284790486, 952751.662851491128094 ], [ 2350847.732746770605445, 952674.114555396023206 ], [ 2350837.678847811650485, 952663.508988136425614 ], [ 2350660.419705491978675, 952477.3909398955293 ], [ 2350632.598742634057999, 952446.091379226883873 ], [ 2350599.845400807913393, 952411.698922783951275 ], [ 2350587.942088173702359, 952399.987398294033483 ], [ 2350568.030611244495958, 952379.788998143747449 ], [ 2350406.4993253396824, 952210.473801654530689 ], [ 2350262.096942821051925, 952061.672798163606785 ], [ 2350072.387911205179989, 951858.507331937551498 ], [ 2349998.288396335672587, 951772.235543552669697 ], [ 2349992.599529430270195, 951766.228489266941324 ], [ 2349959.660550365224481, 951732.258105097687803 ], [ 2349740.49114627763629, 951500.140834430931136 ], [ 2349729.508682353887707, 951488.233169743558392 ], [ 2349204.00496699847281, 950901.594865690683946 ], [ 2349178.234289601910859, 950875.426074020098895 ], [ 2349112.704161883331835, 950799.535052072722465 ], [ 2349060.166900751646608, 950739.180802920134738 ], [ 2349029.297411639709026, 950711.046116673271172 ], [ 2348968.111044273711741, 950648.883319807006046 ], [ 2348818.718978141900152, 950722.477351348847151 ], [ 2348811.172983143012971, 950713.666839733719826 ], [ 2348646.722947578877211, 950602.208362496341579 ], [ 2348499.102812197059393, 950521.156070542521775 ], [ 2348460.034797068685293, 950494.770865037338808 ], [ 2348323.664140111301094, 950454.921025395742618 ], [ 2354341.747418392915279, 945084.947279327199794 ], [ 2354381.288249354809523, 945074.339097172953188 ], [ 2354429.978295831475407, 945061.237823679111898 ], [ 2354387.719073744025081, 945008.43641942110844 ], [ 2354417.506917800754309, 944972.529387208865955 ], [ 2354222.135820135008544, 944977.42796057194937 ], [ 2354189.779604642651975, 944835.776967986486852 ], [ 2354185.525263354647905, 944825.696169877541251 ], [ 2354091.762633276171982, 944736.581753099802881 ], [ 2354028.785391281358898, 944683.818731616833247 ], [ 2354016.020555577240884, 944689.490195285063237 ], [ 2353591.589263867586851, 944400.114643280161545 ], [ 2353588.604632704984397, 944364.935853079077788 ], [ 2353587.869736218824983, 944354.644174403510988 ], [ 2353572.791736994870007, 944170.415438780444674 ], [ 2353571.753248080611229, 944157.778047806932591 ], [ 2353649.78291576821357, 944168.677614599233493 ], [ 2353643.181554566603154, 944086.836294188047759 ], [ 2353625.354231670033187, 943805.66535925026983 ], [ 2353624.278426874428988, 943792.399775847210549 ], [ 2353615.450912962667644, 943694.448031164589338 ], [ 2353604.779787887819111, 943575.949498875299469 ], [ 2353604.099538061767817, 943566.991456866031513 ], [ 2353599.19327463908121, 943502.268675780389458 ], [ 2353598.106921291910112, 943487.933575476519763 ], [ 2353512.021559357177466, 943459.095702779130079 ], [ 2353509.591915417928249, 943426.502510987687856 ], [ 2353506.850408494472504, 943389.667083781328984 ], [ 2353504.024240772239864, 943351.619537936523557 ], [ 2353501.05626134108752, 943311.83115064445883 ], [ 2353388.708217338658869, 943294.080442979815416 ], [ 2353353.856107170227915, 943283.209209439111874 ], [ 2353299.657965638674796, 943235.478632188867778 ], [ 2353260.286625020205975, 943221.520507202716544 ], [ 2353215.188241062685847, 943221.082567834760994 ], [ 2353026.463514279574156, 943235.325957004562952 ], [ 2353005.527123675681651, 943238.498680716031231 ], [ 2353008.859424930531532, 943300.336911376449279 ], [ 2353009.240662365220487, 943306.331701946444809 ], [ 2353022.378196872770786, 943305.705902411951683 ], [ 2353062.501262557692826, 943301.064880018122494 ], [ 2354341.747418392915279, 945084.947279327199794 ], [ 2354381.288249354809523, 945074.339097172953188 ], [ 2354429.978295831475407, 945061.237823679111898 ], [ 2354387.719073744025081, 945008.43641942110844 ], [ 2354417.506917800754309, 944972.529387208865955 ], [ 2354527.299637376796454, 945217.31690811982844 ], [ 2354412.688741389196366, 945241.746649575070478 ], [ 2354307.810241593513638, 945266.997301196563058 ], [ 2354333.53226360026747, 945359.346986790653318 ], [ 2354377.582377235870808, 945532.739157780772075 ], [ 2354383.012601429596543, 945569.625052069546655 ], [ 2354402.5008953101933, 945598.235945011256263 ], [ 2354419.367539455648512, 945588.202350283623673 ], [ 2355050.328441064339131, 945360.228756998898461 ], [ 2355070.614497441332787, 945359.888055348536 ], [ 2355192.330130524933338, 945378.078182583209127 ], [ 2355225.00526677351445, 945368.69678440480493 ], [ 2355265.612129654735327, 945349.138064030208625 ], [ 2355293.929508814588189, 945343.526131976745091 ], [ 2355312.842765467707068, 945360.146928111673333 ], [ 2355337.353998819366097, 945359.489892377867363 ], [ 2355571.00719235651195, 945189.993953389814124 ], [ 2355934.425945342984051, 944781.016505989711732 ], [ 2356056.116463009268045, 944770.434605107177049 ], [ 2356081.206120482645929, 944768.251540782744996 ], [ 2356106.358007943257689, 944766.056891117361374 ], [ 2356444.639994604513049, 944718.466618693666533 ], [ 2356515.229203942697495, 944695.215166233247146 ], [ 2357306.665416004136205, 944614.176988292252645 ], [ 2357310.142760542221367, 944608.431900596944615 ], [ 2357322.536154619418085, 944600.726903824019246 ], [ 2357337.091062261257321, 944601.756348901777528 ], [ 2357333.986286154016852, 944646.410765482578427 ], [ 2357324.119688667356968, 944646.747832738910802 ], [ 2357317.22613768838346, 944645.093698052223772 ], [ 2357185.178696200717241, 944750.273584765731357 ], [ 2357190.066827632952482, 944782.247972733108327 ], [ 2357193.17246386827901, 944804.932993585709482 ], [ 2357179.041832129471004, 944812.379077473655343 ], [ 2357040.243329521268606, 944864.443621921469457 ], [ 2356991.295099100098014, 944882.324371692608111 ], [ 2356994.648774757515639, 944916.750274057150818 ], [ 2356997.581729541998357, 944957.134562818799168 ], [ 2357000.385743108112365, 944992.745567755890079 ], [ 2357003.457843123935163, 945033.558536227908917 ], [ 2357004.443971593398601, 945046.461194825009443 ], [ 2357007.750602956861258, 945088.981016173725948 ], [ 2357073.355030491948128, 945083.356465245131403 ], [ 2354341.747418392915279, 945084.947279327199794 ], [ 2354381.288249354809523, 945074.339097172953188 ], [ 2354429.978295831475407, 945061.237823679111898 ], [ 2354387.719073744025081, 945008.43641942110844 ], [ 2354417.506917800754309, 944972.529387208865955 ], [ 2354527.299637376796454, 945217.31690811982844 ], [ 2354412.688741389196366, 945241.746649575070478 ], [ 2354307.810241593513638, 945266.997301196563058 ], [ 2354333.53226360026747, 945359.346986790653318 ], [ 2354377.582377235870808, 945532.739157780772075 ], [ 2354383.012601429596543, 945569.625052069546655 ], [ 2354402.5008953101933, 945598.235945011256263 ], [ 2354368.19613814773038, 945618.286723474389873 ], [ 2353484.072853479068726, 946165.800416964804754 ], [ 2353474.862707240972668, 946171.514525348320603 ], [ 2353410.463075558189303, 946215.581520190113224 ], [ 2353403.726613474544138, 946219.308610933017917 ], [ 2353382.25429659197107, 946233.049455070635304 ], [ 2353371.865621423348784, 946239.337576364050619 ], [ 2353199.328117271419615, 946343.770779618411325 ], [ 2353018.573099644389004, 946453.171743115177378 ], [ 2352815.148048298899084, 946581.940796476788819 ], [ 2352808.565161150414497, 946586.460539828985929 ], [ 2352560.643693837802857, 946736.402490622247569 ], [ 2352552.291016303934157, 946741.568369488697499 ], [ 2352388.263877310790122, 946843.026519826147705 ], [ 2352354.502604296896607, 946863.903416100773029 ], [ 2352317.169243144802749, 946886.999040368245915 ], [ 2352284.254854205995798, 946907.360478057642467 ], [ 2352183.527864621486515, 946993.539077732013538 ], [ 2352028.380413563922048, 947394.413215293665417 ], [ 2351961.342078423593193, 947570.234060558490455 ], [ 2351934.197009344119579, 947639.948224504943937 ], [ 2351900.117645393125713, 947736.194724075612612 ], [ 2351870.386113070882857, 947812.109428148600273 ], [ 2351853.956966540310532, 947929.41724232013803 ], [ 2351891.359541528858244, 948066.136346180341206 ], [ 2351923.368641729466617, 948205.786901394138113 ], [ 2351816.883868379984051, 948233.088618195150048 ], [ 2351842.782797750085592, 948326.477895357063971 ], [ 2351753.229487788397819, 948351.693066782783717 ], [ 2351622.60444823699072, 948412.083953474881127 ], [ 2351567.332059639506042, 948455.405875440803356 ], [ 2351502.394879921339452, 948516.929607436060905 ], [ 2351457.368109137751162, 948559.57640170911327 ], [ 2351385.177260863594711, 948619.585156379966065 ], [ 2351338.863771458156407, 948662.289228492067195 ], [ 2351292.987626033835113, 948701.956826143665239 ], [ 2351179.736650409642607, 948814.619270491879433 ], [ 2351155.493004429154098, 948837.322146096150391 ], [ 2350913.687877115327865, 948972.409198156092316 ], [ 2350689.515653476119041, 949207.265740035334602 ], [ 2350601.003748851828277, 949309.70549579069484 ], [ 2350449.956559742800891, 949535.03289798554033 ], [ 2350319.644320120103657, 949677.709756139316596 ], [ 2350229.366409508511424, 949708.311037594685331 ], [ 2350113.288976921699941, 949747.023178787319921 ], [ 2350009.208144458942115, 949784.744326956570148 ], [ 2350042.262049756478518, 949885.423020011163317 ], [ 2350075.189766647759825, 949997.338721996406093 ], [ 2349952.878691342193633, 950039.687317391275428 ], [ 2349848.007132806349546, 950075.995122427120805 ], [ 2349763.793639895971864, 950105.159758414374664 ], [ 2349697.433115275111049, 950128.13538895745296 ], [ 2349747.903944034129381, 950253.424395976122469 ], [ 2349661.566374245099723, 950297.364103025756776 ], [ 2349599.353778571356088, 950328.876680540619418 ], [ 2349426.069716165307909, 950413.831464735558257 ], [ 2349137.482185231056064, 950557.501568634877913 ], [ 2349129.24684298876673, 950561.620584760326892 ], [ 2348978.515786706469953, 950643.639596970169805 ], [ 2348968.111044273711741, 950648.883319807006046 ], [ 2348818.718978141900152, 950722.477351348847151 ], [ 2348811.172983143012971, 950713.666839733719826 ], [ 2348646.722947578877211, 950602.208362496341579 ], [ 2348499.102812197059393, 950521.156070542521775 ], [ 2348460.034797068685293, 950494.770865037338808 ], [ 2348323.664140111301094, 950454.921025395742618 ] ] } },
{ "type": "Feature", "properties": { "candidate_id": "W6_G05", "corridor_group": 5, "route_km": 16.364326852960154, "n_stops": 34, "straight_line_km": 10.288248416574785, "connects_to_existing": true, "n_served_agebs": 15, "total_demand": 47815.64629647461, "f1_demand_gain": 0.4115091677920153, "f2_route_km": 16.364326852960154, "f3_equity": 0.45032284833622743, "composite_score": 0.63772048943473758, "total_score": 0.63772048943473758, "pareto_rank": 1, "feasible": true, "mode_assignment": "BRT" }, "geometry": { "type": "LineString", "coordinates": [ [ 2385785.939475934021175, 956693.627805743482895 ], [ 2385611.976105576381087, 955447.139776723808609 ], [ 2385603.334605431184173, 955369.586188261513598 ], [ 2385639.527293905615807, 955195.611221038969234 ], [ 2385626.012437300290912, 955158.029592424631119 ], [ 2385511.225393992848694, 955080.056828076369129 ], [ 2384827.932273728772998, 954473.151409298181534 ], [ 2384529.522163272835314, 954200.416710583027452 ], [ 2383862.993781349156052, 953664.636243412154727 ], [ 2383486.38107374124229, 953348.626287103514187 ], [ 2383349.337449111975729, 953234.689735267660581 ], [ 2383203.322828350588679, 953109.104318251716904 ], [ 2382894.354274314828217, 952854.37695418484509 ], [ 2382842.799468578305095, 952810.580127994995564 ], [ 2382777.237580239307135, 952754.952795213204809 ], [ 2382625.579248442780226, 952627.244883964420296 ], [ 2382121.003465137910098, 952288.338799480930902 ], [ 2382111.301433284766972, 952278.690822260454297 ], [ 2381943.724075886420906, 952183.663645717664622 ], [ 2381924.149991657119244, 952174.402772409608588 ], [ 2381895.145122713409364, 952158.303515560692176 ], [ 2381804.010542000643909, 952109.046444068779238 ], [ 2381670.437585485633463, 952035.076335382764228 ], [ 2381646.520593833178282, 952022.939498843741603 ], [ 2381657.1870754561387, 951852.053144107223488 ], [ 2381659.228426281828433, 951745.670354634290561 ], [ 2381659.650146387517452, 951711.189090981963091 ], [ 2381661.344894624315202, 951694.471419271081686 ], [ 2381663.233768711332232, 951685.194671552628279 ], [ 2381676.473457159008831, 951672.123035653377883 ], [ 2381693.666626272723079, 951661.302359443041496 ], [ 2381897.902323677670211, 951548.849060016800649 ], [ 2381908.49376365263015, 951485.939545296831056 ], [ 2381891.265128685161471, 951458.29092293838039 ], [ 2381892.835543440654874, 951450.736755805439316 ], [ 2381922.201563194859773, 951432.322184465941973 ], [ 2381925.739244275260717, 951414.873217191547155 ], [ 2381932.181878157425672, 951382.681640966096893 ], [ 2381933.386465150397271, 951376.133731681620702 ], [ 2381939.262786601204425, 951347.166203571250662 ], [ 2381941.691272856667638, 951335.194871894782409 ], [ 2381946.000631300266832, 951311.598350937943906 ], [ 2381952.687743165530264, 951277.48631479497999 ], [ 2382077.087869091890752, 951299.203088337671943 ], [ 2382196.236800044309348, 951320.069334485102445 ], [ 2382202.613497887738049, 951284.713945665513165 ], [ 2382208.920767668634653, 951249.767058792174794 ], [ 2382215.098398578353226, 951215.493772172601894 ], [ 2382221.017416128423065, 951182.655894209863618 ], [ 2382229.149353745859116, 951121.05594321899116 ], [ 2382224.900725089944899, 951076.236096892505884 ], [ 2382213.606109342072159, 951034.691533457254991 ], [ 2382201.642694266047329, 950988.686754596652463 ], [ 2382158.574866998475045, 950973.866823981050402 ], [ 2382016.689502517227083, 950926.564304662053473 ], [ 2382048.598360262811184, 950878.97720030718483 ], [ 2382016.689502517227083, 950926.564304662053473 ], [ 2381994.143098426517099, 950960.460247386828996 ], [ 2381970.927086371928453, 950995.023079730919562 ], [ 2381930.738938139751554, 950984.558279416756704 ], [ 2381911.969088145066053, 951014.058126820018515 ], [ 2381912.17345365555957, 951020.18692292063497 ], [ 2381911.141816263087094, 951034.142902486841194 ], [ 2381869.457191929686815, 951075.897900792537257 ], [ 2381813.707709771115333, 951155.032228638418019 ], [ 2381799.813346159178764, 951175.970460619078949 ], [ 2381768.336422358639538, 951225.462064614752308 ], [ 2381744.769426667597145, 951262.784457304747775 ], [ 2381720.094011404551566, 951296.510209878673777 ], [ 2381706.026687210891396, 951334.859790653106757 ], [ 2381713.884857129771262, 951377.655061407829635 ], [ 2381709.138902459293604, 951419.447844555950724 ], [ 2381707.695156784728169, 951425.942541085416451 ], [ 2381614.323646202683449, 951409.440002395538613 ], [ 2381576.956465381663293, 951402.338721585343592 ], [ 2381541.011419871356338, 951396.483174314373173 ], [ 2381500.419095177203417, 951392.550121155683883 ], [ 2381459.681728310883045, 951388.662436475395225 ], [ 2381424.529044171329588, 951385.821959583670832 ], [ 2381408.311668732669204, 951384.881582899368368 ], [ 2381367.251288121100515, 951382.165468566468917 ], [ 2381327.34672669833526, 951379.848215193487704 ], [ 2381286.365667805075645, 951379.270716995932162 ], [ 2381263.801991359330714, 951392.472194808768108 ], [ 2381249.870764671824872, 951584.466956543037668 ], [ 2381240.926242132205516, 951667.331662467098795 ], [ 2381225.183463642839342, 951893.807386414613575 ], [ 2380781.266762862447649, 951981.636361688142642 ], [ 2380751.951689918525517, 951989.247382003231905 ], [ 2380641.134043061640114, 951978.77855736145284 ], [ 2380584.350369268562645, 951983.390548120485619 ], [ 2380505.851760086603463, 951989.014952112338506 ], [ 2380455.253754641860723, 951991.934947641915642 ], [ 2380402.233892659656703, 951990.673711690818891 ], [ 2380270.748185426928103, 951984.894250167883001 ], [ 2380237.748947322368622, 951977.243031820864417 ], [ 2380233.421190371736884, 951976.241406143526547 ], [ 2380142.928368122316897, 951961.114279983332381 ], [ 2380048.277654627803713, 951951.92003144568298 ], [ 2379950.260555856861174, 951960.527222031727433 ], [ 2379860.608172286767513, 951982.695545451017097 ], [ 2379759.223635292146355, 952011.464394345181063 ], [ 2379670.777018972206861, 952040.140407901024446 ], [ 2379415.864940475206822, 952108.26935104187578 ], [ 2379328.447466210462153, 952102.339906000415795 ], [ 2379282.151465167291462, 952103.012831810978241 ], [ 2379230.932295188773423, 952108.654387792339548 ], [ 2379190.86858772020787, 952113.411753388354555 ], [ 2379149.719495637807995, 952122.61043144587893 ], [ 2379107.495351426303387, 952136.239320717286319 ], [ 2379066.364368893671781, 952147.654279478127137 ], [ 2379021.098935889080167, 952162.6863437613938 ], [ 2378086.528532202355564, 952345.520108116790652 ], [ 2378039.153840980492532, 952342.445920047350228 ], [ 2377942.742035704664886, 952336.179311171174049 ], [ 2377537.191068543121219, 951622.010655873687938 ], [ 2377549.204758476931602, 951422.375817589694634 ], [ 2377234.138942332938313, 951434.28669392329175 ], [ 2377203.222216621041298, 951238.765084906481206 ], [ 2377130.728832697961479, 950829.74862457648851 ], [ 2377129.282733525149524, 950820.620021505397744 ], [ 2377269.754945959430188, 950796.417444584192708 ], [ 2377265.995452069677413, 950774.969821890932508 ], [ 2377260.883970628492534, 950764.625475026667118 ], [ 2377263.003875901456922, 950750.935788647504523 ], [ 2377263.716158479917794, 950747.89777378377039 ], [ 2377298.569009015802294, 950741.777837391477078 ], [ 2377305.895380649715662, 950767.606478551984765 ], [ 2377303.997097721789032, 950771.646599954459816 ], [ 2377310.369240897707641, 950811.486088879755698 ], [ 2377317.679091404657811, 950851.703753409790806 ], [ 2377328.711940629873425, 950891.306366442120634 ], [ 2377342.883449459448457, 950926.175037802546285 ], [ 2377361.376869173254818, 950965.06567696062848 ], [ 2377375.056999095249921, 951003.334401662345044 ], [ 2377395.007337173447013, 951111.996328318840824 ], [ 2377399.806159191764891, 951151.24228176951874 ], [ 2377398.239105044398457, 951189.206492132158019 ], [ 2377374.074889152310789, 951195.568947780295275 ], [ 2377363.940533990040421, 951198.199392382288352 ], [ 2377342.696427794639021, 951202.288559713517316 ], [ 2377325.184497245587409, 951164.018405238864943 ], [ 2377312.70039717759937, 951127.228420135215856 ], [ 2377293.489975782111287, 951036.598982274299487 ], [ 2377179.865544038359076, 951055.937945534824394 ] ] } }
]
}
