{
"type": "FeatureCollection",
"name": "corridor_candidates",
"crs": { "type": "name", "properties": { "name": "urn:ogc:def:crs:OGC:1.3:CRS84" } },
"features": [
{ "type": "Feature", "properties": { "candidate_id": "baseline_G00", "corridor_group": 0, "route_km": 24.8546675777981, "n_served_agebs": 18, "total_demand": 59219.627176374008, "f1_demand_gain": 0.39147675014862859, "f3_equity": 0.27357629849197779, "total_score": 0.50274859495663882, "feasible": false, "mode_assignment": "BRT", "endpoints_connected": false, "hi_share": 0.33333333333333331, "best_jaccard": 0.041666666666666664, "redundant": false, "dpk_pct": 0.80971659919028338, "merit_passed": false }, "geometry": { "type": "LineString", "coordinates": [ [ -103.1003132, 20.6129046 ], [ -103.1018968, 20.601587 ], [ -103.1019743, 20.600883 ], [ -103.1016128, 20.59930760000001 ], [ -103.1017402, 20.598965799999988 ], [ -103.1028401, 20.5982506 ], [ -103.109376600000019, 20.592698299999984 ], [ -103.1122305, 20.590203699999982 ], [ -103.1186101, 20.585297300000011 ], [ -103.1222136, 20.582404500000024 ], [ -103.1235249, 20.581361399999988 ], [ -103.1249217, 20.580212 ], [ -103.1278781, 20.577879699999976 ], [ -103.1283713, 20.577478800000012 ], [ -103.1289985, 20.576969600000027 ], [ -103.1304494, 20.5758005 ], [ -103.135283, 20.5726906 ], [ -103.1353757, 20.572602399999987 ], [ -103.1369823, 20.5717285 ], [ -103.1371701, 20.571643100000021 ], [ -103.1374482, 20.571495 ], [ -103.1383221, 20.5710417 ], [ -103.1396028, 20.5703612 ], [ -103.1398322, 20.5702494 ], [ -103.1397164, 20.5687003 ], [ -103.1396886, 20.56773560000001 ], [ -103.1396819, 20.5674229 ], [ -103.1396643, 20.5672714 ], [ -103.1396454, 20.5671874 ], [ -103.1395169, 20.5670698 ], [ -103.1393505, 20.5669729 ], [ -103.1373751, 20.5659677 ], [ -103.1372683, 20.5653979 ], [ -103.137432100000012, 20.5651459 ], [ -103.1374164, 20.565077499999987 ], [ -103.1371322, 20.56491260000001 ], [ -103.1370968, 20.564754599999976 ], [ -103.1370323, 20.5644631 ], [ -103.1370202, 20.564403800000015 ], [ -103.1369614, 20.564141500000016 ], [ -103.1369371, 20.5640331 ], [ -103.1368938, 20.5638194 ], [ -103.1368268, 20.563510500000017 ], [ -103.1356305, 20.563716400000033 ], [ -103.1344847, 20.5639142 ], [ -103.134420600000013, 20.563594 ], [ -103.1343572, 20.5632775 ], [ -103.1342951, 20.562967100000012 ], [ -103.1342356, 20.562669700000026 ], [ -103.1341526, 20.5621116 ], [ -103.1341901, 20.5617048 ], [ -103.1342957, 20.5613272 ], [ -103.1344074, 20.560909099999982 ], [ -103.134821, 20.5607716 ], [ -103.1361837, 20.560332400000011 ], [ -103.1358728, 20.559903100000017 ], [ -103.1361837, 20.560332400000011 ], [ -103.13640340000002, 20.560638199999978 ], [ -103.1366296, 20.56095 ], [ -103.137015800000015, 20.5608522 ], [ -103.1371988, 20.561118400000016 ], [ -103.1371973, 20.561174 ], [ -103.1372083, 20.5613005 ], [ -103.1376129, 20.561676200000019 ], [ -103.1381558, 20.5623899 ], [ -103.1382912, 20.562578799999983 ], [ -103.1385981, 20.563025400000051 ], [ -103.1388279, 20.563362199999961 ], [ -103.1390681, 20.5636663 ], [ -103.1392065, 20.564013099999976 ], [ -103.1391341, 20.564401800000017 ], [ -103.139183, 20.5647805 ], [ -103.1391974, 20.56483930000001 ], [ -103.1400953, 20.5646829 ], [ -103.1404546, 20.564615799999974 ], [ -103.1408003, 20.564560099999987 ], [ -103.1411909, 20.564521499999966 ], [ -103.141582900000017, 20.5644833 ], [ -103.1419212, 20.564455 ], [ -103.1420773, 20.56444530000001 ], [ -103.1424725, 20.564417700000014 ], [ -103.1428566, 20.5643938 ], [ -103.1432512, 20.564385599999966 ], [ -103.1434695, 20.56450370000001 ], [ -103.1436184, 20.566244 ], [ -103.1437109, 20.566994900000012 ], [ -103.143879900000016, 20.569047800000018 ], [ -103.1481617, 20.569812199999983 ], [ -103.1484446, 20.569879099999984 ], [ -103.149511, 20.5697761 ], [ -103.1500582, 20.569813799999977 ], [ -103.1508146, 20.5698591 ], [ -103.1513021, 20.569881899999988 ], [ -103.1518126, 20.569866600000015 ], [ -103.1530784, 20.569804600000019 ], [ -103.1533956, 20.5697328 ], [ -103.153437200000013, 20.5697234 ], [ -103.1543075, 20.5695796 ], [ -103.1552183, 20.5694893 ], [ -103.1561629, 20.569560200000019 ], [ -103.157028, 20.569754700000033 ], [ -103.1580066, 20.570008200000011 ], [ -103.1588606, 20.5702618 ], [ -103.161320800000013, 20.570861 ], [ -103.1621622, 20.570800799999986 ], [ -103.1626081, 20.5708035 ], [ -103.1631018, 20.5708509 ], [ -103.163488, 20.570891100000033 ], [ -103.163885, 20.570971499999974 ], [ -103.1642927, 20.571092 ], [ -103.1646897, 20.571192499999974 ], [ -103.1651268, 20.571325500000032 ], [ -103.1741415, 20.572914600000018 ], [ -103.1745975, 20.57288320000001 ], [ -103.1755255, 20.57281919999998 ], [ -103.1793746, 20.5663118 ], [ -103.1792431, 20.5645021 ], [ -103.1822781, 20.5645866 ], [ -103.1825603, 20.562811 ], [ -103.1831716, 20.562857900000012 ], [ -103.1844928, 20.561975199999953 ], [ -103.1854135, 20.5618769 ], [ -103.185444, 20.562065 ], [ -103.1361837, 20.560332400000011 ], [ -103.13640340000002, 20.560638199999978 ], [ -103.1366296, 20.56095 ], [ -103.137015800000015, 20.5608522 ], [ -103.1371988, 20.561118400000016 ], [ -103.1371973, 20.561174 ], [ -103.1372083, 20.5613005 ], [ -103.1376129, 20.561676200000019 ], [ -103.1381558, 20.5623899 ], [ -103.1382912, 20.562578799999983 ], [ -103.1385981, 20.563025400000051 ], [ -103.1388279, 20.563362199999961 ], [ -103.1390681, 20.5636663 ], [ -103.1392065, 20.564013099999976 ], [ -103.1391341, 20.564401800000017 ], [ -103.139183, 20.5647805 ], [ -103.1391974, 20.56483930000001 ], [ -103.1400953, 20.5646829 ], [ -103.1404546, 20.564615799999974 ], [ -103.1408003, 20.564560099999987 ], [ -103.1411909, 20.564521499999966 ], [ -103.141582900000017, 20.5644833 ], [ -103.1419212, 20.564455 ], [ -103.1420773, 20.56444530000001 ], [ -103.1424725, 20.564417700000014 ], [ -103.1428566, 20.5643938 ], [ -103.1432512, 20.564385599999966 ], [ -103.1434695, 20.56450370000001 ], [ -103.1436184, 20.566244 ], [ -103.1437109, 20.566994900000012 ], [ -103.143879900000016, 20.569047800000018 ], [ -103.1481617, 20.569812199999983 ], [ -103.1484446, 20.569879099999984 ], [ -103.1499862, 20.5703093 ], [ -103.1506708, 20.570511799999981 ], [ -103.1507454, 20.570524500000019 ], [ -103.1518348, 20.570596400000014 ], [ -103.1518185, 20.5710111 ], [ -103.151833400000015, 20.5715365 ], [ -103.152832800000013, 20.5715318 ], [ -103.1527764, 20.5727366 ], [ -103.1534007, 20.5728841 ], [ -103.1538788, 20.572997699999977 ], [ -103.1538658, 20.5730826 ], [ -103.1553889, 20.5890468 ], [ -103.155419, 20.5897523 ], [ -103.1555899, 20.590726 ], [ -103.1569016, 20.5965706 ], [ -103.1582616, 20.604106 ], [ -103.1575267, 20.604718 ], [ -103.1565904, 20.6061103 ], [ -103.156732800000015, 20.6061865 ], [ -103.1585935, 20.6064171 ], [ -103.1593238, 20.606538200000013 ], [ -103.1591705, 20.607449200000012 ], [ -103.1596336, 20.607586399999985 ], [ -103.1601688, 20.60778269999998 ], [ -103.1594566, 20.6080684 ], [ -103.1592601, 20.6081494 ], [ -103.181675, 20.5609842 ], [ -103.181706100000014, 20.5606045 ], [ -103.181719, 20.560266200000015 ], [ -103.1817493, 20.5598598 ], [ -103.1817927, 20.55952 ], [ -103.1818235, 20.559155599999979 ], [ -103.18188450000001, 20.558804099999989 ], [ -103.1832391, 20.55901310000003 ], [ -103.183225900000011, 20.559096 ], [ -103.1835879, 20.5591267 ], [ -103.1840008, 20.559184100000014 ], [ -103.1844492, 20.5592473 ], [ -103.1848813, 20.5593081 ], [ -103.1850987, 20.5598527 ], [ -103.1851571, 20.560246699999961 ], [ -103.1852063, 20.5605413 ], [ -103.1852698, 20.5609519 ], [ -103.1853936, 20.5617489 ], [ -103.1854135, 20.5618769 ], [ -103.185444, 20.562065 ] ] } },
{ "type": "Feature", "properties": { "candidate_id": "baseline_G01", "corridor_group": 1, "route_km": 46.857768933340694, "n_served_agebs": 89, "total_demand": 410815.97525617213, "f1_demand_gain": 0.17706318159837095, "f3_equity": 0.22916572274944769, "total_score": 0.23435461228573287, "feasible": false, "mode_assignment": "Light Rail/Metro", "endpoints_connected": true, "hi_share": 0.33707865168539325, "best_jaccard": 0.23404255319148937, "redundant": false, "dpk_pct": 27.935222672064778, "merit_passed": false }, "geometry": { "type": "LineString", "coordinates": [ [ -103.4624926, 20.674444900000022 ], [ -103.4619408, 20.6743854 ], [ -103.4621223, 20.6723286 ], [ -103.4620324, 20.6721123 ], [ -103.4619644, 20.672002599999985 ], [ -103.4561677, 20.664252300000022 ], [ -103.4558335, 20.66332390000002 ], [ -103.455495, 20.662391 ], [ -103.4551539, 20.661447899999985 ], [ -103.455022, 20.661087500000029 ], [ -103.4548814, 20.660699899999969 ], [ -103.4547376, 20.660303600000017 ], [ -103.4545962, 20.659913900000014 ], [ -103.4544275, 20.659449 ], [ -103.4537289, 20.6575237 ], [ -103.4535239, 20.656958700000018 ], [ -103.4532433, 20.6561853 ], [ -103.4530197, 20.6555691 ], [ -103.4528919, 20.655785 ], [ -103.452694, 20.6561258 ], [ -103.4524859, 20.656053800000016 ], [ -103.4522265, 20.655964099999981 ], [ -103.4518938, 20.655849 ], [ -103.4512592, 20.655633400000024 ], [ -103.4509569, 20.655525 ], [ -103.4505267, 20.6553704 ], [ -103.4500711, 20.6552068 ], [ -103.449617, 20.6550436 ], [ -103.449165600000015, 20.6548814 ], [ -103.4479699, 20.654463399999976 ], [ -103.4467937, 20.6541187 ], [ -103.4465184, 20.654013800000012 ], [ -103.4460603, 20.653849600000012 ], [ -103.4456298, 20.653015 ], [ -103.4455359, 20.6527909 ], [ -103.4453295, 20.6522763 ], [ -103.4451445, 20.6518617 ], [ -103.4447911, 20.6514962 ], [ -103.4445017, 20.650777399999974 ], [ -103.4433066, 20.647894 ], [ -103.4399605, 20.6398823 ], [ -103.4384594, 20.6361922 ], [ -103.4341677, 20.626078 ], [ -103.4330834, 20.6240432 ], [ -103.4308411, 20.6199404 ], [ -103.4300143, 20.618458199999978 ], [ -103.429085, 20.616634 ], [ -103.4267583, 20.6144969 ], [ -103.4264069, 20.614310699999987 ], [ -103.4237333, 20.612528599999987 ], [ -103.42349830000002, 20.61239610000003 ], [ -103.4228948, 20.6120517 ], [ -103.4232709, 20.611155 ], [ -103.423559, 20.610421 ], [ -103.4233286, 20.6099118 ], [ -103.4230544, 20.609347199999977 ], [ -103.4235199, 20.60814 ], [ -103.4237608, 20.6075152 ], [ -103.4240136, 20.606859599999989 ], [ -103.4240477, 20.606767 ], [ -103.4244195, 20.6057154 ], [ -103.4247388, 20.604897500000039 ], [ -103.4248177, 20.604940500000016 ], [ -103.4255971, 20.605458900000013 ], [ -103.4262831, 20.603737 ], [ -103.427826300000021, 20.6043175 ], [ -103.4280087, 20.604431800000018 ], [ -103.427826300000021, 20.6043175 ], [ -103.4262883, 20.60335550000001 ], [ -103.42587690000002, 20.6030913 ], [ -103.4262651, 20.6020176 ], [ -103.4263066, 20.6018905 ], [ -103.4257691, 20.6016738 ], [ -103.4245808, 20.6009519 ], [ -103.4248107, 20.6008467 ], [ -103.4250751, 20.600434500000016 ], [ -103.4250916, 20.600354800000012 ], [ -103.4250787, 20.599665500000015 ], [ -103.4251642, 20.5990727 ], [ -103.4250582, 20.5990877 ], [ -103.4243793, 20.599175400000021 ], [ -103.4237696, 20.59821340000002 ], [ -103.4231627, 20.5982951 ], [ -103.4230442, 20.5965563 ], [ -103.4222275, 20.596673200000026 ], [ -103.4202524, 20.5969567 ], [ -103.4190156, 20.596977800000023 ], [ -103.4189992, 20.5965853 ], [ -103.418997, 20.5965336 ], [ -103.4189785, 20.5960917 ], [ -103.4189761, 20.596035 ], [ -103.4189098, 20.5944527 ], [ -103.4189066, 20.594375300000017 ], [ -103.417835, 20.594284800000029 ], [ -103.4177866, 20.594280299999976 ], [ -103.4176357, 20.594266399999984 ], [ -103.4159861, 20.5941064 ], [ -103.4159287, 20.594098799999976 ], [ -103.41550740000001, 20.5940433 ], [ -103.4143018, 20.5938759 ], [ -103.4142375, 20.5938675 ], [ -103.4135071, 20.5937796 ], [ -103.4134538, 20.593772599999973 ], [ -103.4125649, 20.5929828 ], [ -103.4124897, 20.592892400000036 ], [ -103.4124156, 20.592947400000014 ], [ -103.412379, 20.5929647 ], [ -103.4107597, 20.5940707 ], [ -103.4099448, 20.5945332 ], [ -103.4098906, 20.5945696 ], [ -103.408833800000011, 20.5952441 ], [ -103.4082459, 20.595591 ], [ -103.4075774, 20.5959607 ], [ -103.4073367, 20.596101699999984 ], [ -103.4072432, 20.596170100000027 ], [ -103.4067602, 20.596516500000046 ], [ -103.4065007, 20.59671530000001 ], [ -103.4059995, 20.597081 ], [ -103.4051718, 20.5977614 ], [ -103.4046201, 20.5981745 ], [ -103.4033448, 20.599229700000024 ], [ -103.4020779, 20.6001717 ], [ -103.4004922, 20.599917600000012 ], [ -103.4000373, 20.5996275 ], [ -103.3972334, 20.598288800000017 ], [ -103.3968672, 20.59825 ], [ -103.3961843, 20.598189199999982 ], [ -103.3949293, 20.5980371 ], [ -103.3943381, 20.5979558 ], [ -103.3936609, 20.5978752 ], [ -103.39306, 20.59780520000001 ], [ -103.3921215, 20.5976781 ], [ -103.3917924, 20.597628199999988 ], [ -103.3906514, 20.596286399999975 ], [ -103.3883031, 20.593469 ], [ -103.4251642, 20.5990727 ], [ -103.4252555, 20.597996300000023 ], [ -103.4253534, 20.5969291 ], [ -103.4254113, 20.59620970000001 ], [ -103.425580700000012, 20.594274500000019 ], [ -103.4257405, 20.5921972 ], [ -103.4257628, 20.591739 ], [ -103.4258201, 20.591199899999989 ], [ -103.425888, 20.590702799999988 ], [ -103.4259397, 20.590169900000049 ], [ -103.4263268, 20.590092299999984 ], [ -103.4272984, 20.5899558 ], [ -103.4272075, 20.5879946 ], [ -103.427078, 20.5867871 ], [ -103.4270055, 20.586313 ], [ -103.428463, 20.5861307 ], [ -103.4307854, 20.5858403 ], [ -103.4307682, 20.585633599999984 ], [ -103.4307179, 20.58509470000001 ], [ -103.4306671, 20.58462309999998 ], [ -103.4306179, 20.584059 ], [ -103.430501, 20.582939 ], [ -103.4304535, 20.58239 ], [ -103.4303529, 20.5812172 ], [ -103.4301487, 20.5792596 ], [ -103.4316336, 20.5779827 ], [ -103.4316864, 20.5779294 ], [ -103.4357917, 20.574356300000012 ], [ -103.4364925, 20.5736463 ], [ -103.436588300000011, 20.5735492 ], [ -103.4382774, 20.5718451 ], [ -103.4385423, 20.5715587 ], [ -103.4388544, 20.57124380000003 ], [ -103.4389679, 20.571136500000023 ], [ -103.4391577, 20.5709515 ], [ -103.44069690000002, 20.569401200000033 ], [ -103.4420731, 20.568038499999989 ], [ -103.4438803, 20.5661786 ], [ -103.4445855, 20.56538940000004 ], [ -103.4446397, 20.565334400000022 ], [ -103.4449536, 20.565023299999975 ], [ -103.4470416, 20.5628981 ], [ -103.4471462, 20.562789100000035 ], [ -103.4521494, 20.557420500000045 ], [ -103.452395, 20.5571808 ], [ -103.4530186, 20.5564865 ], [ -103.4535186, 20.5559343 ], [ -103.4538131, 20.5556763 ], [ -103.4543962, 20.555106899999959 ], [ -103.4558419, 20.555760600000038 ], [ -103.4559137, 20.55568 ], [ -103.4574863, 20.554654 ], [ -103.4588998, 20.553905299999986 ], [ -103.4592734, 20.553662399999972 ], [ -103.4605826, 20.553288400000017 ], [ -103.4021291, 20.505132100000012 ], [ -103.401747500000013, 20.5050394 ], [ -103.4012776, 20.504924899999967 ], [ -103.4016794, 20.504442300000012 ], [ -103.4013893, 20.504119299999982 ], [ -103.4032703, 20.5041464 ], [ -103.4035684, 20.502858900000017 ], [ -103.4036084, 20.502767099999986 ], [ -103.4045025, 20.5019506 ], [ -103.4051037, 20.5014665 ], [ -103.4052271, 20.5015168 ], [ -103.409285, 20.4988547 ], [ -103.40931040000001, 20.4985354 ], [ -103.4093165, 20.498442 ], [ -103.40944420000001, 20.4967699 ], [ -103.409453, 20.496655199999982 ], [ -103.4095526, 20.49535089999998 ], [ -103.4095806, 20.4949841 ], [ -103.4096063, 20.494647800000021 ], [ -103.409638300000012, 20.494229 ], [ -103.4096617, 20.493921500000035 ], [ -103.4097068, 20.493331199999986 ], [ -103.4102461, 20.49324020000001 ], [ -103.4106092, 20.493179 ], [ -103.410962, 20.493139500000019 ], [ -103.4113378, 20.4931276 ], [ -103.4117039, 20.4931309 ], [ -103.4118806, 20.493131200000011 ], [ -103.4120652, 20.4931316 ], [ -103.4124333, 20.4931323 ], [ -103.4127984, 20.493133 ], [ -103.413164600000016, 20.493133699999976 ], [ -103.4135218, 20.4931343 ], [ -103.413782, 20.4931348 ], [ -103.4138881, 20.493135 ], [ -103.4140388, 20.4931353 ], [ -103.4140352, 20.4930157 ], [ -103.4021291, 20.505132100000012 ], [ -103.401747500000013, 20.5050394 ], [ -103.4012776, 20.504924899999967 ], [ -103.4016794, 20.504442300000012 ], [ -103.4013893, 20.504119299999982 ], [ -103.4003555, 20.506349 ], [ -103.401461, 20.506560400000019 ], [ -103.4024729, 20.506780100000014 ], [ -103.402234, 20.5076199 ], [ -103.4018263, 20.509196300000017 ], [ -103.4017775, 20.509531299999967 ], [ -103.4015926, 20.5097925 ], [ -103.4014293, 20.509703 ], [ -103.3953344, 20.507691300000015 ], [ -103.3951391, 20.50769 ], [ -103.3939692, 20.5078657 ], [ -103.3936538, 20.5077835 ], [ -103.3932611, 20.5076097 ], [ -103.392988, 20.50756130000001 ], [ -103.3928075, 20.507713699999986 ], [ -103.3925715, 20.5077099 ], [ -103.3903066, 20.506193299999985 ], [ -103.3867704, 20.5025162 ], [ -103.3855981, 20.5024309 ], [ -103.3853564, 20.502413300000015 ], [ -103.3851141, 20.5023956 ], [ -103.3818536, 20.5019936 ], [ -103.381172, 20.501788899999987 ], [ -103.3735467, 20.5011229 ], [ -103.3735127, 20.501071099999983 ], [ -103.3733927, 20.5010023 ], [ -103.3732527, 20.5010129 ], [ -103.3732867, 20.501417599999957 ], [ -103.3733817, 20.5014198 ], [ -103.3734479, 20.5014042 ], [ -103.3747286, 20.5023466 ], [ -103.3746845, 20.502637 ], [ -103.3746567, 20.502843 ], [ -103.3747934, 20.5029093 ], [ -103.3761342, 20.503369400000011 ], [ -103.376607, 20.503527300000037 ], [ -103.3765779, 20.5038398 ], [ -103.3765534, 20.5042063 ], [ -103.3765297, 20.5045295 ], [ -103.3765039, 20.5048999 ], [ -103.3764956, 20.505017 ], [ -103.3764677, 20.505402900000021 ], [ -103.3758357, 20.505357600000014 ], [ -103.4021291, 20.505132100000012 ], [ -103.401747500000013, 20.5050394 ], [ -103.4012776, 20.504924899999967 ], [ -103.4016794, 20.504442300000012 ], [ -103.4013893, 20.504119299999982 ], [ -103.4003555, 20.506349 ], [ -103.401461, 20.506560400000019 ], [ -103.4024729, 20.506780100000014 ], [ -103.402234, 20.5076199 ], [ -103.4018263, 20.509196300000017 ], [ -103.4017775, 20.509531299999967 ], [ -103.4015926, 20.5097925 ], [ -103.4019247, 20.5099713 ], [ -103.410487, 20.5148581 ], [ -103.4105762, 20.514909100000011 ], [ -103.4112003, 20.515303 ], [ -103.4112655, 20.515336200000011 ], [ -103.4114735, 20.515458900000016 ], [ -103.4115741, 20.515515 ], [ -103.4132449, 20.51644669999996 ], [ -103.4149953, 20.5174227 ], [ -103.4169658, 20.5185723 ], [ -103.4170296, 20.5186127 ], [ -103.4194305, 20.519950300000012 ], [ -103.4195114, 20.519996400000021 ], [ -103.4211001, 20.520901800000022 ], [ -103.4214271, 20.521088100000018 ], [ -103.4217887, 20.5212942 ], [ -103.4221075, 20.521475899999977 ], [ -103.4230854, 20.5222484 ], [ -103.4246173, 20.52587 ], [ -103.4252795, 20.527458500000016 ], [ -103.4255475, 20.528088300000029 ], [ -103.4258848, 20.5289581 ], [ -103.4261783, 20.5296439 ], [ -103.4263477, 20.530706299999974 ], [ -103.4260007, 20.531949599999951 ], [ -103.4257059, 20.533219 ], [ -103.4267337, 20.533457 ], [ -103.4264933, 20.5343063 ], [ -103.4273579, 20.5345269 ], [ -103.4286213, 20.535062800000013 ], [ -103.429157600000011, 20.5354507 ], [ -103.4297887, 20.536002799999988 ], [ -103.4302263, 20.536385500000023 ], [ -103.4309271, 20.5369232 ], [ -103.43137710000002, 20.537306300000026 ], [ -103.4318226, 20.537661899999978 ], [ -103.432923800000012, 20.5386734 ], [ -103.4331594, 20.5388771 ], [ -103.435500500000018, 20.5400803 ], [ -103.4376815, 20.5421899 ], [ -103.4385436, 20.5431109 ], [ -103.4400197, 20.545140700000015 ], [ -103.4412882, 20.546422799999984 ], [ -103.4421604, 20.5466921 ], [ -103.4432818, 20.547032599999973 ], [ -103.4442876, 20.5473652 ], [ -103.4439791, 20.5482813 ], [ -103.4436729, 20.5492993 ], [ -103.4448547, 20.549672200000014 ], [ -103.445868, 20.5499919 ], [ -103.446681700000013, 20.550248699999987 ], [ -103.4473229, 20.550451 ], [ -103.4468491, 20.551591899999984 ], [ -103.4476847, 20.5519825 ], [ -103.4482868, 20.5522626 ], [ -103.4499636, 20.553017200000021 ], [ -103.4527564, 20.5542937 ], [ -103.4528361, 20.554330299999986 ], [ -103.4542955, 20.555060299999983 ], [ -103.4543962, 20.555106899999959 ], [ -103.4558419, 20.555760600000038 ], [ -103.4559137, 20.55568 ], [ -103.4574863, 20.554654 ], [ -103.4588998, 20.553905299999986 ], [ -103.4592734, 20.553662399999972 ], [ -103.4605826, 20.553288400000017 ], [ -103.3833684, 20.5980507 ], [ -103.3829834, 20.5975394 ], [ -103.382402, 20.597732700000023 ], [ -103.3817729, 20.5979425 ], [ -103.3811939, 20.598121500000023 ], [ -103.3806018, 20.598313 ], [ -103.3800981, 20.598368399999988 ], [ -103.3800053, 20.5985533 ], [ -103.3793879, 20.59861 ], [ -103.3809806, 20.593604600000013 ], [ -103.3812907, 20.5925672 ], [ -103.3813768, 20.592338100000013 ], [ -103.3823827, 20.589885 ], [ -103.3849583, 20.5852648 ], [ -103.3856658, 20.5828729 ], [ -103.3859717, 20.582517400000011 ], [ -103.386542500000019, 20.582598200000017 ], [ -103.3865085, 20.584718300000016 ], [ -103.3864894, 20.585495400000017 ], [ -103.3864678, 20.5863751 ], [ -103.3864553, 20.5867812 ], [ -103.3864533, 20.586845 ], [ -103.3864391, 20.5873109 ], [ -103.3864146, 20.587956900000037 ], [ -103.386386200000018, 20.5886608 ], [ -103.3868399, 20.5886742 ], [ -103.387429, 20.588691500000028 ], [ -103.3873805, 20.5897065 ], [ -103.38732250000001, 20.5908656 ], [ -103.387607800000012, 20.590884499999984 ], [ -103.3879997, 20.590928200000032 ], [ -103.3884127, 20.590957899999978 ], [ -103.3883387, 20.5916995 ], [ -103.3882551, 20.59245970000001 ], [ -103.3886305, 20.5925527 ], [ -103.388577900000016, 20.5930049 ], [ -103.3885471, 20.593280799999985 ], [ -103.3883031, 20.593469 ], [ -103.4146598, 20.4888788 ], [ -103.4147863, 20.488883300000019 ], [ -103.4147884, 20.488979499999985 ], [ -103.4148684, 20.4889757 ], [ -103.414878500000015, 20.4888346 ], [ -103.4149196, 20.4882838 ], [ -103.4146715, 20.4881248 ], [ -103.4139694, 20.488049599999979 ], [ -103.4132226, 20.4880134 ], [ -103.4128235, 20.4880067 ], [ -103.4120861, 20.4880778 ], [ -103.4119195, 20.4881812 ], [ -103.410061, 20.4888655 ], [ -103.41005340000001, 20.488977100000042 ], [ -103.4100286, 20.489338200000027 ], [ -103.410005, 20.4896835 ], [ -103.4099821, 20.490017800000025 ], [ -103.4099618, 20.4903136 ], [ -103.409136, 20.490582800000048 ], [ -103.4091269, 20.4907129 ], [ -103.4090858, 20.4913003 ], [ -103.4090801, 20.491381600000015 ], [ -103.4089886, 20.492457200000015 ], [ -103.4089129, 20.49334630000002 ], [ -103.4089038, 20.493466699999988 ], [ -103.4097068, 20.493331199999986 ], [ -103.4102461, 20.49324020000001 ], [ -103.4106092, 20.493179 ], [ -103.410962, 20.493139500000019 ], [ -103.4113378, 20.4931276 ], [ -103.4117039, 20.4931309 ], [ -103.4118806, 20.493131200000011 ], [ -103.4120652, 20.4931316 ], [ -103.4124333, 20.4931323 ], [ -103.4127984, 20.493133 ], [ -103.413164600000016, 20.493133699999976 ], [ -103.4135218, 20.4931343 ], [ -103.413782, 20.4931348 ], [ -103.4138881, 20.493135 ], [ -103.4140388, 20.4931353 ], [ -103.4140352, 20.4930157 ] ] } },
{ "type": "Feature", "properties": { "candidate_id": "baseline_G02", "corridor_group": 2, "route_km": 36.574656405348158, "n_served_agebs": 84, "total_demand": 487682.95037579897, "f1_demand_gain": 0.18290195379765592, "f3_equity": 0.28438505974638412, "total_score": 0.25399821873425193, "feasible": false, "mode_assignment": "Light Rail/Metro", "endpoints_connected": true, "hi_share": 0.48809523809523808, "best_jaccard": 0.11194029850746269, "redundant": false, "dpk_pct": 57.085020242914972, "merit_passed": true }, "geometry": { "type": "LineString", "coordinates": [ [ -103.3197191, 20.567524300000027 ], [ -103.3201199, 20.567274900000037 ], [ -103.3205926, 20.5670202 ], [ -103.320925, 20.566839800000032 ], [ -103.3210719, 20.5668876 ], [ -103.321596700000015, 20.567047399999982 ], [ -103.3219025, 20.5671405 ], [ -103.3224948, 20.567320799999976 ], [ -103.322333, 20.5676668 ], [ -103.3229377, 20.5680716 ], [ -103.323362, 20.568335500000028 ], [ -103.3237699, 20.5685877 ], [ -103.3236982, 20.569174799999988 ], [ -103.3235832, 20.5695225 ], [ -103.3231754, 20.5704006 ], [ -103.3228903, 20.571029199999987 ], [ -103.322564, 20.57185 ], [ -103.3221953, 20.572882700000012 ], [ -103.3221537, 20.5729995 ], [ -103.3221362, 20.573048399999987 ], [ -103.3220187, 20.5733776 ], [ -103.3214697, 20.5732039 ], [ -103.3198778, 20.5729149 ], [ -103.3194121, 20.572855 ], [ -103.3183945, 20.57272320000002 ], [ -103.3167793, 20.572600399999981 ], [ -103.3131226, 20.5721269 ], [ -103.3117756, 20.571901400000026 ], [ -103.3124413, 20.5715567 ], [ -103.3129112, 20.5726278 ], [ -103.3141754, 20.57520330000002 ], [ -103.3144266, 20.575731499999989 ], [ -103.3146469, 20.576196100000033 ], [ -103.315146500000012, 20.5772451 ], [ -103.3150617, 20.577280899999984 ], [ -103.3151025, 20.577535499999978 ], [ -103.315498, 20.578330500000018 ], [ -103.313117, 20.5821442 ], [ -103.3125359, 20.582062799999981 ], [ -103.3107914, 20.581820699999987 ], [ -103.31526, 20.5891967 ], [ -103.3154064, 20.5883727 ], [ -103.3155112, 20.587797300000013 ], [ -103.3147929, 20.587517799999986 ], [ -103.313494500000019, 20.58730670000002 ], [ -103.3135934, 20.5867598 ], [ -103.3136456, 20.586471099999983 ], [ -103.3136976, 20.5861838 ], [ -103.313711900000015, 20.5861048 ], [ -103.313781400000011, 20.58572040000001 ], [ -103.313245, 20.58563 ], [ -103.3133591, 20.5848454 ], [ -103.3130505, 20.584787899999974 ], [ -103.3121187, 20.584620600000019 ], [ -103.3121805, 20.5842143 ], [ -103.3122356, 20.583826600000013 ], [ -103.3123458, 20.583188499999984 ], [ -103.3125037, 20.582227100000015 ], [ -103.3114355, 20.5820726 ], [ -103.3107702, 20.581976200000021 ], [ -103.3107914, 20.581820699999987 ], [ -103.3161766, 20.590344699999982 ], [ -103.3157486, 20.590943600000024 ], [ -103.314803, 20.5917928 ], [ -103.314205, 20.5919559 ], [ -103.313845300000011, 20.5921208 ], [ -103.313476, 20.592227900000037 ], [ -103.3126105, 20.5922869 ], [ -103.3121887, 20.5923509 ], [ -103.3120001, 20.592387599999963 ], [ -103.3116736, 20.592432399999989 ], [ -103.3112799, 20.592491700000011 ], [ -103.3107923, 20.5925424 ], [ -103.3107675, 20.593344 ], [ -103.3107719, 20.593774 ], [ -103.3107773, 20.594165599999958 ], [ -103.3107808, 20.5944241 ], [ -103.3108385, 20.5949551 ], [ -103.3108482, 20.595066 ], [ -103.3108843, 20.5955602 ], [ -103.3104104, 20.595925500000025 ], [ -103.3078577, 20.5964685 ], [ -103.3066199, 20.596703899999987 ], [ -103.3061927, 20.59669670000002 ], [ -103.3057444, 20.5968961 ], [ -103.3005586, 20.5968491 ], [ -103.2954677, 20.596498599999975 ], [ -103.2948418, 20.5964591 ], [ -103.294577, 20.596434 ], [ -103.2934784, 20.5963825 ], [ -103.2918796, 20.596617400000039 ], [ -103.2914167, 20.596846899999981 ], [ -103.2902302, 20.5972814 ], [ -103.2893849, 20.597611100000023 ], [ -103.2887584, 20.5978703 ], [ -103.2883104, 20.5980491 ], [ -103.2878775, 20.59823070000003 ], [ -103.3161766, 20.590344699999982 ], [ -103.3157486, 20.590943600000024 ], [ -103.314803, 20.5917928 ], [ -103.3153646, 20.591989200000022 ], [ -103.3153883, 20.5922761 ], [ -103.3154617, 20.593164 ], [ -103.3154669, 20.593228299999986 ], [ -103.3155299, 20.5938373 ], [ -103.3156691, 20.594451200000012 ], [ -103.3157223, 20.594800800000012 ], [ -103.3157384, 20.5949224 ], [ -103.3158254, 20.595696 ], [ -103.3159834, 20.596821899999981 ], [ -103.316078800000014, 20.5976766 ], [ -103.3162308, 20.598670799999987 ], [ -103.3167345, 20.598637199999985 ], [ -103.3170596, 20.5986194 ], [ -103.3179711, 20.5986291 ], [ -103.3180642, 20.5993686 ], [ -103.3190365, 20.5994427 ], [ -103.3190631, 20.599762599999988 ], [ -103.3192581, 20.600318 ], [ -103.3195864, 20.600869699999965 ], [ -103.3197105, 20.6011178 ], [ -103.3199888, 20.6018155 ], [ -103.3201832, 20.602256700000027 ], [ -103.3201732, 20.602535699999979 ], [ -103.3203744, 20.602885100000019 ], [ -103.3202267, 20.602948499999975 ], [ -103.3200903, 20.6036353 ], [ -103.3195724, 20.6046658 ], [ -103.3196504, 20.6046815 ], [ -103.3201561, 20.6048132 ], [ -103.3206097, 20.6049182 ], [ -103.3210536, 20.605020900000039 ], [ -103.3214723, 20.60512060000001 ], [ -103.321882, 20.6052181 ], [ -103.3223702, 20.605343300000012 ], [ -103.323295300000012, 20.6055718 ], [ -103.3235213, 20.6054467 ], [ -103.3239393, 20.6061341 ], [ -103.324198, 20.606116 ], [ -103.3245817, 20.606045699999989 ], [ -103.3246801, 20.606014400000024 ], [ -103.3251609, 20.605972199999982 ], [ -103.325674300000017, 20.605944899999979 ], [ -103.3261807, 20.6059119 ], [ -103.3262958, 20.607095300000029 ], [ -103.3263318, 20.6073797 ], [ -103.3268298, 20.607422600000014 ], [ -103.3269002, 20.608138799999974 ], [ -103.3274141, 20.608308899999987 ], [ -103.3274959, 20.608238600000011 ], [ -103.327634, 20.608209500000026 ], [ -103.3280422, 20.607998100000017 ], [ -103.3285619, 20.607853900000013 ], [ -103.3293118, 20.6078168 ], [ -103.3298342, 20.6078163 ], [ -103.3302967, 20.6078544 ], [ -103.3307862, 20.607826200000012 ], [ -103.3312102, 20.607801600000016 ], [ -103.3315482, 20.607782199999985 ], [ -103.3316616, 20.608281 ], [ -103.3317739, 20.6087304 ], [ -103.3318718, 20.609155200000014 ], [ -103.3320213, 20.6098074 ], [ -103.332092, 20.610432 ], [ -103.3320655, 20.610518699999989 ], [ -103.3318956, 20.6113489 ], [ -103.3318562, 20.61158720000001 ], [ -103.3318177, 20.611819799999989 ], [ -103.3327267, 20.6123133 ], [ -103.3326639, 20.612371 ], [ -103.3325291, 20.6135202 ], [ -103.3324473, 20.614216800000015 ], [ -103.3321344, 20.61672159999998 ], [ -103.3321635, 20.6167319 ], [ -103.3315877, 20.61704490000001 ], [ -103.331195800000017, 20.6173932 ], [ -103.3310816, 20.6175651 ], [ -103.331039, 20.6176406 ], [ -103.3319985, 20.618410799999989 ], [ -103.3331455, 20.619236599999976 ], [ -103.3343832, 20.6184679 ], [ -103.3360481, 20.618939399999984 ], [ -103.270375, 20.595100700000025 ], [ -103.2709493, 20.5950679 ], [ -103.2714845, 20.595061499999986 ], [ -103.2720416, 20.595054300000022 ], [ -103.2722087, 20.595049600000017 ], [ -103.2724481, 20.595042799999984 ], [ -103.2727195, 20.5950324 ], [ -103.2729798, 20.595027100000014 ], [ -103.273219, 20.595023499999979 ], [ -103.2739049, 20.5950092 ], [ -103.2744505, 20.5949667 ], [ -103.2754425, 20.595074799999988 ], [ -103.2755681, 20.595087899999974 ], [ -103.276456700000011, 20.5952598 ], [ -103.276564400000012, 20.595341800000011 ], [ -103.2770933, 20.595449400000017 ], [ -103.2773439, 20.59399 ], [ -103.2779636, 20.594045300000012 ], [ -103.270375, 20.595100700000025 ], [ -103.2697734, 20.5951125 ], [ -103.2691584, 20.5951135 ], [ -103.2683033, 20.5950995 ], [ -103.2680487, 20.59519990000004 ], [ -103.268066, 20.595781800000019 ], [ -103.2680688, 20.595850199999958 ], [ -103.268012500000012, 20.5965731 ], [ -103.2678848, 20.597403199999988 ], [ -103.2678669, 20.59774250000001 ], [ -103.2678625, 20.598108600000035 ], [ -103.267882, 20.598714800000028 ], [ -103.2678905, 20.5991117 ], [ -103.2678773, 20.599490500000019 ], [ -103.2678636, 20.5998573 ], [ -103.2678489, 20.6002973 ], [ -103.2680084, 20.6006322 ], [ -103.2679628, 20.600810400000022 ], [ -103.2671533, 20.60170470000002 ], [ -103.2670705, 20.6017833 ], [ -103.2668832, 20.6020213 ], [ -103.2666063, 20.602380300000011 ], [ -103.2662955, 20.6028175 ], [ -103.2660471, 20.603382300000035 ], [ -103.2659199, 20.603736599999987 ], [ -103.2644279, 20.603254900000014 ], [ -103.2642994, 20.603719800000011 ], [ -103.2642254, 20.6043 ], [ -103.2637217, 20.604064300000019 ], [ -103.2618812, 20.60555830000002 ], [ -103.2615671, 20.605832 ], [ -103.2615063, 20.606079399999988 ], [ -103.261776, 20.606135700000017 ], [ -103.2617871, 20.6064506 ], [ -103.2612127, 20.6064193 ], [ -103.2604253, 20.606367299999985 ], [ -103.2591255, 20.606315200000022 ], [ -103.2573307, 20.606243700000014 ], [ -103.2568042, 20.606214400000038 ], [ -103.2546671, 20.6064428 ], [ -103.2546173, 20.6076379 ], [ -103.254419, 20.6076283 ], [ -103.254004, 20.607617799999986 ], [ -103.2539306, 20.608681800000021 ], [ -103.2535036, 20.608656 ], [ -103.2534903, 20.608774199999988 ], [ -103.2528787, 20.6087074 ], [ -103.252748, 20.609113099999988 ], [ -103.2521214, 20.6090349 ], [ -103.2516144, 20.6095758 ], [ -103.251202100000015, 20.609536 ], [ -103.2488971, 20.610221600000028 ], [ -103.248811500000016, 20.6109059 ], [ -103.2487704, 20.6110797 ], [ -103.2485639, 20.6110098 ], [ -103.2482269, 20.610891700000014 ], [ -103.2478768, 20.610787100000042 ], [ -103.2475164, 20.6106622 ], [ -103.2465018, 20.6104245 ], [ -103.2462188, 20.61032390000004 ], [ -103.2456981, 20.6101671 ], [ -103.2448051, 20.60987170000001 ], [ -103.24467, 20.6101811 ], [ -103.2443961, 20.6105777 ], [ -103.2440937, 20.610979400000012 ], [ -103.2438068, 20.6108462 ], [ -103.2436488, 20.611026500000019 ], [ -103.2434576, 20.612528199999989 ], [ -103.2430076, 20.6127334 ], [ -103.2424024, 20.6130094 ], [ -103.2423003, 20.613060199999982 ], [ -103.2431372, 20.6134688 ], [ -103.2432788, 20.614398800000011 ], [ -103.241012, 20.6146467 ], [ -103.2409646, 20.61464590000001 ], [ -103.2408567, 20.614723300000012 ], [ -103.2408518, 20.6147353 ], [ -103.2408485, 20.614806200000018 ], [ -103.2407428, 20.615549499999954 ], [ -103.240625300000019, 20.616020500000012 ], [ -103.2405569, 20.6161971 ], [ -103.2407601, 20.616337200000014 ], [ -103.2409599, 20.6164715 ], [ -103.2412835, 20.616572399999963 ], [ -103.2416746, 20.6178546 ], [ -103.2414003, 20.618899 ], [ -103.2412005, 20.6196118 ], [ -103.241075, 20.620089500000013 ], [ -103.2408412, 20.62098 ], [ -103.2404768, 20.622285 ], [ -103.2401416, 20.623485400000032 ], [ -103.2398686, 20.624462900000012 ], [ -103.239466, 20.625863 ], [ -103.2391522, 20.627028400000015 ], [ -103.2390102, 20.6275369 ], [ -103.2388096, 20.6282399 ], [ -103.2386224, 20.6288959 ], [ -103.2384824, 20.629386700000023 ], [ -103.2382106, 20.6304708 ], [ -103.2378733, 20.631585900000051 ], [ -103.2375838, 20.632700500000038 ], [ -103.2368376, 20.633359600000034 ], [ -103.2366387, 20.6337027 ], [ -103.2364993, 20.634099600000027 ], [ -103.2361317, 20.635425399999974 ], [ -103.235944, 20.63584 ], [ -103.2357744, 20.636296700000027 ], [ -103.2356846, 20.6365332 ], [ -103.2356162, 20.636743399999975 ], [ -103.2355597, 20.6368991 ], [ -103.2352831, 20.637633600000033 ], [ -103.2351576, 20.6380022 ], [ -103.2350498, 20.6385089 ], [ -103.2349208, 20.6386133 ], [ -103.2345532, 20.6397867 ], [ -103.2341347, 20.639716 ], [ -103.2334208, 20.639334800000011 ], [ -103.2332462, 20.639708 ], [ -103.2326605, 20.6396118 ], [ -103.2325927, 20.6398701 ], [ -103.2324336, 20.640299600000031 ], [ -103.2318707, 20.640304499999989 ], [ -103.231724200000016, 20.6403359 ], [ -103.2314157, 20.640536600000036 ], [ -103.2312197, 20.640649500000013 ], [ -103.2310213, 20.64088149999996 ], [ -103.2308083, 20.641478700000011 ], [ -103.230775400000013, 20.641486600000011 ], [ -103.2304565, 20.641630699999968 ], [ -103.2303966, 20.641667099999982 ], [ -103.2301317, 20.641939199999989 ], [ -103.2302752, 20.6424799 ], [ -103.2302352, 20.6428279 ], [ -103.2302288, 20.642867100000011 ], [ -103.2302165, 20.642924199999989 ], [ -103.2301822, 20.643191599999984 ], [ -103.2301513, 20.644383099999974 ], [ -103.2304003, 20.6444085 ], [ -103.2302528, 20.6450524 ], [ -103.2302155, 20.645125 ], [ -103.2301378, 20.6452884 ], [ -103.2300617, 20.6456333 ], [ -103.2300101, 20.6458629 ], [ -103.2299061, 20.646290199999978 ], [ -103.2298607, 20.646476200000038 ], [ -103.2298515, 20.646544700000046 ], [ -103.2296664, 20.647106499999989 ], [ -103.2295645, 20.647534200000031 ], [ -103.229456, 20.6479893 ], [ -103.2293418, 20.648424099999971 ], [ -103.229225, 20.6488691 ], [ -103.2290686, 20.649367 ], [ -103.2290061, 20.649414400000019 ], [ -103.2288814, 20.6498402 ], [ -103.2288631, 20.6499363 ], [ -103.2288138, 20.6503193 ], [ -103.2287617, 20.650724599999979 ], [ -103.2286999, 20.651106700000021 ], [ -103.2286541, 20.651489800000025 ], [ -103.2285736, 20.6519986 ], [ -103.22855, 20.652110299999965 ], [ -103.2284197, 20.6525975 ], [ -103.228391, 20.652868099999989 ], [ -103.2283048, 20.65370010000002 ], [ -103.2281612, 20.655172500000013 ], [ -103.228038, 20.656209399999984 ], [ -103.2276033, 20.6562289 ], [ -103.2274914, 20.6572995 ], [ -103.2271207, 20.657402199999986 ], [ -103.2262146, 20.657365800000015 ], [ -103.2262985, 20.6587372 ], [ -103.22635, 20.659529700000022 ], [ -103.226371500000013, 20.659979499999981 ], [ -103.2264175, 20.660941900000026 ], [ -103.226436600000014, 20.661529900000012 ], [ -103.2264646, 20.6624391 ], [ -103.2259291, 20.662430799999981 ], [ -103.2258252, 20.662428399999964 ], [ -103.2251576, 20.662412600000021 ], [ -103.2251498, 20.6633203 ], [ -103.2929694, 20.540912500000019 ], [ -103.293653, 20.5410107 ], [ -103.2920012, 20.5448479 ], [ -103.2917511, 20.546082100000035 ], [ -103.2915727, 20.546755799999985 ], [ -103.2927168, 20.5467353 ], [ -103.2936017, 20.5467181 ], [ -103.2940526, 20.5466978 ], [ -103.2957054, 20.54662350000001 ], [ -103.295647700000018, 20.546884499999976 ], [ -103.2975894, 20.5468239 ], [ -103.2989837, 20.5490318 ], [ -103.2994202, 20.549949 ], [ -103.2996497, 20.5504257 ], [ -103.2998262, 20.550878799999989 ], [ -103.3000121, 20.551340700000011 ], [ -103.3001674, 20.551726700000021 ], [ -103.300434, 20.552014100000015 ], [ -103.3017301, 20.5533476 ], [ -103.3017813, 20.5533137 ], [ -103.3022045, 20.553709900000012 ], [ -103.3023983, 20.553939100000015 ], [ -103.3029176, 20.5546111 ], [ -103.3030963, 20.5544446 ], [ -103.3037865, 20.55484 ], [ -103.3042839, 20.55513 ], [ -103.304422, 20.555021300000018 ], [ -103.3048812, 20.556076900000015 ], [ -103.304959100000019, 20.556231600000022 ], [ -103.3052798, 20.5568687 ], [ -103.3053719, 20.5570372 ], [ -103.3055772, 20.5572201 ], [ -103.3064132, 20.558960100000014 ], [ -103.3068192, 20.559740900000044 ], [ -103.3071421, 20.5604629 ], [ -103.3078802, 20.5620013 ], [ -103.3101708, 20.566791099999989 ], [ -103.3102581, 20.566974 ], [ -103.3105634, 20.5676139 ], [ -103.311509300000012, 20.569599900000028 ], [ -103.3124413, 20.5715567 ], [ -103.3129112, 20.5726278 ], [ -103.3141754, 20.57520330000002 ], [ -103.3144266, 20.575731499999989 ], [ -103.3146469, 20.576196100000033 ], [ -103.315146500000012, 20.5772451 ], [ -103.3150617, 20.577280899999984 ], [ -103.3151025, 20.577535499999978 ], [ -103.315498, 20.578330500000018 ], [ -103.313117, 20.5821442 ], [ -103.3125359, 20.582062799999981 ], [ -103.3107914, 20.581820699999987 ], [ -103.2777842, 20.5955246 ], [ -103.2783027, 20.595578400000019 ], [ -103.2788299, 20.5956213 ], [ -103.2795254, 20.595698700000014 ], [ -103.2798764, 20.595729400000018 ], [ -103.2798933, 20.5956365 ], [ -103.2809817, 20.59577640000002 ], [ -103.2809609, 20.595982099999986 ], [ -103.2820037, 20.5961672 ], [ -103.2819876, 20.596343 ], [ -103.2833653, 20.59653190000002 ], [ -103.2833432, 20.59667659999997 ], [ -103.2841085, 20.5967477 ], [ -103.2852141, 20.596790199999973 ], [ -103.2862241, 20.5968581 ], [ -103.287837, 20.596929399999972 ], [ -103.2878775, 20.59823070000003 ], [ -103.2872128, 20.595726899999985 ], [ -103.2880266, 20.5957583 ], [ -103.28792, 20.5962208 ], [ -103.2878765, 20.596450099999956 ], [ -103.287837, 20.596929399999972 ], [ -103.2878775, 20.59823070000003 ] ] } },
{ "type": "Feature", "properties": { "candidate_id": "baseline_G03", "corridor_group": 3, "route_km": 3.5188865336107726, "n_served_agebs": 3, "total_demand": 32385.744004809672, "f1_demand_gain": 0.35516703528977783, "f3_equity": 0.3209134064384131, "total_score": 0.65607133245262472, "feasible": false, "mode_assignment": "BRT", "endpoints_connected": true, "hi_share": 1.0, "best_jaccard": 0.027027027027027029, "redundant": false, "dpk_pct": 31.174089068825911, "merit_passed": false }, "geometry": { "type": "LineString", "coordinates": [ [ -103.4906265, 20.7967557 ], [ -103.492133, 20.798704 ], [ -103.4929987, 20.7988851 ], [ -103.4951305, 20.799369600000013 ], [ -103.4951426, 20.7995972 ], [ -103.4950934, 20.8005103 ], [ -103.4950845, 20.800790800000033 ], [ -103.4950356, 20.801793899999979 ], [ -103.4953108, 20.8018242 ], [ -103.4955548, 20.8018301 ], [ -103.496754100000018, 20.802446400000036 ], [ -103.4970806, 20.802602100000016 ], [ -103.4973982, 20.80275659999996 ], [ -103.4976028, 20.8028551 ], [ -103.4980381, 20.80306480000003 ], [ -103.4981565, 20.8031226 ], [ -103.4981589, 20.8032009 ], [ -103.4979459, 20.803933599999972 ], [ -103.4981589, 20.8032009 ], [ -103.4982321, 20.803159900000011 ], [ -103.4996842, 20.8038576 ], [ -103.4981589, 20.8032009 ], [ -103.4982321, 20.803159900000011 ], [ -103.4981565, 20.8031226 ], [ -103.4980381, 20.80306480000003 ], [ -103.4976028, 20.8028551 ], [ -103.4973982, 20.80275659999996 ], [ -103.4970806, 20.802602100000016 ], [ -103.496754100000018, 20.802446400000036 ], [ -103.4955548, 20.8018301 ], [ -103.4955373, 20.801733600000016 ], [ -103.4953108, 20.8018242 ], [ -103.4950356, 20.801793899999979 ], [ -103.4939075, 20.801648100000012 ], [ -103.4932029, 20.801557 ], [ -103.4924327, 20.801457800000019 ], [ -103.4923386, 20.8014452 ], [ -103.4914637, 20.8013321 ], [ -103.488874100000018, 20.8005852 ], [ -103.4888992, 20.800027 ], [ -103.4870258, 20.79939779999998 ], [ -103.486695, 20.7992867 ], [ -103.4867433, 20.798825099999956 ], [ -103.4868583, 20.7977037 ], [ -103.4868975, 20.79734540000003 ], [ -103.4869349, 20.797020400000019 ], [ -103.4870179, 20.796199800000021 ], [ -103.4871894, 20.795348 ] ] } },
{ "type": "Feature", "properties": { "candidate_id": "baseline_G04", "corridor_group": 4, "route_km": 44.487055685463609, "n_served_agebs": 28, "total_demand": 148616.39304772893, "f1_demand_gain": 0.34474313149965258, "f3_equity": 0.30040672150108189, "total_score": 0.41984481187492306, "feasible": false, "mode_assignment": "Light Rail/Metro", "endpoints_connected": false, "hi_share": 0.4642857142857143, "best_jaccard": 0.093023255813953487, "redundant": false, "dpk_pct": 2.42914979757085, "merit_passed": false }, "geometry": { "type": "LineString", "coordinates": [ [ -103.2894451, 20.5023935 ], [ -103.2895888, 20.502643 ], [ -103.2898744, 20.502928700000012 ], [ -103.2904863, 20.5024553 ], [ -103.2906865, 20.5019554 ], [ -103.2914076, 20.501839 ], [ -103.2918319, 20.501777900000025 ], [ -103.293743300000017, 20.501896100000025 ], [ -103.2946584, 20.502689400000026 ], [ -103.2952058, 20.503438 ], [ -103.301347600000014, 20.506529499999974 ], [ -103.3023716, 20.50693950000003 ], [ -103.3033252, 20.5073332 ], [ -103.3043666, 20.5077439 ], [ -103.3053615, 20.508134100000039 ], [ -103.307409600000014, 20.509000799999971 ], [ -103.308405, 20.509409 ], [ -103.3102367, 20.510143 ], [ -103.331555, 20.5169103 ], [ -103.3320541, 20.51667010000001 ], [ -103.3326227, 20.5160611 ], [ -103.3426447, 20.516574800000029 ], [ -103.3427485, 20.516566200000021 ], [ -103.342049500000016, 20.514396799999989 ], [ -103.3415319, 20.512790400000029 ], [ -103.3414133, 20.5124222 ], [ -103.3408195, 20.510301899999973 ], [ -103.3406363, 20.5087623 ], [ -103.340461, 20.506847599999983 ], [ -103.3389399, 20.506815900000024 ], [ -103.2895888, 20.502643 ], [ -103.2888508, 20.504424099999987 ], [ -103.2866382, 20.501462100000015 ], [ -103.286468, 20.501228299999987 ], [ -103.2851248, 20.4993826 ], [ -103.2786035, 20.490507 ], [ -103.2779053, 20.4895422 ], [ -103.2776053, 20.4891277 ], [ -103.2751451, 20.4857595 ], [ -103.2744929, 20.484539700000017 ], [ -103.274418900000015, 20.4842699 ], [ -103.2740861, 20.4829466 ], [ -103.2736697, 20.4812719 ], [ -103.2730052, 20.478903399999989 ], [ -103.2730371, 20.478685100000014 ], [ -103.2719868, 20.478200200000021 ], [ -103.2696017, 20.4778023 ], [ -103.269105, 20.477712400000026 ], [ -103.268587600000018, 20.4776184 ], [ -103.2681514, 20.4775387 ], [ -103.2675136, 20.4774231 ], [ -103.265126, 20.4768198 ], [ -103.2650052, 20.476626699999947 ], [ -103.2649844, 20.476570299999974 ], [ -103.2649499, 20.4764968 ], [ -103.264785, 20.476563599999977 ], [ -103.2647389, 20.476513499999946 ], [ -103.2641748, 20.4757353 ], [ -103.2640147, 20.47555 ], [ -103.2637811, 20.4751887 ], [ -103.2609479, 20.470802 ], [ -103.2584312, 20.4668632 ], [ -103.2579969, 20.4661839 ], [ -103.2574816, 20.4653769 ], [ -103.2548073, 20.461175599999986 ], [ -103.2528705, 20.458148500000025 ], [ -103.2512555, 20.455631699999973 ], [ -103.2519749, 20.454680700000022 ], [ -103.2527613, 20.454118 ], [ -103.2535528, 20.4535216 ], [ -103.2540349, 20.453180300000025 ], [ -103.2543578, 20.4529518 ], [ -103.2551784, 20.452353 ], [ -103.2559745, 20.451784 ], [ -103.2895888, 20.502643 ], [ -103.2888508, 20.504424099999987 ], [ -103.2866382, 20.501462100000015 ], [ -103.286468, 20.501228299999987 ], [ -103.2851248, 20.4993826 ], [ -103.2786035, 20.490507 ], [ -103.2779053, 20.4895422 ], [ -103.2776053, 20.4891277 ], [ -103.2751451, 20.4857595 ], [ -103.2744929, 20.484539700000017 ], [ -103.274418900000015, 20.4842699 ], [ -103.2740861, 20.4829466 ], [ -103.2736697, 20.4812719 ], [ -103.2730052, 20.478903399999989 ], [ -103.2730371, 20.478685100000014 ], [ -103.2719868, 20.478200200000021 ], [ -103.2696017, 20.4778023 ], [ -103.269105, 20.477712400000026 ], [ -103.268587600000018, 20.4776184 ], [ -103.2681514, 20.4775387 ], [ -103.2675136, 20.4774231 ], [ -103.265126, 20.4768198 ], [ -103.2650052, 20.476626699999947 ], [ -103.2649844, 20.476570299999974 ], [ -103.2649499, 20.4764968 ], [ -103.264785, 20.476563599999977 ], [ -103.2647389, 20.476513499999946 ], [ -103.2641748, 20.4757353 ], [ -103.2640147, 20.47555 ], [ -103.2637811, 20.4751887 ], [ -103.2609479, 20.470802 ], [ -103.2602553, 20.4694092 ], [ -103.2592039, 20.468547300000015 ], [ -103.2604652, 20.470368899999986 ], [ -103.2608798, 20.471016100000025 ], [ -103.2620204, 20.472796699999986 ], [ -103.2622243, 20.473115 ], [ -103.2628898, 20.474154 ], [ -103.2623489, 20.4747995 ], [ -103.2622512, 20.474813799999986 ], [ -103.2592076, 20.475098600000045 ], [ -103.258800800000017, 20.475173200000022 ], [ -103.2564583, 20.478012 ], [ -103.2551002, 20.476948600000018 ], [ -103.254036, 20.4762729 ], [ -103.2529642, 20.4755923 ], [ -103.2524347, 20.4752561 ], [ -103.2523771, 20.4753296 ], [ -103.2525586, 20.475444499999984 ], [ -103.250326, 20.475534400000061 ], [ -103.2502225, 20.4756769 ], [ -103.250120700000011, 20.47607540000001 ], [ -103.2491622, 20.4764266 ], [ -103.2496721, 20.4767486 ], [ -103.2498663, 20.476871199999987 ], [ -103.24989930000001, 20.4770625 ], [ -103.2498663, 20.476871199999987 ], [ -103.2496721, 20.4767486 ], [ -103.2491622, 20.4764266 ], [ -103.2486574, 20.4761077 ], [ -103.2481648, 20.475090799999972 ], [ -103.2483695, 20.474745699999989 ], [ -103.2486205, 20.4743984 ], [ -103.2488656, 20.4740594 ], [ -103.2491107, 20.4737147 ], [ -103.2492799, 20.4734744 ], [ -103.249375700000016, 20.473430699999987 ], [ -103.2493839, 20.473333299999979 ], [ -103.2492466, 20.4732834 ], [ -103.2490369, 20.472766199999974 ], [ -103.2263277, 20.4676385 ], [ -103.2187405, 20.4568995 ], [ -103.210819300000011, 20.4456904 ], [ -103.2107598, 20.445607399999975 ], [ -103.2106408, 20.445448099999986 ], [ -103.208259900000016, 20.442004700000012 ], [ -103.2081486, 20.4418658 ], [ -103.2069743, 20.440218600000016 ], [ -103.2080181, 20.439034599999978 ], [ -103.2085807, 20.438414499999979 ], [ -103.2092849, 20.4376162 ], [ -103.2096391, 20.43721840000002 ], [ -103.210044, 20.4367655 ], [ -103.2102461, 20.436536400000051 ], [ -103.2113073, 20.4349153 ], [ -103.2114755, 20.434602 ], [ -103.21120310000002, 20.434416300000017 ], [ -103.2071878, 20.431650200000011 ], [ -103.1997275, 20.426503799999988 ], [ -103.1943023, 20.422281599999987 ], [ -103.1940996, 20.4221458 ], [ -103.1932971, 20.4232893 ], [ -103.1929561, 20.4237494 ], [ -103.1927126, 20.424093800000016 ], [ -103.1921759, 20.4237445 ], [ -103.1919372, 20.424077299999986 ], [ -103.1917096, 20.424394599999982 ], [ -103.1914616, 20.4247404 ], [ -103.1912333, 20.4250586 ], [ -103.1903232, 20.424468599999983 ], [ -103.1900873, 20.4247933 ], [ -103.1873598, 20.423281600000028 ], [ -103.1875787, 20.422952700000021 ], [ -103.1877995, 20.4226177 ], [ -103.1880456, 20.422282699999982 ], [ -103.1882814, 20.4219476 ], [ -103.1885057, 20.42162470000001 ], [ -103.1887201, 20.421283300000024 ], [ -103.1870304, 20.4202502 ], [ -103.187253, 20.4199033 ], [ -103.1874863, 20.419579099999972 ], [ -103.1876124, 20.4182921 ], [ -103.1878664, 20.4180222 ], [ -103.1876127, 20.4178708 ], [ -103.1831941, 20.4148312 ], [ -103.183128300000021, 20.414778399999982 ], [ -103.1830528, 20.4149301 ], [ -103.1829214, 20.4152695 ], [ -103.1827984, 20.4156405 ], [ -103.1826739, 20.415990400000016 ], [ -103.1825582, 20.416355600000035 ], [ -103.1824305, 20.416722 ], [ -103.182412, 20.416775600000019 ], [ -103.1822906, 20.4171274 ], [ -103.1821678, 20.417483099999984 ], [ -103.1820508, 20.417843500000018 ], [ -103.1819274, 20.4182154 ], [ -103.1817926, 20.4185672 ], [ -103.1816693, 20.418937699999987 ], [ -103.181753, 20.41896 ], [ -103.3064027, 20.444820300000039 ], [ -103.3070598, 20.4449647 ], [ -103.3074374, 20.4450818 ], [ -103.3073111, 20.445443199999975 ], [ -103.3063575, 20.4451903 ], [ -103.3059512, 20.445134800000023 ], [ -103.3050754, 20.4449611 ], [ -103.3048933, 20.444930199999963 ], [ -103.3038641, 20.444546200000012 ], [ -103.3035947, 20.4441481 ], [ -103.3031934, 20.443846 ], [ -103.302943400000018, 20.4438233 ], [ -103.3029101, 20.4437521 ], [ -103.3027872, 20.443611300000022 ], [ -103.3025108, 20.4434329 ], [ -103.3024188, 20.442547 ], [ -103.3012195, 20.4427377 ], [ -103.2965727, 20.4473275 ], [ -103.2958496, 20.447698 ], [ -103.28695, 20.450347 ], [ -103.2857131, 20.450461300000018 ], [ -103.277818600000018, 20.451369699999979 ], [ -103.2774125, 20.45121440000003 ], [ -103.277054, 20.4512484 ], [ -103.269073400000011, 20.453262899999974 ], [ -103.2686738, 20.4533176 ], [ -103.2684906, 20.4533426 ], [ -103.2682459, 20.453376100000018 ], [ -103.266726, 20.4532883 ], [ -103.2654787, 20.453150399999984 ], [ -103.2650152, 20.453056600000036 ], [ -103.2639286, 20.4528367 ], [ -103.2621243, 20.4524885 ], [ -103.2607885, 20.452347499999981 ], [ -103.2607149, 20.452338199999989 ], [ -103.2592632, 20.452314 ], [ -103.256404, 20.4515892 ], [ -103.2563624, 20.4514934 ], [ -103.256306, 20.451438200000037 ], [ -103.2562381, 20.451493 ], [ -103.2559144, 20.451718 ], [ -103.2559745, 20.451784 ], [ -103.3380748, 20.50348450000001 ], [ -103.3380606, 20.503837199999989 ], [ -103.338462, 20.503850900000018 ], [ -103.3384493, 20.504442899999983 ], [ -103.3388192, 20.504458 ], [ -103.3388107, 20.5048452 ], [ -103.3368293, 20.5047782 ], [ -103.3359255, 20.504742400000019 ], [ -103.3356017, 20.504727 ], [ -103.3356025, 20.5048082 ], [ -103.3357011, 20.505631399999984 ], [ -103.335812300000015, 20.50658 ], [ -103.3360349, 20.5065975 ], [ -103.3361028, 20.506604700000018 ], [ -103.3379513, 20.5067337 ], [ -103.3380588, 20.506736600000057 ], [ -103.3389399, 20.506815900000024 ] ] } },
{ "type": "Feature", "properties": { "candidate_id": "baseline_G05", "corridor_group": 5, "route_km": 21.288992148148996, "n_served_agebs": 4, "total_demand": 40614.362725158775, "f1_demand_gain": 0.42189771723474351, "f3_equity": 0.24729818189087371, "total_score": 0.55631399480622035, "feasible": false, "mode_assignment": "BRT", "endpoints_connected": false, "hi_share": 0.75, "best_jaccard": 0.041666666666666664, "redundant": false, "dpk_pct": 0.80971659919028338, "merit_passed": false }, "geometry": { "type": "LineString", "coordinates": [ [ -103.510212600000017, 20.4779072 ], [ -103.5100471, 20.4792409 ], [ -103.5087641, 20.479256900000038 ], [ -103.508684, 20.480178400000018 ], [ -103.5086233, 20.4812952 ], [ -103.5086031, 20.481915799999985 ], [ -103.5082011, 20.48188339999998 ], [ -103.515483, 20.4747065 ], [ -103.5156825, 20.474465700000035 ], [ -103.5383232, 20.469300400000019 ], [ -103.5402206, 20.4644218 ], [ -103.548019, 20.468150500000032 ], [ -103.55710430000002, 20.4699428 ], [ -103.558258800000019, 20.4698408 ], [ -103.5587736, 20.4698531 ], [ -103.559662500000016, 20.4691294 ], [ -103.5612264, 20.4690792 ], [ -103.5688292, 20.463959 ], [ -103.5815243, 20.441651 ], [ -103.5791849, 20.434396799999984 ], [ -103.5789097, 20.434147200000023 ], [ -103.580938, 20.4305863 ], [ -103.5870215, 20.4311972 ], [ -103.5870602, 20.4311053 ], [ -103.5873389, 20.430524400000017 ], [ -103.5877596, 20.429325099999982 ], [ -103.5871253, 20.428319300000013 ], [ -103.5869645, 20.4279749 ], [ -103.5872617, 20.427669599999987 ], [ -103.5876006, 20.4270204 ], [ -103.5879736, 20.426306 ], [ -103.588671, 20.4250231 ], [ -103.5887989, 20.4246935 ], [ -103.590685300000018, 20.4245005 ], [ -103.5908066, 20.42452380000001 ], [ -103.5909117, 20.423176900000012 ], [ -103.5917684, 20.42315229999998 ], [ -103.5926596, 20.4231829 ], [ -103.592725, 20.422378599999984 ], [ -103.5086031, 20.481915799999985 ], [ -103.509125600000019, 20.4819494 ], [ -103.5100557, 20.48199689999997 ], [ -103.511013500000018, 20.482030400000028 ], [ -103.5146173, 20.4823951 ], [ -103.5168244, 20.4822946 ], [ -103.5190183, 20.481911 ], [ -103.519176, 20.482809400000011 ], [ -103.5204843, 20.4826023 ], [ -103.528444, 20.4826203 ], [ -103.5292756, 20.4826197 ], [ -103.5301338, 20.4826342 ], [ -103.5331213, 20.4826078 ], [ -103.5341111, 20.482622 ], [ -103.5342228, 20.4826211 ], [ -103.5471902, 20.4839426 ], [ -103.5473759, 20.4833148 ], [ -103.5508169, 20.480189899999971 ], [ -103.5545744, 20.476300799999983 ], [ -103.5550605, 20.4760454 ], [ -103.5551803, 20.4759617 ], [ -103.556119, 20.475306100000015 ], [ -103.5567407, 20.474806 ], [ -103.5572821, 20.474463299999968 ], [ -103.5577606, 20.473875400000022 ], [ -103.5582731, 20.473127600000012 ], [ -103.5583774, 20.4729422 ], [ -103.5591644, 20.472569400000026 ], [ -103.5592324, 20.472051799999957 ], [ -103.5595834, 20.47208010000001 ] ] } }
]
}
