{
"type": "FeatureCollection",
"name": "ags_corridor_candidates",
"crs": { "type": "name", "properties": { "name": "urn:ogc:def:crs:OGC:1.3:CRS84" } },
"features": [
{ "type": "Feature", "properties": { "candidate_id": "W6_G00", "corridor_group": 0, "route_km": 4.762, "n_stops": 11, "n_served_agebs": 5, "total_demand": 40244.0, "directness": 1.2, "connects_to_existing": true, "f1_demand_gain": 0.0264, "f3_equity": 0.5368, "total_score": 0.3709, "feasible": true, "mode_assignment": "BRT", "pareto_rank": 1 }, "geometry": { "type": "LineString", "coordinates": [ [ -102.3433109, 21.993393699999984 ], [ -102.343661800000021, 21.992212500000019 ], [ -102.3432553, 21.9921398 ], [ -102.3428564, 21.992079 ], [ -102.3430378, 21.99103 ], [ -102.3431235, 21.9899063 ], [ -102.3431258, 21.9897525 ], [ -102.343169100000011, 21.988472899999984 ], [ -102.3427611, 21.988462499999976 ], [ -102.3426207, 21.988469899999973 ], [ -102.3437234, 21.98342120000002 ], [ -102.3439148, 21.9825056 ], [ -102.3440927, 21.9819403 ], [ -102.3441913, 21.9812143 ], [ -102.3442387, 21.980671799999978 ], [ -102.3444687, 21.9787791 ], [ -102.345038, 21.9763371 ], [ -102.3449974, 21.974718400000025 ], [ -102.3449836, 21.974591700000026 ], [ -102.3449832, 21.9744107 ], [ -102.3449484, 21.9741299 ], [ -102.344940100000017, 21.9732398 ], [ -102.3449424, 21.973111399999976 ], [ -102.3449665, 21.97286249999998 ], [ -102.3449849, 21.9724873 ], [ -102.345018, 21.97145129999998 ], [ -102.34507, 21.970952 ], [ -102.3451003, 21.970622200000012 ], [ -102.3451479, 21.9701501 ], [ -102.3451897, 21.96947710000001 ], [ -102.3452461, 21.968959900000012 ], [ -102.345292, 21.9685385 ], [ -102.3453366, 21.96802 ], [ -102.3453316, 21.9677094 ], [ -102.3459676, 21.967856800000011 ], [ -102.3463851, 21.9660399 ], [ -102.3465959, 21.96519050000002 ], [ -102.3468146, 21.96432859999997 ], [ -102.346998, 21.9634595 ], [ -102.3471709, 21.962611200000016 ], [ -102.3480606, 21.962873900000012 ], [ -102.3478957, 21.9634 ], [ -102.348328, 21.963514700000022 ], [ -102.3478957, 21.9634 ], [ -102.3478447, 21.9637178 ], [ -102.346998, 21.9634595 ], [ -102.3471709, 21.962611200000016 ], [ -102.3474238, 21.962003 ], [ -102.3475977, 21.961313 ], [ -102.3477212, 21.9608097 ], [ -102.3477998, 21.9607213 ], [ -102.3469616, 21.960281 ], [ -102.3461868, 21.959840400000029 ], [ -102.3465188, 21.958672499999984 ], [ -102.3466426, 21.9582386 ] ] } },
{ "type": "Feature", "properties": { "candidate_id": "W6_G01", "corridor_group": 1, "route_km": 1.367, "n_stops": 4, "n_served_agebs": 6, "total_demand": 9723.0, "directness": 1.595, "connects_to_existing": true, "f1_demand_gain": 0.1015, "f3_equity": 0.3415, "total_score": 0.4255, "feasible": true, "mode_assignment": "Local Bus", "pareto_rank": 1 }, "geometry": { "type": "LineString", "coordinates": [ [ -102.2439924, 21.9001283 ], [ -102.2428706, 21.9005682 ], [ -102.2428587, 21.900529 ], [ -102.2427514, 21.900175600000011 ], [ -102.2427201, 21.900072700000017 ], [ -102.242618, 21.8997364 ], [ -102.2420506, 21.899950499999989 ], [ -102.2411898, 21.8991246 ], [ -102.2410901, 21.899194900000015 ], [ -102.2404133, 21.898642099999986 ], [ -102.2405287, 21.898535 ], [ -102.2408815, 21.89820030000002 ], [ -102.2399698, 21.8974758 ], [ -102.2384097, 21.8967681 ], [ -102.2385341, 21.8963978 ], [ -102.2386803, 21.895990399999988 ], [ -102.2388138, 21.895568499999957 ], [ -102.2389381, 21.8951653 ], [ -102.2390868, 21.894738400000012 ], [ -102.2391082, 21.894677099999985 ], [ -102.2394133, 21.8938898 ], [ -102.2393542, 21.893280099999988 ], [ -102.2397536, 21.893176799999988 ], [ -102.239814400000014, 21.8933808 ], [ -102.2398401, 21.8933834 ] ] } },
{ "type": "Feature", "properties": { "candidate_id": "W6_G02", "corridor_group": 2, "route_km": 2.195, "n_stops": 5, "n_served_agebs": 4, "total_demand": 26023.0, "directness": 1.973, "connects_to_existing": true, "f1_demand_gain": 0.0207, "f3_equity": 0.2515, "total_score": 0.3153, "feasible": false, "mode_assignment": "BRT", "pareto_rank": 2 }, "geometry": { "type": "LineString", "coordinates": [ [ -102.2937251, 21.842601 ], [ -102.295074, 21.8425257 ], [ -102.295037, 21.841971300000012 ], [ -102.295004, 21.8414764 ], [ -102.2936661, 21.8413786 ], [ -102.293472100000017, 21.841367400000031 ], [ -102.2934381, 21.8353746 ], [ -102.2935151, 21.8321578 ], [ -102.2935266, 21.8318864 ], [ -102.2935286, 21.83177 ], [ -102.2936752, 21.8317756 ], [ -102.2936701, 21.831867700000014 ], [ -102.2936634, 21.8322499 ], [ -102.2936111, 21.8337289 ], [ -102.2940483, 21.833747599999988 ], [ -102.2944519, 21.8337637 ], [ -102.294865, 21.83377370000002 ], [ -102.2952566, 21.833783700000012 ], [ -102.2956643, 21.833788600000023 ], [ -102.2956858, 21.8334289 ], [ -102.297523, 21.833495800000016 ], [ -102.2975383, 21.833152 ] ] } },
{ "type": "Feature", "properties": { "candidate_id": "W6_G03", "corridor_group": 3, "route_km": 13.856, "n_stops": 29, "n_served_agebs": 22, "total_demand": 115162.0, "directness": 2.03, "connects_to_existing": true, "f1_demand_gain": 0.0246, "f3_equity": 0.2949, "total_score": 0.2328, "feasible": false, "mode_assignment": "Light Rail/Metro", "pareto_rank": 2 }, "geometry": { "type": "LineString", "coordinates": [ [ -102.2516661, 21.955212100000011 ], [ -102.2520426, 21.9554508 ], [ -102.2527123, 21.955531100000016 ], [ -102.25335, 21.9556131 ], [ -102.2537911, 21.955802499999987 ], [ -102.2541007, 21.956052300000021 ], [ -102.254321, 21.9563924 ], [ -102.254526, 21.956625700000039 ], [ -102.2549848, 21.95690920000002 ], [ -102.2555804, 21.957411 ], [ -102.2557965, 21.9577096 ], [ -102.255867, 21.95782160000001 ], [ -102.2560141, 21.958095 ], [ -102.2562269, 21.95842769999998 ], [ -102.2564558, 21.958692399999975 ], [ -102.2568594, 21.9588671 ], [ -102.2573355, 21.9589604 ], [ -102.2574049, 21.958986400000018 ], [ -102.2574629, 21.95900390000001 ], [ -102.2581108, 21.9588737 ], [ -102.2593512, 21.958299899999982 ], [ -102.2633641, 21.957623800000022 ], [ -102.2642264, 21.9571985 ], [ -102.265774, 21.9558713 ], [ -102.2660449, 21.955725799999982 ], [ -102.2675362, 21.9558066 ], [ -102.2681639, 21.955844 ], [ -102.2693548, 21.9565722 ], [ -102.2706591, 21.956915399999986 ], [ -102.2713852, 21.9570281 ], [ -102.2720564, 21.9571753 ], [ -102.2725276, 21.956132 ], [ -102.2755266, 21.948619600000018 ], [ -102.2787287, 21.941599400000026 ], [ -102.2787684, 21.9415402 ], [ -102.2788445, 21.941439499999987 ], [ -102.2790241, 21.941093800000015 ], [ -102.279866, 21.939645 ], [ -102.279935, 21.9395195 ], [ -102.2803096, 21.9389292 ], [ -102.2804155, 21.938758799999977 ], [ -102.281235600000016, 21.936905299999989 ], [ -102.281391, 21.936139600000025 ], [ -102.2818825, 21.934508 ], [ -102.2823329, 21.933511500000012 ], [ -102.2824641, 21.933525 ], [ -102.28288640000001, 21.9335529 ], [ -102.2833691, 21.9335968 ], [ -102.2838779, 21.93364 ], [ -102.2843798, 21.933682599999987 ], [ -102.2845768, 21.931999600000022 ], [ -102.284833, 21.9308023 ], [ -102.2851989, 21.930848700000034 ], [ -102.2852557, 21.9303496 ], [ -102.2853897, 21.9291701 ], [ -102.2854626, 21.928528200000027 ], [ -102.2855385, 21.9278605 ], [ -102.2861186, 21.9280791 ], [ -102.2875527, 21.9291283 ], [ -102.2861186, 21.9280791 ], [ -102.2855385, 21.9278605 ], [ -102.2854626, 21.928528200000027 ], [ -102.2853897, 21.9291701 ], [ -102.2852557, 21.9303496 ], [ -102.2851989, 21.930848700000034 ], [ -102.284833, 21.9308023 ], [ -102.2845768, 21.931999600000022 ], [ -102.2843798, 21.933682599999987 ], [ -102.2838779, 21.93364 ], [ -102.2833691, 21.9335968 ], [ -102.28288640000001, 21.9335529 ], [ -102.2824641, 21.933525 ], [ -102.2823329, 21.933511500000012 ], [ -102.2821623, 21.933468099999985 ], [ -102.2817463, 21.933439400000033 ], [ -102.281347, 21.9334217 ], [ -102.2809399, 21.933409900000015 ], [ -102.2805411, 21.933387299999989 ], [ -102.2801316, 21.9333808 ], [ -102.2797304, 21.9333482 ], [ -102.2793101, 21.933333399999984 ], [ -102.2789146, 21.933310100000011 ], [ -102.2784929, 21.933285300000023 ], [ -102.2785545, 21.9322653 ], [ -102.27856, 21.9321744 ], [ -102.27843, 21.932181100000022 ], [ -102.278021, 21.932192899999976 ], [ -102.277632, 21.9322016 ], [ -102.2772337, 21.932215299999982 ], [ -102.2768139, 21.9322328 ], [ -102.2765725, 21.9322411 ], [ -102.2762541, 21.932252100000021 ], [ -102.2758538, 21.9322738 ], [ -102.2758372, 21.932416 ], [ -102.2727913, 21.933415 ], [ -102.272583, 21.933489299999987 ], [ -102.271984, 21.9337032 ], [ -102.2718526, 21.9336696 ], [ -102.2717625, 21.9335612 ], [ -102.2699034, 21.931201 ], [ -102.2689899, 21.93005059999998 ], [ -102.2688826, 21.93012610000001 ], [ -102.2695037, 21.93092930000002 ], [ -102.2698523, 21.9313706 ], [ -102.2689934, 21.932116400000034 ], [ -102.268581200000014, 21.932416 ], [ -102.2680902, 21.9324851 ], [ -102.2678862, 21.932935699999977 ], [ -102.2675969, 21.9332165 ], [ -102.2673216, 21.933478 ], [ -102.2669555, 21.933866099999985 ], [ -102.266699700000018, 21.934133799999987 ], [ -102.2664781, 21.934376199999985 ], [ -102.266201, 21.93464 ], [ -102.2661254, 21.934712099999967 ], [ -102.2652979, 21.935559300000016 ], [ -102.2650214, 21.9358458 ], [ -102.2645376, 21.936347 ], [ -102.2640212, 21.93708070000001 ], [ -102.2637207, 21.937374200000022 ], [ -102.2634378, 21.937656700000023 ], [ -102.2631327, 21.93792760000003 ], [ -102.2628579, 21.938206499999978 ], [ -102.2625555, 21.9384835 ], [ -102.262212, 21.9387151 ], [ -102.2629014, 21.9398112 ], [ -102.2625615, 21.9400359 ], [ -102.262245, 21.940245100000023 ], [ -102.2621531, 21.940305899999977 ], [ -102.262209, 21.9404508 ], [ -102.2623021, 21.940390400000013 ], [ -102.2626574, 21.940162 ], [ -102.2623021, 21.940390400000013 ], [ -102.262209, 21.9404508 ], [ -102.2621531, 21.940305899999977 ], [ -102.2613712, 21.939279800000012 ], [ -102.2611346, 21.9389773 ], [ -102.2608899, 21.9386662 ], [ -102.2608412, 21.938602099999986 ], [ -102.2601252, 21.937686399999965 ], [ -102.2593908, 21.936748600000016 ], [ -102.2594781, 21.93666120000001 ], [ -102.2596183, 21.9364467 ], [ -102.2598197, 21.9361257 ], [ -102.260028100000014, 21.935793800000013 ], [ -102.2602357, 21.9354629 ], [ -102.2604466, 21.935126800000038 ], [ -102.2606497, 21.9348033 ], [ -102.2608522, 21.9344807 ], [ -102.2610705, 21.9341328 ], [ -102.2612757, 21.9338058 ], [ -102.2614821, 21.9334768 ], [ -102.2616917, 21.933143 ], [ -102.2618937, 21.932821 ], [ -102.2620978, 21.932495799999984 ], [ -102.2616826, 21.9322656 ], [ -102.2613147, 21.932065400000027 ], [ -102.2605731, 21.9316618 ], [ -102.2601993, 21.9314584 ], [ -102.2601075, 21.9314084 ], [ -102.2598505, 21.931268500000019 ], [ -102.2590161, 21.93081440000002 ], [ -102.2579798, 21.9302504 ], [ -102.257601, 21.930092 ], [ -102.2572068, 21.929973600000011 ], [ -102.256737300000012, 21.929925099999988 ], [ -102.2562498, 21.9299821 ], [ -102.2561313, 21.9299891 ], [ -102.2559694, 21.9299881 ], [ -102.2556774, 21.9299793 ], [ -102.2552279, 21.929951 ], [ -102.2547788, 21.929878099999971 ], [ -102.2543665, 21.9297806 ], [ -102.2539788, 21.9296682 ], [ -102.2535866, 21.9295436 ], [ -102.2532023, 21.929417899999986 ], [ -102.2528098, 21.929294 ], [ -102.2523952, 21.929159800000019 ], [ -102.2524544, 21.929064100000012 ], [ -102.252575, 21.9288696 ], [ -102.251403100000019, 21.927703 ], [ -102.2510978, 21.9273207 ], [ -102.250821200000019, 21.9269591 ], [ -102.250665, 21.92656439999995 ], [ -102.2515911, 21.9265546 ], [ -102.2516399, 21.9261665 ], [ -102.2516703, 21.9258138 ], [ -102.2518075, 21.9254703 ], [ -102.251962500000019, 21.925135900000015 ] ] } },
{ "type": "Feature", "properties": { "candidate_id": "W6_G05", "corridor_group": 5, "route_km": 5.897, "n_stops": 13, "n_served_agebs": 12, "total_demand": 107633.0, "directness": 1.274, "connects_to_existing": true, "f1_demand_gain": 0.0052, "f3_equity": 0.2422, "total_score": 0.2666, "feasible": true, "mode_assignment": "Light Rail/Metro", "pareto_rank": 3 }, "geometry": { "type": "LineString", "coordinates": [ [ -102.257231200000021, 21.858026099999989 ], [ -102.2574091, 21.858612700000037 ], [ -102.2577348, 21.859682700000018 ], [ -102.2577747, 21.859682600000035 ], [ -102.2581245, 21.859675 ], [ -102.2582526, 21.859676 ], [ -102.2587624, 21.859672 ], [ -102.2598289, 21.859675300000013 ], [ -102.261522200000016, 21.859704200000024 ], [ -102.2630101, 21.859726499999987 ], [ -102.2632601, 21.8597332 ], [ -102.2649588, 21.859747900000016 ], [ -102.2667038, 21.859778499999983 ], [ -102.2671386, 21.8597897 ], [ -102.2683973, 21.859837500000019 ], [ -102.2686762, 21.859843099999967 ], [ -102.2693732, 21.859857200000022 ], [ -102.2694959, 21.8598575 ], [ -102.2694879, 21.860131600000027 ], [ -102.269474500000015, 21.8606431 ], [ -102.2694718, 21.861126 ], [ -102.2694688, 21.861595699999985 ], [ -102.2694692, 21.8620645 ], [ -102.2694692, 21.8625425 ], [ -102.2694531, 21.863003 ], [ -102.2694461, 21.863479900000016 ], [ -102.2711241, 21.863493399999978 ], [ -102.2728648, 21.8635108 ], [ -102.2728662, 21.8639813 ], [ -102.2728823, 21.864472899999988 ], [ -102.275036200000017, 21.86477 ], [ -102.2754543, 21.864413500000015 ], [ -102.2755236, 21.8643536 ], [ -102.275635, 21.8644354 ], [ -102.2765869, 21.8652996 ], [ -102.2766531, 21.865391500000023 ], [ -102.2771024, 21.866033100000021 ], [ -102.2772304, 21.866169499999987 ], [ -102.2777419, 21.866967400000014 ], [ -102.2777893, 21.867821200000026 ], [ -102.2780883, 21.867724699999989 ], [ -102.2783019, 21.867648 ], [ -102.2784581, 21.867595099999985 ], [ -102.2786725, 21.867770299999986 ], [ -102.2795316, 21.8684113 ], [ -102.2803096, 21.8689791 ], [ -102.281080900000021, 21.869556299999982 ], [ -102.2813762, 21.8696546 ], [ -102.2818413, 21.8697823 ], [ -102.2819482, 21.8698047 ], [ -102.2845409, 21.8698848 ], [ -102.2846082, 21.869955 ], [ -102.2852914, 21.8707106 ], [ -102.2859111, 21.8712858 ], [ -102.2868357, 21.8719745 ], [ -102.2873368, 21.872168799999987 ], [ -102.2871934, 21.873557 ], [ -102.2887086, 21.8731977 ], [ -102.2901472, 21.872751 ], [ -102.2902043, 21.8728488 ], [ -102.2907979, 21.874131 ], [ -102.2908217, 21.8742154 ], [ -102.2910054, 21.874993899999968 ], [ -102.2911841, 21.8756792 ], [ -102.2914802, 21.8767272 ], [ -102.2917604, 21.878049600000033 ], [ -102.2918136, 21.8782843 ], [ -102.2918546, 21.8791175 ], [ -102.2918612, 21.8792009 ], [ -102.2920621, 21.880201500000016 ], [ -102.2922731, 21.881363 ], [ -102.2927771, 21.8819848 ], [ -102.2930752, 21.8824809 ], [ -102.29339, 21.8830393 ] ] } }
]
}
