{
"type": "FeatureCollection",
"name": "tol_corridor_candidates",
"crs": { "type": "name", "properties": { "name": "urn:ogc:def:crs:OGC:1.3:CRS84" } },
"features": [
{ "type": "Feature", "properties": { "candidate_id": "W6_G00", "corridor_group": 0, "route_km": 18.276, "n_stops": 38, "n_served_agebs": 7, "total_demand": 83384.0, "directness": 1.393, "connects_to_existing": true, "f1_demand_gain": 0.0913, "f3_equity": 0.3294, "total_score": 0.2714, "feasible": true, "mode_assignment": "Light Rail/Metro", "pareto_rank": 3 }, "geometry": { "type": "LineString", "coordinates": [ [ -99.5466023, 19.0582214 ], [ -99.5473238, 19.0581345 ], [ -99.5478353, 19.0580768 ], [ -99.5480535, 19.05805320000005 ], [ -99.5489228, 19.057965 ], [ -99.5489057, 19.057748500000013 ], [ -99.5488935, 19.057564700000043 ], [ -99.5493159, 19.055550500000017 ], [ -99.549488900000014, 19.0551436 ], [ -99.5497249, 19.0543412 ], [ -99.549796, 19.053664899999958 ], [ -99.549965, 19.0526337 ], [ -99.5500655, 19.0520696 ], [ -99.550153, 19.0517074 ], [ -99.5504372, 19.05087910000001 ], [ -99.5513764, 19.050223499999969 ], [ -99.5642776, 19.0438975 ], [ -99.5713241, 19.0432136 ], [ -99.5725069, 19.042832 ], [ -99.5739406, 19.042875799999948 ], [ -99.5741278, 19.0429164 ], [ -99.5748217, 19.042029599999985 ], [ -99.5750134, 19.0418413 ], [ -99.5750818, 19.04177479999997 ], [ -99.575222, 19.041649899999975 ], [ -99.5753615, 19.0414642 ], [ -99.5754232, 19.041381099999988 ], [ -99.5754909, 19.0412626 ], [ -99.5755586, 19.041147899999988 ], [ -99.5757303, 19.0408328 ], [ -99.5757879, 19.040728900000012 ], [ -99.5758436, 19.0405856 ], [ -99.5759261, 19.0403765 ], [ -99.575965, 19.040289 ], [ -99.5761286, 19.039836399999977 ], [ -99.5762538, 19.039304 ], [ -99.5760414, 19.0385776 ], [ -99.5760659, 19.038472 ], [ -99.5760789, 19.0384102 ], [ -99.576146, 19.038188299999987 ], [ -99.5761956, 19.0380032 ], [ -99.5762265, 19.03788279999997 ], [ -99.5762658, 19.0377684 ], [ -99.5764831, 19.03713520000003 ], [ -99.5765698, 19.0368585 ], [ -99.5767117, 19.0361909 ], [ -99.57791090000002, 19.036370400000024 ], [ -99.5785962, 19.036525 ], [ -99.5788765, 19.0365884 ], [ -99.5792332, 19.036669599999975 ], [ -99.5798393, 19.036809 ], [ -99.5798139, 19.0371823 ], [ -99.5798863, 19.037404899999974 ], [ -99.5801962, 19.0380539 ], [ -99.5805452, 19.038199100000014 ], [ -99.5810638, 19.038381099999977 ], [ -99.5816478, 19.039559300000011 ], [ -99.5832827, 19.0411263 ], [ -99.5838574, 19.0417469 ], [ -99.587792100000016, 19.0451291 ], [ -99.5900774, 19.0477481 ], [ -99.5919771, 19.0499929 ], [ -99.5947176, 19.055878800000013 ], [ -99.5958696, 19.06392670000001 ], [ -99.595407, 19.069748499999971 ], [ -99.5934919, 19.0801569 ], [ -99.5895691, 19.0830276 ], [ -99.5863666, 19.0888373 ], [ -99.5862378, 19.08904 ], [ -99.5859448, 19.0905843 ], [ -99.5859884, 19.0909532 ], [ -99.5862096, 19.093533600000036 ], [ -99.5863468, 19.095377 ], [ -99.5865597, 19.098327 ], [ -99.5866954, 19.1031185 ], [ -99.5866928, 19.103412899999988 ], [ -99.5867005, 19.105215799999986 ], [ -99.5867018, 19.1053197 ], [ -99.5866965, 19.10572650000001 ], [ -99.5867021, 19.10621439999996 ], [ -99.5867076, 19.107793 ], [ -99.5881878, 19.111864900000011 ], [ -99.5883611, 19.1119988 ], [ -99.5881502, 19.1120808 ], [ -99.5872324, 19.113253399999987 ], [ -99.586771, 19.113840100000019 ], [ -99.5864735, 19.1143771 ], [ -99.5863654, 19.1146949 ], [ -99.586029600000018, 19.1170293 ], [ -99.58587, 19.119425899999989 ], [ -99.585881, 19.1196191 ], [ -99.5861144, 19.119658 ], [ -99.5854077, 19.121650700000011 ], [ -99.5852629, 19.1220152 ], [ -99.585102100000015, 19.122528299999988 ], [ -99.5850822, 19.122581299999975 ], [ -99.5849799, 19.122837800000021 ], [ -99.584662, 19.123687900000029 ], [ -99.5852669, 19.1236937 ], [ -99.5857035, 19.1237163 ], [ -99.5855732, 19.1253517 ], [ -99.5855534, 19.1258066 ], [ -99.5859726, 19.125820799999982 ], [ -99.5863873, 19.1258552 ], [ -99.586838500000013, 19.125886400000049 ], [ -99.5873449, 19.125922899999978 ], [ -99.5874227, 19.125928 ], [ -99.5875413, 19.1259418 ], [ -99.5880612, 19.125975600000029 ], [ -99.5884275, 19.1259931 ], [ -99.5884041, 19.1264371 ], [ -99.5884275, 19.1259931 ], [ -99.5880612, 19.125975600000029 ], [ -99.5875413, 19.1259418 ], [ -99.5874227, 19.125928 ], [ -99.5873449, 19.125922899999978 ], [ -99.586838500000013, 19.125886400000049 ], [ -99.5863873, 19.1258552 ], [ -99.5859726, 19.125820799999982 ], [ -99.5855534, 19.1258066 ], [ -99.5855732, 19.1253517 ], [ -99.5846727, 19.125335500000013 ], [ -99.5840934, 19.125334500000019 ], [ -99.5831479, 19.125261500000018 ], [ -99.5823653, 19.125207299999985 ], [ -99.5821654, 19.1251858 ], [ -99.581692, 19.1251418 ], [ -99.5815239, 19.1251248 ], [ -99.5814219, 19.125114 ], [ -99.5809474, 19.125033400000024 ], [ -99.580695, 19.1249873 ], [ -99.580349, 19.124937899999953 ], [ -99.5795418, 19.1248163 ], [ -99.5786203, 19.1246592 ], [ -99.5783683, 19.124623700000026 ] ] } },
{ "type": "Feature", "properties": { "candidate_id": "W6_G01", "corridor_group": 1, "route_km": 12.553, "n_stops": 26, "n_served_agebs": 23, "total_demand": 133728.0, "directness": 1.191, "connects_to_existing": true, "f1_demand_gain": 0.0322, "f3_equity": 0.1417, "total_score": 0.213, "feasible": true, "mode_assignment": "Light Rail/Metro", "pareto_rank": 3 }, "geometry": { "type": "LineString", "coordinates": [ [ -99.6726541, 19.260870299999976 ], [ -99.672486300000017, 19.261733800000044 ], [ -99.6723165, 19.262605 ], [ -99.6722111, 19.263162 ], [ -99.6721418, 19.263502700000025 ], [ -99.6714267, 19.2634266 ], [ -99.6712525, 19.264282500000018 ], [ -99.671167400000016, 19.2647004 ], [ -99.6710649, 19.2651866 ], [ -99.6708731, 19.266085300000018 ], [ -99.670784, 19.26651720000001 ], [ -99.6704621, 19.2668441 ], [ -99.670277, 19.267029 ], [ -99.6699575, 19.267313200000022 ], [ -99.6699399, 19.267331800000012 ], [ -99.6697528, 19.267526100000016 ], [ -99.669500500000012, 19.267779900000019 ], [ -99.6691647, 19.267652700000031 ], [ -99.6684509, 19.267556799999987 ], [ -99.667740800000018, 19.26746820000001 ], [ -99.6670231, 19.267379600000019 ], [ -99.6666616, 19.2673346 ], [ -99.6663011, 19.26728750000002 ], [ -99.6655988, 19.2672026 ], [ -99.6648514, 19.267109900000012 ], [ -99.664166, 19.26702449999998 ], [ -99.663430500000018, 19.266939 ], [ -99.6627793, 19.266869399999976 ], [ -99.6622898, 19.2668124 ], [ -99.6617568, 19.2667472 ], [ -99.6611808, 19.266666799999978 ], [ -99.6610185, 19.267485300000022 ], [ -99.6609457, 19.267944099999958 ], [ -99.6607094, 19.269123500000017 ], [ -99.6605499, 19.269836499999982 ], [ -99.6604574, 19.2698125 ], [ -99.6588675, 19.2693059 ], [ -99.6583957, 19.269166800000011 ], [ -99.6573759, 19.2688289 ], [ -99.6566545, 19.26856680000002 ], [ -99.6560197, 19.2683498 ], [ -99.6552776, 19.268119 ], [ -99.6538939, 19.2679828 ], [ -99.6529978, 19.268175499999987 ], [ -99.6517393, 19.268495599999973 ], [ -99.6505799, 19.268776299999981 ], [ -99.6501204, 19.268880599999967 ], [ -99.6495988, 19.268991300000032 ], [ -99.6493932, 19.269037600000026 ], [ -99.6476825, 19.269430100000019 ], [ -99.6473103, 19.2695281 ], [ -99.64702, 19.269586900000053 ], [ -99.6459133, 19.269839 ], [ -99.644607, 19.2701295 ], [ -99.6426224, 19.270599099999984 ], [ -99.6419513, 19.270764200000016 ], [ -99.641746800000021, 19.270815299999981 ], [ -99.6399887, 19.2711915 ], [ -99.6391555, 19.271392 ], [ -99.6384107, 19.271547900000026 ], [ -99.6382374, 19.2715835 ], [ -99.6335508, 19.2726417 ], [ -99.632695, 19.272797299999986 ], [ -99.6322819, 19.272895599999973 ], [ -99.6319895, 19.2729673 ], [ -99.6306024, 19.273283500000012 ], [ -99.6305588, 19.273295500000017 ], [ -99.6303339, 19.273370600000025 ], [ -99.6280415, 19.274016599999975 ], [ -99.6273228, 19.2742016 ], [ -99.6266991, 19.274354500000012 ], [ -99.6248246, 19.2747658 ], [ -99.6244254, 19.274821899999981 ], [ -99.6239652, 19.274866899999985 ], [ -99.6230375, 19.274955500000026 ], [ -99.6215308, 19.2751001 ], [ -99.6202724, 19.2752256 ], [ -99.616953, 19.275557599999974 ], [ -99.6157841, 19.2756669 ], [ -99.6138402, 19.2758412 ], [ -99.610772, 19.2761374 ], [ -99.6101913, 19.27619880000001 ], [ -99.607656600000013, 19.276433 ], [ -99.6072944, 19.276453 ], [ -99.6071229, 19.2764675 ], [ -99.6069787, 19.276478599999983 ], [ -99.606721, 19.2765043 ], [ -99.6060343, 19.276570599999989 ], [ -99.6059692, 19.276695700000012 ], [ -99.6059269, 19.276777 ], [ -99.6058391, 19.27681 ], [ -99.6056148, 19.277031899999987 ], [ -99.605214, 19.277442700000019 ], [ -99.6048133, 19.277853400000016 ], [ -99.6043832, 19.2782682 ], [ -99.6039812, 19.2786654 ], [ -99.6033224, 19.279133900000019 ], [ -99.6027074, 19.280579699999986 ], [ -99.6026207, 19.280582700000025 ], [ -99.6022401, 19.2805905 ], [ -99.6021395, 19.281654700000018 ], [ -99.6015525, 19.281663700000014 ], [ -99.6012427, 19.282017 ], [ -99.6010869, 19.2819568 ], [ -99.6010645, 19.2827026 ], [ -99.6010672, 19.2827892 ], [ -99.6005995, 19.282782800000014 ], [ -99.5996257, 19.282788900000021 ], [ -99.5992251, 19.282789099999988 ], [ -99.59874910000002, 19.2828085 ], [ -99.5982921, 19.2828179 ], [ -99.5978376, 19.2828287 ], [ -99.5973771, 19.2828403 ], [ -99.5970539, 19.2828527 ], [ -99.5970027, 19.2828245 ], [ -99.5964119, 19.28291930000001 ], [ -99.5962463, 19.282948800000025 ], [ -99.595670900000016, 19.28304679999998 ], [ -99.5950377, 19.2832158 ], [ -99.5944823, 19.283382800000023 ], [ -99.5944673, 19.283727799999973 ], [ -99.5944269, 19.2849217 ], [ -99.594372, 19.286404 ], [ -99.5943483, 19.286841 ], [ -99.5943257, 19.286874 ], [ -99.5942442, 19.287785499999959 ], [ -99.5939575, 19.287778300000017 ], [ -99.5923607, 19.2877454 ], [ -99.5913628, 19.287723300000017 ], [ -99.59053, 19.2877007 ], [ -99.5878945, 19.28764320000003 ], [ -99.5864367, 19.287610600000015 ], [ -99.5864301, 19.287946 ], [ -99.5864316, 19.288327100000021 ], [ -99.5864308, 19.288709199999985 ], [ -99.5864307, 19.288755 ], [ -99.586425, 19.289320600000018 ], [ -99.5864323, 19.290072699999989 ], [ -99.5847529, 19.290029400000016 ], [ -99.5847559, 19.2902224 ], [ -99.5830312, 19.2901955 ], [ -99.5830138, 19.29150689999998 ], [ -99.5830071, 19.291719499999967 ], [ -99.5819713, 19.291674300000015 ], [ -99.5819462, 19.2920895 ], [ -99.5819312, 19.292469299999986 ], [ -99.5819075, 19.292880700000016 ], [ -99.5811477, 19.2928494 ], [ -99.5790609, 19.292756100000016 ], [ -99.5782885, 19.2927316 ], [ -99.5782701, 19.2931334 ], [ -99.578255, 19.2935426 ], [ -99.5781583, 19.29353360000005 ] ] } },
{ "type": "Feature", "properties": { "candidate_id": "W6_G02", "corridor_group": 2, "route_km": 20.591, "n_stops": 42, "n_served_agebs": 2, "total_demand": 21485.0, "directness": 8.76, "connects_to_existing": true, "f1_demand_gain": 0.0967, "f3_equity": 0.5537, "total_score": 0.3136, "feasible": false, "mode_assignment": "BRT", "pareto_rank": 2 }, "geometry": { "type": "LineString", "coordinates": [ [ -99.6537738, 19.4675753 ], [ -99.6556199, 19.4675285 ], [ -99.6566213, 19.467937799999959 ], [ -99.6568979, 19.46806209999998 ], [ -99.6571613, 19.4670228 ], [ -99.6555965, 19.4666447 ], [ -99.6536684, 19.4661699 ], [ -99.6528108, 19.4659607 ], [ -99.6509029, 19.465494899999985 ], [ -99.6503888, 19.4653713 ], [ -99.6495844, 19.465158 ], [ -99.6494248, 19.4651157 ], [ -99.6475808, 19.464720900000017 ], [ -99.6468832, 19.464677900000019 ], [ -99.6448268, 19.464627 ], [ -99.6431014, 19.464612300000024 ], [ -99.6419996, 19.4645792 ], [ -99.6358748, 19.4634109 ], [ -99.6353088, 19.46316050000004 ], [ -99.6343022, 19.4626725 ], [ -99.6320399, 19.461647600000024 ], [ -99.6257615, 19.4587335 ], [ -99.6256428, 19.458676 ], [ -99.6258802, 19.449309300000014 ], [ -99.6263999, 19.4489688 ], [ -99.6246957, 19.4473535 ], [ -99.6243344, 19.447012600000019 ], [ -99.6239617, 19.446658400000029 ], [ -99.6234106, 19.446120900000032 ], [ -99.620625700000019, 19.4433324 ], [ -99.6224161, 19.44139060000002 ], [ -99.6229997, 19.43466370000003 ], [ -99.6199921, 19.433121500000013 ], [ -99.6186402, 19.432469 ], [ -99.6181454, 19.4322413 ], [ -99.6179809, 19.4321559 ], [ -99.617744400000021, 19.432025 ], [ -99.6170204, 19.4315656 ], [ -99.6149737, 19.43033159999997 ], [ -99.6146438, 19.430138700000033 ], [ -99.6148168, 19.429955300000021 ], [ -99.615317, 19.42873040000001 ], [ -99.6153304, 19.4282056 ], [ -99.615730700000015, 19.42692 ], [ -99.6157884, 19.426752400000016 ], [ -99.6156147, 19.42655 ], [ -99.6131511, 19.42389020000001 ], [ -99.613092100000017, 19.4238339 ], [ -99.6132291, 19.423569699999977 ], [ -99.6133751, 19.423288200000012 ], [ -99.6157644, 19.4183537 ], [ -99.6177434, 19.4126775 ], [ -99.6177498, 19.4126131 ], [ -99.6177967, 19.4124044 ], [ -99.6178252, 19.412293299999966 ], [ -99.6179416, 19.4118924 ], [ -99.6180577, 19.4116458 ], [ -99.6181134, 19.4115027 ], [ -99.6187546, 19.4104239 ], [ -99.6188145, 19.410457799999985 ], [ -99.6281386, 19.404115300000015 ], [ -99.6282251, 19.4040637 ], [ -99.6298737, 19.4048674 ], [ -99.631599, 19.405888700000023 ], [ -99.631826, 19.4057144 ], [ -99.6334085, 19.4071425 ], [ -99.6362637, 19.4060547 ], [ -99.6365051, 19.405887699999969 ], [ -99.6367706, 19.406221599999981 ], [ -99.6370496, 19.406540400000015 ], [ -99.6371193, 19.4102617 ], [ -99.637057, 19.4104559 ], [ -99.6371008, 19.4126116 ], [ -99.6390505, 19.412086900000013 ], [ -99.6408878, 19.411462100000012 ], [ -99.6443237, 19.410497 ], [ -99.6487427, 19.4103755 ], [ -99.6499309, 19.414652 ], [ -99.6523261, 19.419952900000041 ], [ -99.6539891, 19.4265298 ], [ -99.6546248, 19.429324900000022 ], [ -99.6589622, 19.4284732 ], [ -99.6592703, 19.4285774 ], [ -99.6598899, 19.4301588 ], [ -99.6609765, 19.430242200000016 ], [ -99.6618216, 19.4329748 ], [ -99.6634559, 19.437375899999978 ], [ -99.6597062, 19.4434456 ], [ -99.660050900000016, 19.4446325 ], [ -99.6602698, 19.445319799999989 ], [ -99.6603599, 19.4456044 ], [ -99.6605015, 19.4459293 ], [ -99.6606872, 19.4462246 ], [ -99.6615998, 19.446929 ], [ -99.6611056, 19.4470509 ], [ -99.6612981, 19.447725700000024 ], [ -99.6614055, 19.4477029 ], [ -99.6615939, 19.4482329 ], [ -99.6618976, 19.448138599999989 ], [ -99.6625021, 19.447952799999989 ] ] } },
{ "type": "Feature", "properties": { "candidate_id": "W6_G03", "corridor_group": 3, "route_km": 1.237, "n_stops": 3, "n_served_agebs": 3, "total_demand": 9860.0, "directness": 1.26, "connects_to_existing": true, "f1_demand_gain": 0.1872, "f3_equity": 0.4882, "total_score": 0.549, "feasible": true, "mode_assignment": "Local Bus", "pareto_rank": 2 }, "geometry": { "type": "LineString", "coordinates": [ [ -99.3867646, 19.243033300000018 ], [ -99.3869671, 19.2431094 ], [ -99.389023, 19.2426802 ], [ -99.39007580000002, 19.2425169 ], [ -99.3902904, 19.2423725 ], [ -99.3926413, 19.2415457 ], [ -99.3930617, 19.242084799999986 ], [ -99.3932271, 19.242158 ], [ -99.393261, 19.2422623 ], [ -99.3934403, 19.2426572 ], [ -99.39437, 19.242444699999989 ], [ -99.3945242, 19.243122100000033 ], [ -99.3947003, 19.24370990000001 ], [ -99.3947187, 19.243707399999984 ], [ -99.3950828, 19.243628599999973 ] ] } },
{ "type": "Feature", "properties": { "candidate_id": "W6_G05", "corridor_group": 5, "route_km": 0.818, "n_stops": 3, "n_served_agebs": 2, "total_demand": 16755.0, "directness": 1.142, "connects_to_existing": true, "f1_demand_gain": 0.2216, "f3_equity": 0.7287, "total_score": 0.647, "feasible": true, "mode_assignment": "BRT", "pareto_rank": 1 }, "geometry": { "type": "LineString", "coordinates": [ [ -99.6499872, 19.069543099999986 ], [ -99.6503681, 19.066308400000018 ], [ -99.6505581, 19.0662905 ], [ -99.650526500000012, 19.064411699999983 ], [ -99.6513592, 19.0634653 ], [ -99.6521331, 19.063389199999989 ] ] } }
]
}
