{
"type": "FeatureCollection",
"name": "corridor_candidates",
"crs": { "type": "name", "properties": { "name": "urn:ogc:def:crs:OGC:1.3:CRS84" } },
"features": [
{ "type": "Feature", "properties": { "candidate_id": "frontier_G00", "corridor_group": 0, "route_km": 8.5281567529359403, "n_served_agebs": 22, "total_demand": 82084.589284144182, "f1_demand_gain": 0.27335130222729437, "f3_equity": 0.33659840336577845, "total_score": 0.53643293012760618, "feasible": false, "mode_assignment": "Light Rail/Metro", "endpoints_connected": true, "hi_share": 0.45454545454545453, "best_jaccard": 0.076923076923076927, "redundant": false, "dpk_pct": 34.008097165991899, "merit_passed": false }, "geometry": { "type": "LineString", "coordinates": [ [ -103.3419782, 20.7715061 ], [ -103.3423164, 20.770503499999986 ], [ -103.3424732, 20.769772 ], [ -103.3427605, 20.768867600000032 ], [ -103.3428072, 20.7689083 ], [ -103.343258300000016, 20.768695900000012 ], [ -103.3433046, 20.768674200000014 ], [ -103.3438277, 20.768449200000045 ], [ -103.3440179, 20.768382599999981 ], [ -103.3443543, 20.768299800000023 ], [ -103.345242, 20.767562 ], [ -103.3424029, 20.7717135 ], [ -103.3428502, 20.771942399999961 ], [ -103.3431966, 20.771352600000025 ], [ -103.3433992, 20.7710651 ], [ -103.3438436, 20.771335200000017 ], [ -103.3445404, 20.7718545 ], [ -103.3449183, 20.7721483 ], [ -103.3451504, 20.7723332 ], [ -103.3451844, 20.772386900000022 ], [ -103.3453626, 20.7725001 ], [ -103.3463472, 20.7728426 ], [ -103.3475302, 20.773287299999975 ], [ -103.3476163, 20.773323 ], [ -103.3487057, 20.773828600000019 ], [ -103.3494616, 20.774198 ], [ -103.3501557, 20.773999500000013 ], [ -103.3506005, 20.774178599999981 ], [ -103.3510612, 20.7743309 ], [ -103.3514966, 20.774500899999985 ], [ -103.351188500000021, 20.775067200000016 ], [ -103.3443543, 20.768299800000023 ], [ -103.3449166, 20.7683547 ], [ -103.3452709, 20.768397500000013 ], [ -103.3455409, 20.768450299999976 ], [ -103.3461361, 20.768179199999988 ], [ -103.3462568, 20.767483400000021 ], [ -103.3467017, 20.767563 ], [ -103.347195, 20.767622600000035 ], [ -103.3473698, 20.7670678 ], [ -103.3481421, 20.766538900000015 ], [ -103.349295, 20.7650879 ], [ -103.3490894, 20.764954 ], [ -103.3494144, 20.7644269 ], [ -103.3517741, 20.751755 ], [ -103.3522635, 20.7518656 ], [ -103.352792300000019, 20.7519818 ], [ -103.3529296, 20.7514172 ], [ -103.3534797, 20.751537800000012 ], [ -103.3540033, 20.7516435 ], [ -103.3544246, 20.751741700000014 ], [ -103.3545168, 20.7517632 ], [ -103.3548399, 20.751840400000031 ], [ -103.3550485, 20.7518902 ], [ -103.3558013, 20.752240099999984 ], [ -103.3558874, 20.7523288 ], [ -103.3559634, 20.752421300000027 ], [ -103.3562581, 20.7528586 ], [ -103.3565055, 20.753312 ], [ -103.3566903, 20.75367780000002 ], [ -103.3567474, 20.75384309999998 ], [ -103.3574726, 20.754468400000029 ], [ -103.358366, 20.7548883 ], [ -103.3585743, 20.754998 ], [ -103.3591242, 20.754896700000025 ], [ -103.3600945, 20.7551432 ], [ -103.3601926, 20.754858 ], [ -103.3607176, 20.7550749 ], [ -103.3609706, 20.7551794 ], [ -103.3617147, 20.755486800000011 ], [ -103.3616837, 20.755659600000019 ], [ -103.3616163, 20.7560353 ], [ -103.361614, 20.7561139 ], [ -103.3615816, 20.7563884 ], [ -103.3497293, 20.763955100000015 ], [ -103.3499929, 20.763533 ], [ -103.350507, 20.762739 ], [ -103.3508678, 20.762347100000024 ], [ -103.3510736, 20.762459799999984 ], [ -103.351461, 20.761780800000011 ], [ -103.3570662, 20.750130699999989 ], [ -103.3579581, 20.750410400000014 ], [ -103.3580121, 20.7503124 ], [ -103.3586678, 20.750467200000017 ], [ -103.3586305, 20.7511967 ], [ -103.358598300000011, 20.751847600000016 ], [ -103.3592535, 20.7518722 ], [ -103.3591828, 20.7523199 ], [ -103.3591667, 20.7527298 ], [ -103.3591612, 20.753010499999984 ], [ -103.3591584, 20.7531516 ], [ -103.3591614, 20.753598500000017 ], [ -103.359164100000015, 20.7538852 ], [ -103.3591558, 20.7541521 ], [ -103.3597522, 20.7542825 ], [ -103.360368500000021, 20.7544198 ], [ -103.3601926, 20.754858 ], [ -103.3607176, 20.7550749 ], [ -103.3609706, 20.7551794 ], [ -103.3617147, 20.755486800000011 ], [ -103.3616837, 20.755659600000019 ], [ -103.3616163, 20.7560353 ], [ -103.361614, 20.7561139 ], [ -103.3615816, 20.7563884 ], [ -103.3510736, 20.762459799999984 ], [ -103.3515275, 20.7627753 ], [ -103.3518926, 20.763033 ], [ -103.3516126, 20.7633726 ], [ -103.352030400000018, 20.7636197 ], [ -103.352299, 20.76326140000003 ], [ -103.3524374, 20.7630822 ], [ -103.3528567, 20.7633002 ], [ -103.3532545, 20.763497699999988 ], [ -103.3536878, 20.763728400000012 ], [ -103.35412, 20.763920499999987 ], [ -103.3545631, 20.7641057 ], [ -103.355019, 20.7642513 ], [ -103.3554817, 20.7643895 ], [ -103.3559499, 20.7645313 ], [ -103.3565375, 20.7647671 ], [ -103.3568282, 20.764854799999977 ], [ -103.3569423, 20.7643746 ], [ -103.357992, 20.764858 ], [ -103.3584936, 20.76417120000001 ], [ -103.3588472, 20.763455500000013 ], [ -103.3597489, 20.763364800000016 ], [ -103.3598413, 20.763356300000016 ], [ -103.3603191, 20.763334499999978 ], [ -103.3604333, 20.7633526 ], [ -103.3608215, 20.7633904 ], [ -103.3612004, 20.763352699999984 ], [ -103.3614582, 20.76327550000001 ], [ -103.3616439, 20.7629274 ], [ -103.3618004, 20.76269 ], [ -103.3619887, 20.7624263 ], [ -103.3619008, 20.7623145 ], [ -103.3618998, 20.76142050000001 ], [ -103.3622716, 20.7613887 ], [ -103.3623278, 20.7609677 ], [ -103.3610664, 20.7610656 ], [ -103.361434200000019, 20.760680300000018 ], [ -103.3611171, 20.760490399999981 ], [ -103.3619907, 20.758659 ], [ -103.3615743, 20.758532799999987 ], [ -103.3611105, 20.75839760000002 ], [ -103.3613237, 20.757663 ], [ -103.3614347, 20.757138900000051 ], [ -103.3615639, 20.7565046 ], [ -103.3615816, 20.7563884 ] ] } },
{ "type": "Feature", "properties": { "candidate_id": "frontier_G01", "corridor_group": 1, "route_km": 28.604159751457011, "n_served_agebs": 47, "total_demand": 247389.91793600703, "f1_demand_gain": 0.17967726709410614, "f3_equity": 0.32275669582682798, "total_score": 0.27199844312200472, "feasible": false, "mode_assignment": "Light Rail/Metro", "endpoints_connected": true, "hi_share": 0.36170212765957449, "best_jaccard": 0.13095238095238096, "redundant": false, "dpk_pct": 27.935222672064778, "merit_passed": false }, "geometry": { "type": "LineString", "coordinates": [ [ -103.2923986, 20.543314500000022 ], [ -103.2915448, 20.5431374 ], [ -103.2909417, 20.543035799999966 ], [ -103.2905545, 20.542981700000016 ], [ -103.2898704, 20.5428654 ], [ -103.2893405, 20.542815100000034 ], [ -103.2892253, 20.5432801 ], [ -103.2890224, 20.544098899999984 ], [ -103.2882724, 20.5439566 ], [ -103.2872784, 20.5436883 ], [ -103.2869309, 20.543631 ], [ -103.2866915, 20.5435913 ], [ -103.2864375, 20.543534799999986 ], [ -103.2861646, 20.543478 ], [ -103.2858361, 20.543411500000019 ], [ -103.2852792, 20.543284600000025 ], [ -103.2846642, 20.543175 ], [ -103.2843454, 20.5431257 ], [ -103.2837988, 20.543041 ], [ -103.283778900000016, 20.5431166 ], [ -103.28356, 20.543950100000021 ], [ -103.2834059, 20.5445366 ], [ -103.283361, 20.544672699999989 ], [ -103.2828191, 20.5445908 ], [ -103.2823023, 20.544509600000019 ], [ -103.2822125, 20.544495 ], [ -103.2814116, 20.5443273 ], [ -103.2813571, 20.5443097 ], [ -103.280504, 20.544154 ], [ -103.2799034, 20.54404450000002 ], [ -103.2793239, 20.5439387 ], [ -103.279254, 20.544260600000015 ], [ -103.2788673, 20.5442103 ], [ -103.2783907, 20.5441395 ], [ -103.2778728, 20.544052 ], [ -103.2774922, 20.5440191 ], [ -103.2770741, 20.5439686 ], [ -103.2770004, 20.5439743 ], [ -103.2765675, 20.5439687 ], [ -103.2920012, 20.5448479 ], [ -103.2917511, 20.546082100000035 ], [ -103.2915727, 20.546755799999985 ], [ -103.2915107, 20.547041599999982 ], [ -103.291174, 20.5482217 ], [ -103.2908873, 20.549508900000031 ], [ -103.2918045, 20.549692599999968 ], [ -103.2928928, 20.549917200000035 ], [ -103.2928212, 20.5502401 ], [ -103.2927448, 20.5505849 ], [ -103.2923981, 20.552107 ], [ -103.2922728, 20.552669499999975 ], [ -103.2919108, 20.5541521 ], [ -103.2917186, 20.555114600000014 ], [ -103.2916389, 20.555556900000028 ], [ -103.2915418, 20.556009899999978 ], [ -103.2913624, 20.556796 ], [ -103.2926618, 20.557047899999979 ], [ -103.2932489, 20.55798820000004 ], [ -103.2929178, 20.5583828 ], [ -103.2926839, 20.55889 ], [ -103.292354500000016, 20.5595098 ], [ -103.181675, 20.5609842 ], [ -103.181706100000014, 20.5606045 ], [ -103.181719, 20.560266200000015 ], [ -103.1817493, 20.5598598 ], [ -103.1817927, 20.55952 ], [ -103.1818235, 20.559155599999979 ], [ -103.18188450000001, 20.558804099999989 ], [ -103.1832391, 20.55901310000003 ], [ -103.183225900000011, 20.559096 ], [ -103.1835879, 20.5591267 ], [ -103.1840008, 20.559184100000014 ], [ -103.1844492, 20.5592473 ], [ -103.1848813, 20.5593081 ], [ -103.1850987, 20.5598527 ], [ -103.1851571, 20.560246699999961 ], [ -103.1852063, 20.5605413 ], [ -103.1852698, 20.5609519 ], [ -103.1853936, 20.5617489 ], [ -103.1854135, 20.5618769 ], [ -103.185444, 20.562065 ], [ -103.1855762, 20.562040899999985 ], [ -103.1857612, 20.5618538 ], [ -103.1858359, 20.561855400000027 ], [ -103.1860299, 20.561859600000016 ], [ -103.1879179, 20.5619006 ], [ -103.2408082, 20.5012971 ], [ -103.2408852, 20.5014182 ], [ -103.2408404, 20.5022082 ], [ -103.2409883, 20.5023868 ], [ -103.2419548, 20.5020697 ], [ -103.2423603, 20.5019224 ], [ -103.2427866, 20.501779500000026 ], [ -103.243246200000016, 20.501627200000016 ], [ -103.2436805, 20.5014712 ], [ -103.2440749, 20.5013364 ], [ -103.2445478, 20.5011748 ], [ -103.2449877, 20.501039900000013 ], [ -103.2454951, 20.5008717 ], [ -103.2456419, 20.5016274 ], [ -103.2457141, 20.5020034 ], [ -103.2457884, 20.5023907 ], [ -103.245851800000011, 20.5027386 ], [ -103.2459246, 20.50310019999997 ], [ -103.2467435, 20.50299020000001 ], [ -103.248211, 20.502683599999969 ], [ -103.2482547, 20.503030199999984 ], [ -103.2486588, 20.5029512 ], [ -103.2498868, 20.502594799999972 ], [ -103.2498778, 20.5024815 ], [ -103.2500453, 20.5024638 ], [ -103.2501234, 20.502451300000025 ], [ -103.2512111, 20.502402299999972 ], [ -103.251283, 20.502472699999984 ], [ -103.2513885, 20.5026277 ], [ -103.2514646, 20.50271050000001 ], [ -103.2515093, 20.5028062 ], [ -103.2515699, 20.5027622 ], [ -103.2527548, 20.502092200000011 ], [ -103.252740800000012, 20.502536799999984 ], [ -103.2527197, 20.502889799999984 ], [ -103.252715900000013, 20.5033824 ], [ -103.2527137, 20.5036661 ], [ -103.1860299, 20.561859600000016 ], [ -103.1860305, 20.5622737 ], [ -103.1860252, 20.5626786 ], [ -103.1860305, 20.563087300000014 ], [ -103.1860049, 20.5634646 ], [ -103.1860279, 20.564509399999974 ], [ -103.1858347, 20.5645382 ], [ -103.1859408, 20.5648122 ], [ -103.1867474, 20.5659515 ], [ -103.1868158, 20.5661219 ], [ -103.1877418, 20.570695200000024 ], [ -103.1877579, 20.5707937 ], [ -103.1880414, 20.5708009 ], [ -103.1883185, 20.570859500000015 ], [ -103.1886444, 20.570909900000011 ], [ -103.1905177, 20.571237500000013 ], [ -103.1905333, 20.5711666 ], [ -103.190605, 20.570749599999981 ], [ -103.1907402, 20.5700539 ], [ -103.1908521, 20.5695111 ], [ -103.1908905, 20.5693363 ], [ -103.1910158, 20.568629 ], [ -103.241790300000019, 20.5236228 ], [ -103.2418281, 20.523586400000013 ], [ -103.2420829, 20.523341100000049 ], [ -103.2421272, 20.5232984 ], [ -103.2423609, 20.523073299999989 ], [ -103.2424093, 20.5230267 ], [ -103.242649, 20.5227959 ], [ -103.2426917, 20.5227549 ], [ -103.242928, 20.522527300000018 ], [ -103.242973, 20.522484 ], [ -103.2432046, 20.5222609 ], [ -103.2432547, 20.5222127 ], [ -103.2435764, 20.521902900000036 ], [ -103.2436685, 20.5218142 ], [ -103.2429641, 20.5211602 ], [ -103.2423231, 20.520565099999988 ], [ -103.2424322, 20.520299 ], [ -103.2430601, 20.519605899999984 ], [ -103.2427592, 20.5190193 ], [ -103.2414393, 20.517341 ], [ -103.2413141, 20.517177 ], [ -103.2394182, 20.514775 ], [ -103.239974300000014, 20.513083099999989 ], [ -103.2402396, 20.512106300000021 ], [ -103.2404597, 20.511295600000011 ], [ -103.240674700000014, 20.510504 ], [ -103.2408686, 20.5097899 ], [ -103.2409333, 20.5081757 ], [ -103.2416386, 20.507872300000017 ], [ -103.2420497, 20.5078141 ], [ -103.2463984, 20.505602 ], [ -103.2468776, 20.505334500000039 ], [ -103.2469305, 20.505446 ], [ -103.247976, 20.5058366 ], [ -103.248284, 20.505802300000052 ], [ -103.2492782, 20.5055851 ], [ -103.2497598, 20.505460599999985 ], [ -103.2500972, 20.5053376 ], [ -103.2501508, 20.5055823 ], [ -103.2513463, 20.5052032 ], [ -103.251917400000011, 20.505368499999953 ], [ -103.2522257, 20.505285699999977 ], [ -103.2525097, 20.5051857 ], [ -103.2527934, 20.505083 ], [ -103.2527109, 20.5048308 ], [ -103.2527071, 20.5045295 ], [ -103.2527092, 20.504248300000015 ], [ -103.252711500000018, 20.5039523 ], [ -103.2527137, 20.5036661 ], [ -103.241790300000019, 20.5236228 ], [ -103.2418281, 20.523586400000013 ], [ -103.2420829, 20.523341100000049 ], [ -103.2421272, 20.5232984 ], [ -103.2423609, 20.523073299999989 ], [ -103.2424093, 20.5230267 ], [ -103.242649, 20.5227959 ], [ -103.2426917, 20.5227549 ], [ -103.242928, 20.522527300000018 ], [ -103.242973, 20.522484 ], [ -103.2432046, 20.5222609 ], [ -103.2432547, 20.5222127 ], [ -103.2445268, 20.5227861 ], [ -103.2447335, 20.5229843 ], [ -103.2450454, 20.5232773 ], [ -103.2454171, 20.52363 ], [ -103.2457652, 20.524005100000043 ], [ -103.245735300000021, 20.524092600000039 ], [ -103.2459219, 20.5242573 ], [ -103.2460611, 20.524177699999989 ], [ -103.2469253, 20.523658300000012 ], [ -103.2470725, 20.5236376 ], [ -103.2494315, 20.5267333 ], [ -103.249943, 20.5273907 ], [ -103.24998690000001, 20.5274439 ], [ -103.2539518, 20.5323784 ], [ -103.2546811, 20.5333364 ], [ -103.2588984, 20.538634700000014 ], [ -103.2595529, 20.5394497 ], [ -103.2607851, 20.5410244 ], [ -103.2610117, 20.5413139 ], [ -103.2619509, 20.542469300000036 ], [ -103.2625472, 20.543218400000026 ], [ -103.2630912, 20.5439065 ], [ -103.2639763, 20.5450261 ], [ -103.2648313, 20.546107700000011 ], [ -103.2653463, 20.546759099999985 ], [ -103.2655988, 20.5470797 ], [ -103.265703, 20.5470222 ], [ -103.2649085, 20.546008200000017 ], [ -103.2656491, 20.5448178 ], [ -103.2667458, 20.5456086 ], [ -103.2676087, 20.5462322 ], [ -103.2680608, 20.546496400000017 ], [ -103.2680054, 20.5465934 ], [ -103.2699816, 20.5472471 ], [ -103.2706334, 20.5461231 ], [ -103.2712729, 20.5450696 ], [ -103.2717913, 20.544078400000036 ], [ -103.2723338, 20.5431663 ], [ -103.2729834, 20.543106699999989 ], [ -103.2744114, 20.543486 ], [ -103.2745536, 20.543276899999967 ], [ -103.2749486, 20.543427 ], [ -103.2765675, 20.5439687 ], [ -103.241790300000019, 20.5236228 ], [ -103.2415173, 20.5238857 ], [ -103.2413127, 20.5240828 ], [ -103.2412421, 20.524150700000021 ], [ -103.240976, 20.5243865 ], [ -103.240659, 20.524720199999983 ], [ -103.2406256, 20.524728100000011 ], [ -103.2407379, 20.525172900000015 ], [ -103.2408274, 20.525527400000026 ], [ -103.2409498, 20.525916599999984 ], [ -103.2408802, 20.527344299999982 ], [ -103.2406864, 20.5274713 ], [ -103.2405694, 20.52766840000001 ], [ -103.2404941, 20.5277889 ], [ -103.2405446, 20.5278938 ], [ -103.240596, 20.5280537 ], [ -103.2409085, 20.52869 ], [ -103.2397093, 20.529186200000012 ], [ -103.2363468, 20.531188699999987 ], [ -103.2298463, 20.5395552 ], [ -103.2288193, 20.54293 ], [ -103.2248664, 20.5583995 ], [ -103.224193, 20.5610031 ], [ -103.223880800000018, 20.5609643 ], [ -103.2237003, 20.5610898 ], [ -103.2232935, 20.561488 ], [ -103.2229111, 20.561862500000029 ], [ -103.2212841, 20.5634688 ], [ -103.2207523, 20.563976 ], [ -103.2202438, 20.564473799999988 ], [ -103.2199187, 20.56479449999998 ], [ -103.2195886, 20.5651153 ], [ -103.2193434, 20.565468900000027 ], [ -103.2193165, 20.5655076 ], [ -103.2190395, 20.5659072 ], [ -103.2187915, 20.5662648 ], [ -103.2185582, 20.566601200000033 ], [ -103.2184434, 20.5667745 ], [ -103.2179063, 20.567531199999969 ], [ -103.2176227, 20.5679376 ], [ -103.2175437, 20.56804630000001 ], [ -103.2172269, 20.5684925 ], [ -103.2167693, 20.569124 ], [ -103.216500700000012, 20.569492300000039 ], [ -103.2160481, 20.570125700000023 ], [ -103.2155201, 20.570851 ], [ -103.215188, 20.571603699999987 ], [ -103.2147571, 20.572374299999986 ], [ -103.2145492, 20.5726163 ], [ -103.2136868, 20.571923199999976 ], [ -103.213091, 20.57146909999998 ], [ -103.212111, 20.5707419 ], [ -103.2119105, 20.5710065 ], [ -103.2108561, 20.570362 ], [ -103.2057746, 20.5685705 ], [ -103.2040106, 20.5687159 ], [ -103.2038442, 20.568729600000015 ], [ -103.2018845, 20.569165899999984 ], [ -103.1944977, 20.5713481 ], [ -103.1930285, 20.57179 ], [ -103.1925612, 20.5718274 ], [ -103.1922561, 20.570819100000019 ], [ -103.1916092, 20.571356099999971 ], [ -103.1905333, 20.5711666 ], [ -103.190605, 20.570749599999981 ], [ -103.1907402, 20.5700539 ], [ -103.1908521, 20.5695111 ], [ -103.1908905, 20.5693363 ], [ -103.1910158, 20.568629 ] ] } },
{ "type": "Feature", "properties": { "candidate_id": "frontier_G02", "corridor_group": 2, "route_km": 12.567583312575813, "n_served_agebs": 36, "total_demand": 234414.22004715347, "f1_demand_gain": 0.15306314824876471, "f3_equity": 0.24070686656453605, "total_score": 0.35851000395176691, "feasible": false, "mode_assignment": "Light Rail/Metro", "endpoints_connected": false, "hi_share": 0.47222222222222221, "best_jaccard": 0.16279069767441862, "redundant": false, "dpk_pct": 84.615384615384613, "merit_passed": true }, "geometry": { "type": "LineString", "coordinates": [ [ -103.3838765, 20.598083399999986 ], [ -103.3838531, 20.598323499999989 ], [ -103.3838289, 20.5985714 ], [ -103.3834193, 20.598550900000031 ], [ -103.3833081, 20.598549 ], [ -103.3821948, 20.59862229999996 ], [ -103.382078300000018, 20.59868 ], [ -103.3814721, 20.598886300000018 ], [ -103.3808782, 20.5990774 ], [ -103.3802947, 20.599267200000021 ], [ -103.3797228, 20.5994436 ], [ -103.3791182, 20.599514899999981 ], [ -103.3789048, 20.599595299999972 ], [ -103.3783627, 20.5997781 ], [ -103.3779249, 20.59993159999998 ], [ -103.3774375, 20.6000951 ], [ -103.3769839, 20.600255300000025 ], [ -103.3765377, 20.600434299999989 ], [ -103.3761085, 20.6005873 ], [ -103.3760223, 20.6006186 ], [ -103.3757151, 20.6005512 ], [ -103.3752725, 20.6004546 ], [ -103.3751753, 20.6008589 ], [ -103.3751358, 20.60102330000003 ], [ -103.3750057, 20.601513 ], [ -103.3748983, 20.601899 ], [ -103.3748105, 20.602225 ], [ -103.37478, 20.60234959999995 ], [ -103.3746536, 20.602789500000032 ], [ -103.374537, 20.603163 ], [ -103.3745217, 20.603212 ], [ -103.3744078, 20.603632200000028 ], [ -103.3833684, 20.5980507 ], [ -103.3829834, 20.5975394 ], [ -103.382402, 20.597732700000023 ], [ -103.3817729, 20.5979425 ], [ -103.3811939, 20.598121500000023 ], [ -103.3806018, 20.598313 ], [ -103.3800981, 20.598368399999988 ], [ -103.3800053, 20.5985533 ], [ -103.3793879, 20.59861 ], [ -103.3809806, 20.593604600000013 ], [ -103.3812907, 20.5925672 ], [ -103.3813768, 20.592338100000013 ], [ -103.3823827, 20.589885 ], [ -103.3849583, 20.5852648 ], [ -103.3856658, 20.5828729 ], [ -103.3857454, 20.58272070000001 ], [ -103.3858245, 20.5824832 ], [ -103.3855673, 20.582375 ], [ -103.3853613, 20.582281900000012 ], [ -103.3849195, 20.58208209999998 ], [ -103.3840086, 20.581691300000013 ], [ -103.3827801, 20.5811991 ], [ -103.3825624, 20.581145 ], [ -103.3813888, 20.58078890000003 ], [ -103.3807995, 20.5800082 ], [ -103.3806277, 20.579893500000018 ], [ -103.3805349, 20.5798777 ], [ -103.380303, 20.579909200000017 ], [ -103.3737756, 20.5780604 ], [ -103.3726473, 20.5780419 ], [ -103.3717933, 20.5779898 ], [ -103.3710032, 20.577940099999989 ], [ -103.3702835, 20.5779197 ], [ -103.3695398, 20.5778675 ], [ -103.3687555, 20.577804400000016 ], [ -103.3680781, 20.577754400000025 ], [ -103.3676307, 20.5777213 ], [ -103.36695, 20.5776608 ], [ -103.3662394, 20.577597299999987 ], [ -103.3657006, 20.577553500000036 ], [ -103.3651693, 20.5775018 ], [ -103.3648535, 20.577473600000047 ], [ -103.364829, 20.578157 ], [ -103.3635408, 20.57780349999998 ], [ -103.3582417, 20.5765943 ], [ -103.3576823, 20.5764569 ], [ -103.3507311, 20.5759476 ], [ -103.3494254, 20.575748500000021 ], [ -103.348766900000015, 20.57576820000001 ], [ -103.3484793, 20.575422200000013 ], [ -103.3469909, 20.575645900000023 ], [ -103.3426216, 20.576375400000014 ], [ -103.3408589, 20.576663200000013 ], [ -103.3398901, 20.573432 ], [ -103.3739509, 20.603482100000015 ], [ -103.373484600000012, 20.603329 ], [ -103.3736077, 20.602844600000019 ], [ -103.3731216, 20.602673499999973 ], [ -103.3726458, 20.602506 ], [ -103.372286700000018, 20.6023796 ], [ -103.3721883, 20.602345 ], [ -103.3719276, 20.602253199999979 ], [ -103.3721246, 20.601470700000025 ], [ -103.3739509, 20.603482100000015 ], [ -103.373707, 20.6044207 ], [ -103.3734112, 20.6053174 ], [ -103.3731061, 20.606239 ], [ -103.3729782, 20.6066806 ], [ -103.372831, 20.607148899999981 ], [ -103.3726875, 20.60760549999998 ], [ -103.3725688, 20.6080116 ], [ -103.3723823, 20.608597 ], [ -103.3722732, 20.6085662 ], [ -103.3721293, 20.609015599999989 ], [ -103.372003, 20.609459 ], [ -103.3721017, 20.609487 ], [ -103.3719441, 20.610003700000032 ], [ -103.37185150000002, 20.6103607 ], [ -103.3717396, 20.610713100000016 ], [ -103.3718085, 20.6107315 ], [ -103.3717374, 20.6109954 ], [ -103.3716672, 20.611255800000023 ], [ -103.371445200000011, 20.6111992 ], [ -103.3712731, 20.611807800000047 ], [ -103.3712446, 20.611908600000028 ], [ -103.370884600000011, 20.613181100000023 ], [ -103.3706271, 20.6140869 ], [ -103.3701259, 20.61407920000002 ], [ -103.3694733, 20.6141623 ], [ -103.3694857, 20.6139583 ], [ -103.3695039, 20.613833600000017 ], [ -103.3694857, 20.6139583 ], [ -103.3694733, 20.6141623 ], [ -103.3701259, 20.61407920000002 ], [ -103.3706271, 20.6140869 ], [ -103.3710996, 20.614113799999984 ], [ -103.3715728, 20.614156099999988 ], [ -103.3716891, 20.613711 ], [ -103.3717654, 20.613418900000021 ], [ -103.3721427, 20.6121395 ], [ -103.3725084, 20.6122259 ], [ -103.3736103, 20.612492300000017 ], [ -103.3740315, 20.612597 ], [ -103.375167200000021, 20.612836 ], [ -103.3755567, 20.612055700000013 ], [ -103.3756417, 20.6117531 ], [ -103.3760733, 20.611865699999974 ], [ -103.3764134, 20.6119519 ], [ -103.3766624, 20.611304700000016 ], [ -103.3768347, 20.6115232 ], [ -103.3769212, 20.611624699999982 ], [ -103.3770428, 20.611775 ], [ -103.3767634, 20.612475 ], [ -103.376380800000021, 20.61342130000002 ] ] } },
{ "type": "Feature", "properties": { "candidate_id": "frontier_G03", "corridor_group": 3, "route_km": 2.4392090003257172, "n_served_agebs": 5, "total_demand": 35784.260145976783, "f1_demand_gain": 0.35744372868111973, "f3_equity": 0.34882007548566252, "total_score": 0.67432200588315439, "feasible": true, "mode_assignment": "BRT", "endpoints_connected": true, "hi_share": 0.6, "best_jaccard": 0.02564102564102564, "redundant": false, "dpk_pct": 65.991902834008101, "merit_passed": true }, "geometry": { "type": "LineString", "coordinates": [ [ -103.4906265, 20.7967557 ], [ -103.492133, 20.798704 ], [ -103.4929987, 20.7988851 ], [ -103.4951305, 20.799369600000013 ], [ -103.4951426, 20.7995972 ], [ -103.4950934, 20.8005103 ], [ -103.4950845, 20.800790800000033 ], [ -103.4950356, 20.801793899999979 ], [ -103.4953108, 20.8018242 ], [ -103.4955548, 20.8018301 ], [ -103.496754100000018, 20.802446400000036 ], [ -103.4970806, 20.802602100000016 ], [ -103.4973982, 20.80275659999996 ], [ -103.4976028, 20.8028551 ], [ -103.4980381, 20.80306480000003 ], [ -103.4981565, 20.8031226 ], [ -103.4981589, 20.8032009 ], [ -103.4979459, 20.803933599999972 ], [ -103.4981589, 20.8032009 ], [ -103.4982321, 20.803159900000011 ], [ -103.4989268, 20.802636 ], [ -103.4994081, 20.802285499999982 ], [ -103.5005695, 20.8028887 ], [ -103.500668, 20.8027809 ], [ -103.5022383, 20.8036084 ], [ -103.5027553, 20.803835 ], [ -103.503019, 20.803605300000026 ], [ -103.5034644, 20.803252100000012 ], [ -103.5038959, 20.8029652 ], [ -103.5045622, 20.8032101 ], [ -103.50498810000002, 20.8033666 ], [ -103.5054547, 20.803538 ], [ -103.5059517, 20.803711299999978 ], [ -103.5062143, 20.8038041 ] ] } },
{ "type": "Feature", "properties": { "candidate_id": "frontier_G05", "corridor_group": 5, "route_km": 5.3951408339581803, "n_served_agebs": 14, "total_demand": 80234.299739554146, "f1_demand_gain": 0.12476622404379249, "f3_equity": 0.27063831539849237, "total_score": 0.39746629594376409, "feasible": false, "mode_assignment": "Light Rail/Metro", "endpoints_connected": false, "hi_share": 0.5714285714285714, "best_jaccard": 0.15, "redundant": false, "dpk_pct": 68.825910931174079, "merit_passed": true }, "geometry": { "type": "LineString", "coordinates": [ [ -103.3675741, 20.5232156 ], [ -103.3671942, 20.5225143 ], [ -103.3674545, 20.52239 ], [ -103.367734100000021, 20.5227909 ], [ -103.368102, 20.522612299999988 ], [ -103.3692056, 20.522066899999988 ], [ -103.3692825, 20.522031 ], [ -103.3682196, 20.52016590000002 ], [ -103.3682721, 20.5197936 ], [ -103.3665533, 20.51443260000001 ], [ -103.3675502, 20.5121517 ], [ -103.369493, 20.512020300000014 ], [ -103.3694912, 20.5119277 ], [ -103.3695451, 20.5115432 ], [ -103.369583, 20.510972900000024 ], [ -103.369642, 20.5106047 ], [ -103.3697077, 20.5102438 ], [ -103.369752, 20.5099026 ], [ -103.3710038, 20.5099569 ], [ -103.3711139, 20.509961500000014 ], [ -103.3711488, 20.509282699999975 ], [ -103.371152, 20.5092171 ], [ -103.3712092, 20.508047 ], [ -103.3712121, 20.507988499999989 ], [ -103.3712545, 20.5071213 ], [ -103.3714248, 20.5069162 ], [ -103.372557, 20.506902599999979 ], [ -103.372629, 20.5069069 ], [ -103.3731733, 20.5069751 ], [ -103.373418300000012, 20.507013799999974 ], [ -103.3737856, 20.507062199999986 ], [ -103.3741799, 20.507121800000021 ], [ -103.374297, 20.507139399999971 ], [ -103.3746896, 20.5071933 ], [ -103.375071, 20.507241 ], [ -103.3754566, 20.5072747 ], [ -103.3758394, 20.50730519999998 ], [ -103.3754936, 20.508664700000022 ], [ -103.3758304, 20.5086813 ], [ -103.3759242, 20.5082693 ], [ -103.383023, 20.5128998 ], [ -103.3826175, 20.512908900000024 ], [ -103.3822116, 20.512918 ], [ -103.3818044, 20.5129197 ], [ -103.3817768, 20.5129224 ], [ -103.3815318, 20.5129519 ], [ -103.3814347, 20.512979399999985 ], [ -103.3814257, 20.513053399999986 ], [ -103.3810976, 20.515314100000012 ], [ -103.3808921, 20.5168011 ], [ -103.380665, 20.5169871 ], [ -103.3804507, 20.5169585 ], [ -103.3803745, 20.51695040000001 ], [ -103.3786359, 20.516721899999986 ], [ -103.3784408, 20.516396500000017 ], [ -103.3786362, 20.5149457 ], [ -103.378647, 20.514889099999976 ], [ -103.37883570000001, 20.5134568 ], [ -103.3788467, 20.5133849 ], [ -103.3789058, 20.5126627 ], [ -103.378918500000012, 20.5125686 ], [ -103.3789288, 20.512505399999988 ], [ -103.3790975, 20.511225599999982 ], [ -103.3791048, 20.5111609 ], [ -103.3791852, 20.510325500000011 ], [ -103.3792503, 20.509862400000028 ], [ -103.3791179, 20.509857299999972 ], [ -103.378704, 20.509847300000011 ], [ -103.3775114, 20.5098121 ], [ -103.3760491, 20.509767699999959 ], [ -103.3756346, 20.5097565 ], [ -103.3757066, 20.5093642 ], [ -103.375772400000017, 20.509006 ], [ -103.3758304, 20.5086813 ], [ -103.3759242, 20.5082693 ] ] } }
]
}
